id,latitude,longitude,name,city,country
1,-6.081689,145.391881,Goroka,Goroka,Papua New Guinea
2,-5.207083,145.7887,Madang,Madang,Papua New Guinea
3,-5.826789,144.295861,Mount Hagen,Mount Hagen,Papua New Guinea
4,-6.569828,146.726242,Nadzab,Nadzab,Papua New Guinea
5,-9.443383,147.22005,Port Moresby Jacksons Intl,Port Moresby,Papua New Guinea
6,-3.583828,143.669186,Wewak Intl,Wewak,Papua New Guinea
7,61.160517,-45.425978,Narsarsuaq,Narssarssuaq,Greenland
8,64.190922,-51.678064,Nuuk,Godthaab,Greenland
9,67.016969,-50.689325,Sondre Stromfjord,Sondrestrom,Greenland
10,76.531203,-68.703161,Thule Air Base,Thule,Greenland
11,65.659994,-18.072703,Akureyri,Akureyri,Iceland
12,65.283333,-14.401389,Egilsstadir,Egilsstadir,Iceland
15,66.058056,-23.135278,Isafjordur,Isafjordur,Iceland
16,63.985,-22.605556,Keflavik International Airport,Keflavik,Iceland
18,64.13,-21.940556,Reykjavik,Reykjavik,Iceland
21,46.485001,-84.509445,Sault Ste Marie,Sault Sainte Marie,Canada
24,51.391944,-56.083056,St Anthony,St. Anthony,Canada
27,49.1325,-68.204444,Baie Comeau,Baie Comeau,Canada
28,48.330555,-70.996391,Bagotville,Bagotville,Canada
29,64.298889,-96.077778,Baker Lake,Baker Lake,Canada
30,49.950832,-125.270833,Campbell River,Campbell River,Canada
31,49.91,-99.951944,Brandon Muni,Brandon,Canada
32,69.108055,-105.138333,Cambridge Bay,Cambridge Bay,Canada
33,49.052333,-123.870167,Nanaimo,Nanaimo,Canada
34,49.296389,-117.6325,Castlegar,Castlegar,Canada
36,47.990833,-66.330278,Charlo,Charlo,Canada
37,67.816667,-115.143889,Kugluktuk,Coppermine,Canada
40,70.486111,-68.516667,Clyde River,Clyde River,Canada
41,64.193333,-83.359444,Fairmont Hot Springs,Coral Harbour,Canada
45,49.210833,-57.391388,Deer Lake,Deer Lake,Canada
48,55.742333,-120.183,Dawson Creek,Dawson Creek,Canada
49,53.309723,-113.579722,Edmonton Intl,Edmonton,Canada
50,61.094166,-94.070833,Arviat,Eskimo Point,Canada
54,68.304167,-133.482778,Inuvik Mike Zubko,Inuvik,Canada
55,63.75639,-68.555832,Iqaluit,Iqaluit,Canada
56,45.868889,-66.537222,Fredericton,Fredericton,Canada
58,54.678055,-101.681667,Flin Flon,Flin Flon,Canada
60,61.760153,-121.236525,Fort Simpson,Fort Simpson,Canada
61,44.225277,-76.596944,Kingston,Kingston,Canada
62,53.625278,-77.704167,La Grande Riviere,La Grande Riviere,Canada
63,48.775278,-64.478611,Gaspe,Gaspe,Canada
65,47.424721,-61.778056,Iles De La Madeleine,Iles De La Madeleine,Canada
67,49.831667,-92.744167,Dryden Rgnl,Dryden,Canada
68,70.762778,-117.806111,Ulukhaktok Holman,Holman Island,Canada
69,68.635556,-95.849722,Gjoa Haven,Gjoa Haven,Canada
70,43.173611,-79.935,Hamilton,Hamilton,Canada
71,45.5175,-73.416944,St Hubert,Montreal,Canada
72,60.839722,-115.782778,Hay River,Hay River,Canada
73,44.880833,-63.50861,Halifax Intl,Halifax,Canada
75,72.683334,-77.966667,Pond Inlet,Pond Inlet,Canada
77,48.544167,-58.549999,Stephenville,Stephenville,Canada
78,50.702222,-120.444444,Kamloops,Kamloops,Canada
79,43.460833,-80.378611,Waterloo,Waterloo,Canada
80,54.805278,-66.805278,Schefferville,Schefferville,Canada
85,53.309166,-110.0725,Lloydminster,Lloydminster,Canada
87,49.956112,-119.377778,Kelowna,Kelowna,Canada
90,56.653333,-111.221944,Fort Mcmurray,Fort Mcmurray,Canada
91,51.291111,-80.607778,Moosonee,Moosonee,Canada
94,50.19,-61.789167,Natashquan,Natashquan,Canada
99,58.621389,-117.164722,High Level,High Level,Canada
100,45.3225,-75.669167,Ottawa Macdonald Cartier Intl,Ottawa,Canada
105,51.446388,-90.214167,Pickle Lake,Pickle Lake,Canada
106,49.836389,-64.288611,Port Menier,Port Menier,Canada
108,54.28611,-130.444722,Prince Rupert,Prince Pupert,Canada
109,58.767223,-111.117222,Fort Chipewyan,Fort Chipewyan,Canada
111,46.791111,-71.393333,Quebec Jean Lesage Intl,Quebec,Canada
112,52.182222,-113.894444,Red Deer Regional,Red Deer Industrial,Canada
113,42.275556,-82.955556,Windsor,Windsor,Canada
115,49.788334,-94.363056,Kenora,Kenora,Canada
116,49.630278,-112.799722,Lethbridge,Lethbridge,Canada
117,46.112221,-64.678611,Greater Moncton Intl,Moncton,Canada
119,49.710833,-124.886667,Comox,Comox,Canada
120,50.431944,-104.665833,Regina Intl,Regina,Canada
121,48.371944,-89.323889,Thunder Bay,Thunder Bay,Canada
122,55.179722,-118.885,Grande Prairie,Grande Prairie,Canada
125,48.936944,-54.568056,Gander Intl,Gander,Canada
126,46.161388,-60.047779,Sydney,Sydney,Canada
127,53.026112,-122.510278,Quesnel,Quesnel,Canada
128,74.716944,-94.969444,Resolute Bay,Resolute,Canada
132,62.81139,-92.115833,Rankin Inlet,Rankin Inlet,Canada
133,46.625,-80.798889,Sudbury,Sudbury,Canada
135,45.316111,-65.890278,Saint John,St. John,Canada
136,60.020278,-111.961944,Fort Smith,Fort Smith,Canada
139,71.993889,-125.2425,Sachs Harbour,Sachs Harbour,Canada
140,64.23,-76.526667,Cape Dorset,Cape Dorset,Canada
141,55.801111,-97.864166,Thompson,Thompson,Canada
143,48.569721,-81.376667,Timmins,Timmins,Canada
144,43.627499,-79.396167,City Centre,Toronto,Canada
145,69.433334,-133.026389,Tuktoyaktuk,Tuktoyaktuk,Canada
146,45.470556,-73.740833,Pierre Elliott Trudeau Intl,Montreal,Canada
147,66.521389,-86.224722,Repulse Bay,Repulse Bay,Canada
148,68.776111,-81.243611,Hall Beach,Hall Beach,Canada
149,48.206111,-78.835556,Rouyn Noranda,Rouyn,Canada
152,67.545833,-64.031389,Qikiqtarjuaq,Broughton Island,Canada
153,48.053333,-77.782778,Val D Or,Val D'or,Canada
154,58.096111,-68.426944,Kuujjuaq,Quujjuaq,Canada
155,65.281617,-126.798219,Norman Wells,Norman Wells,Canada
156,49.193889,-123.184444,Vancouver Intl,Vancouver,Canada
160,49.910036,-97.239886,Winnipeg Intl,Winnipeg,Canada
161,52.921944,-66.864444,Wabush,Wabush,Canada
162,52.183056,-122.054167,Williams Lake,Williams Lake,Canada
164,49.612222,-115.781944,Canadian Rockies Intl,Cranbrook,Canada
166,52.170834,-106.699722,Saskatoon J G Diefenbaker Intl,Saskatoon,Canada
167,50.01889,-110.720833,Medicine Hat,Medicine Hat,Canada
168,56.238056,-120.740278,Fort St John,Fort Saint John,Canada
169,50.113889,-91.905278,Sioux Lookout,Sioux Lookout,Canada
170,66.145,-65.713611,Pangnirtung,Pangnirtung,Canada
172,53.889444,-122.678889,Prince George,Prince George,Canada
173,54.468508,-128.576219,Terrace,Terrace,Canada
174,43.033056,-81.151111,London,London,Canada
175,49.025278,-122.360556,Abbotsford,Abbotsford,Canada
176,60.709553,-135.067269,Whitehorse Intl,Whitehorse,Canada
177,46.363611,-79.422778,North Bay,North Bay,Canada
178,51.113888,-114.020278,Calgary Intl,Calgary,Canada
179,54.824722,-127.182778,Smithers,Smithers,Canada
180,58.836389,-122.596944,Fort Nelson,Fort Nelson,Canada
181,49.463056,-119.602222,Penticton,Penticton,Canada
182,46.290001,-63.121111,Charlottetown,Charlottetown,Canada
183,69.546667,-93.576667,Taloyoak,Spence Bay,Canada
184,48.646944,-123.425833,Victoria Intl,Victoria,Canada
187,58.739167,-94.065,Churchill,Churchill,Canada
188,53.319168,-60.425833,Goose Bay,Goose Bay,Canada
189,47.61861,-52.751945,St Johns Intl,St. John's,Canada
190,49.413889,-82.4675,Kapuskasing,Kapuskasing,Canada
192,48.608612,-68.208056,Mont Joli,Mont Joli,Canada
193,43.677223,-79.630556,Lester B Pearson Intl,Toronto,Canada
196,62.462778,-114.440278,Yellowknife,Yellowknife,Canada
198,53.254333,-131.813833,Sandspit,Sandspit,Canada
199,42.999444,-82.308889,Chris Hadfield,Sarnia,Canada
200,50.680556,-127.366667,Port Hardy,Port Hardy,Canada
202,50.223333,-66.265556,Sept Iles,Sept-iles,Canada
206,67.4075,-134.860556,Fort Mcpherson,Fort Mcpherson,Canada
209,36.711997,5.069922,Soummam,Bejaja,Algeria
210,36.691014,3.215408,Houari Boumediene,Algier,Algeria
211,24.292767,9.452444,Tiska,Djanet,Algeria
216,22.811461,5.451075,Tamanrasset,Tamanrasset,Algeria
220,36.822225,7.809167,Annaba,Annaba,Algeria
221,36.276028,6.620386,Mohamed Boudiaf Intl,Constantine,Algeria
222,35.431611,8.120717,Cheikh Larbi Tebessi,Tebessa,Algeria
224,32.930431,3.311542,Hassi R Mel,Tilrempt,Algeria
225,35.341136,1.463147,Bou Chekif,Tiaret,Algeria
230,35.016667,-1.45,Zenata,Tlemcen,Algeria
231,35.623858,-0.621183,Es Senia,Oran,Algeria
233,35.207725,0.147142,Ghriss,Ghriss,Algeria
234,27.837589,-0.186414,Touat Cheikh Sidi Mohamed Belkebir,Adrar,Algeria
235,34.793289,5.738231,Biskra,Biskra,Algeria
236,30.571294,2.859586,El Golea,El Golea,Algeria
237,32.384106,3.794114,Noumerat,Ghardaia,Algeria
238,31.672972,6.140444,Oued Irara,Hassi Messaoud,Algeria
239,27.251022,2.512017,In Salah,In Salah,Algeria
240,33.067803,6.088672,Sidi Mahdi,Touggourt,Algeria
243,31.917223,5.412778,Ouargla,Ouargla,Algeria
244,28.05155,9.642911,In Amenas,Zarzaitine,Algeria
245,6.357228,2.384353,Cadjehoun,Cotonou,Benin
246,12.353194,-1.512417,Ouagadougou,Ouagadougou,Burkina Faso
247,11.160056,-4.330969,Bobo Dioulasso,Bobo-dioulasso,Burkina Faso
248,5.605186,-0.166786,Kotoka Intl,Accra,Ghana
249,9.557192,-0.863214,Tamale,Tamale,Ghana
251,7.361828,-2.328756,Sunyani,Sunyani,Ghana
252,4.896056,-1.774756,Takoradi,Takoradi,Ghana
253,5.261386,-3.926294,Abidjan Felix Houphouet Boigny Intl,Abidjan,Cote d'Ivoire
260,9.006792,7.263172,Nnamdi Azikiwe Intl,Abuja,Nigeria
262,6.316981,5.599503,Benin,Benin,Nigeria
263,4.976019,8.347197,Calabar,Calabar,Nigeria
264,6.474272,7.561961,Enugu,Enugu,Nigeria
266,7.362458,3.978333,Ibadan,Ibadan,Nigeria
267,8.440211,4.493919,Ilorin,Ilorin,Nigeria
268,9.639828,8.86905,Yakubu Gowon,Jos,Nigeria
269,10.696025,7.320114,Kaduna,Kaduna,Nigeria
270,12.047589,8.524622,Mallam Aminu Intl,Kano,Nigeria
273,6.577369,3.321156,Murtala Muhammed,Lagos,Nigeria
275,5.015494,6.949594,Port Harcourt Intl,Port Hartcourt,Nigeria
276,12.916322,5.207189,Sadiq Abubakar Iii Intl,Sokoto,Nigeria
277,9.257553,12.430422,Yola,Yola,Nigeria
280,13.481547,2.183614,Diori Hamani,Niamey,Niger
286,35.758056,10.754722,Habib Bourguiba Intl,Monastir,Tunisia
287,36.851033,10.227217,Carthage,Tunis,Tunisia
290,34.422022,8.822503,Gafsa,Gafsa,Tunisia
291,33.876919,10.103333,Gabes,Gabes,Tunisia
293,33.875031,10.775461,Zarzis,Djerba,Tunisia
295,34.717953,10.690972,Thyna,Sfax,Tunisia
296,33.939722,8.110556,Nefta,Tozeur,Tunisia
298,6.165611,1.254511,Gnassingbe Eyadema Intl,Lome,Togo
299,51.189444,4.460278,Deurne,Antwerp,Belgium
302,50.901389,4.484444,Brussels Natl,Brussels,Belgium
304,50.459197,4.453817,Brussels South,Charleroi,Belgium
309,50.637417,5.443222,Liege,Liege,Belgium
310,51.198889,2.862222,Oostende,Ostend,Belgium
337,52.380001,13.5225,Schonefeld,Berlin,Germany
338,51.132767,13.767161,Dresden,Dresden,Germany
339,50.979811,10.958106,Erfurt,Erfurt,Germany
340,50.026421,8.543125,Frankfurt Main,Frankfurt,Germany
341,52.134642,7.684831,Munster Osnabruck,Munster,Germany
342,53.630389,9.988228,Hamburg,Hamburg,Germany
344,50.865917,7.142744,Koln Bonn,Cologne,Germany
345,51.289453,6.766775,Dusseldorf,Duesseldorf,Germany
346,48.353783,11.786086,Franz Josef Strauss,Munich,Germany
347,49.4987,11.066897,Nurnberg,Nuernberg,Germany
348,51.432447,12.241633,Leipzig Halle,Leipzig,Germany
349,49.214553,7.109508,Saarbrucken,Saarbruecken,Germany
350,48.689878,9.221964,Stuttgart,Stuttgart,Germany
351,52.559686,13.287711,Tegel,Berlin,Germany
352,52.461056,9.685078,Hannover,Hannover,Germany
353,53.0475,8.786667,Neuenland,Bremen,Germany
355,49.948672,7.263892,Frankfurt Hahn,Hahn,Germany
356,49.472706,8.514264,Mannheim City,Mannheim,Germany
362,53.535886,9.837025,Hamburg Finkenwerder,Hamburg,Germany
364,53.805367,10.719222,Lubeck Blankensee,Luebeck,Germany
371,51.614089,8.616317,Paderborn Lippstadt,Paderborn,Germany
373,51.518314,7.612242,Dortmund,Dortmund,Germany
374,48.425158,10.931764,Augsburg,Augsburg,Germany
382,47.671317,9.511486,Friedrichshafen,Friedrichshafen,Germany
400,51.408394,9.377631,Kassel Calden,Kassel,Germany
410,54.91325,8.340472,Westerland Sylt,Westerland,Germany
413,58.229883,22.509494,Kuressaare,Kuressaare,Estonia
415,59.413317,24.832844,Tallinn,Tallinn-ulemiste International,Estonia
416,58.307461,26.690428,Tartu,Tartu,Estonia
421,60.317222,24.963333,Helsinki Vantaa,Helsinki,Finland
428,68.607269,27.405328,Ivalo,Ivalo,Finland
429,62.662906,29.60755,Joensuu,Joensuu,Finland
430,62.399453,25.678253,Jyvaskyla,Jyvaskyla,Finland
432,65.781889,24.5991,Kemi Tornio,Kemi,Finland
433,64.285472,27.692414,Kajaani,Kajaani,Finland
435,63.721172,23.143131,Kruunupyy,Kruunupyy,Finland
437,65.987575,29.239381,Kuusamo,Kuusamo,Finland
438,67.701022,24.84685,Kittila,Kittila,Finland
439,63.00715,27.797756,Kuopio,Kuopio,Finland
441,61.044553,28.144397,Lappeenranta,Lappeenranta,Finland
442,60.122203,19.898156,Mariehamn,Mariehamn,Finland
446,64.930061,25.354564,Oulu,Oulu,Finland
448,61.461686,21.799983,Pori,Pori,Finland
453,66.564822,25.830411,Rovaniemi,Rovaniemi,Finland
455,61.943064,28.945136,Savonlinna,Savonlinna,Finland
458,61.414147,23.604392,Tampere Pirkkala,Tampere,Finland
460,60.514142,22.262808,Turku,Turku,Finland
462,63.05065,21.762175,Vaasa,Vaasa,Finland
465,54.6575,-6.215833,Belfast Intl,Belfast,United Kingdom
467,54.618056,-5.8725,Belfast City,Belfast,United Kingdom
468,55.042778,-7.161111,City of Derry,Londonderry,United Kingdom
469,52.453856,-1.748028,Birmingham,Birmingham,United Kingdom
472,51.894167,-2.167222,Gloucestershire,Golouchestershire,United Kingdom
478,53.353744,-2.27495,Manchester,Manchester,United Kingdom
481,50.440558,-4.995408,St Mawgan,Newquai,United Kingdom
488,51.396667,-3.343333,Cardiff,Cardiff,United Kingdom
490,51.382669,-2.719089,Bristol,Bristol,United Kingdom
491,53.333611,-2.849722,Liverpool,Liverpool,United Kingdom
492,51.874722,-0.368333,Luton,London,United Kingdom
494,50.78,-1.8425,Bournemouth,Bournemouth,United Kingdom
495,50.950261,-1.356803,Southampton,Southampton,United Kingdom
497,49.706111,-2.214722,Alderney,Alderney,Guernsey
498,49.434956,-2.601969,Guernsey,Guernsey,Guernsey
499,49.207947,-2.195508,Jersey,Jersey,Jersey
502,51.148056,-0.190278,Gatwick,London,United Kingdom
503,51.505278,0.055278,City,London,United Kingdom
507,51.4775,-0.461389,Heathrow,London,United Kingdom
508,51.571389,0.695556,Southend,Southend,United Kingdom
514,53.771667,-3.028611,Blackpool,Blackpool,United Kingdom
515,53.574444,-0.350833,Humberside,Humberside,United Kingdom
517,53.865897,-1.660569,Leeds Bradford,Leeds,United Kingdom
519,53.178056,-2.977778,Hawarden,Hawarden,United Kingdom
520,54.083333,-4.623889,Isle Of Man,Isle Of Man,Isle of Man
521,55.0375,-1.691667,Newcastle,Newcastle,United Kingdom
522,54.509189,-1.429406,Durham Tees Valley Airport,Teesside,United Kingdom
523,52.831111,-1.328056,Nottingham East Midlands,East Midlands,United Kingdom
529,58.957778,-2.905,Kirkwall,Kirkwall,United Kingdom
530,59.878889,-1.295556,Sumburgh,Sumburgh,United Kingdom
531,58.458889,-3.093056,Wick,Wick,United Kingdom
532,57.201944,-2.197778,Dyce,Aberdeen,United Kingdom
533,57.5425,-4.0475,Inverness,Inverness,United Kingdom
534,55.871944,-4.433056,Glasgow,Glasgow,United Kingdom
535,55.95,-3.3725,Edinburgh,Edinburgh,United Kingdom
536,55.681944,-6.256667,Islay,Islay,United Kingdom
537,55.509444,-4.586667,Prestwick,Prestwick,United Kingdom
538,57.481111,-7.362778,Benbecula,Benbecula,United Kingdom
540,56.452499,-3.025833,Dundee,Dundee,United Kingdom
541,58.215556,-6.331111,Stornoway,Stornoway,United Kingdom
542,56.499167,-6.869167,Tiree,Tiree,United Kingdom
547,52.675833,1.282778,Norwich,Norwich,United Kingdom
548,51.885,0.235,Stansted,London,United Kingdom
552,50.734444,-3.413889,Exeter,Exeter,United Kingdom
579,-51.822777,-58.447222,Mount Pleasant,Mount Pleasant,Falkland Islands
580,52.308613,4.763889,Schiphol,Amsterdam,Netherlands
582,50.911658,5.770144,Maastricht,Maastricht,Netherlands
585,51.450139,5.374528,Eindhoven,Eindhoven,Netherlands
586,53.11972,6.579444,Eelde,Groningen,Netherlands
591,51.956944,4.437222,Rotterdam,Rotterdam,Netherlands
596,51.841269,-8.491111,Cork,Cork,Ireland
599,53.421333,-6.270075,Dublin,Dublin,Ireland
600,53.910297,-8.818492,Ireland West Knock,Connaught,Ireland
601,52.180878,-9.523783,Kerry,Kerry,Ireland
603,52.701978,-8.924817,Shannon,Shannon,Ireland
605,52.1872,-7.086964,Waterford,Waterford,Ireland
607,56.300017,10.619008,Aarhus,Aarhus,Denmark
608,55.740322,9.151778,Billund,Billund,Denmark
609,55.617917,12.655972,Kastrup,Copenhagen,Denmark
610,55.525942,8.553403,Esbjerg,Esbjerg,Denmark
612,56.297458,9.124628,Karup,Karup,Denmark
618,55.063267,14.759558,Bornholm Ronne,Ronne,Denmark
619,54.964367,9.791731,Sonderborg,Soenderborg,Denmark
625,62.063628,-7.277219,Vagar,Vagar,Faroe Islands
628,57.092789,9.849164,Aalborg,Aalborg,Denmark
629,49.626575,6.211517,Luxembourg,Luxemburg,Luxembourg
630,62.560372,6.110164,Vigra,Alesund,Norway
631,69.2925,16.144167,Andenes,Andoya,Norway
632,69.976111,23.371667,Alta,Alta,Norway
634,65.461111,12.2175,Bronnoy,Bronnoysund,Norway
635,67.269167,14.365278,Bodo,Bodo,Norway
636,60.293386,5.218142,Flesland,Bergen,Norway
637,70.600278,29.6925,Batsfjord,Batsfjord,Norway
638,58.204214,8.085369,Kjevik,Kristiansand,Norway
640,69.055758,18.540356,Bardufoss,Bardufoss,Norway
641,68.4913,16.678108,Evenes,Harstad/Narvik,Norway
642,61.015556,9.288056,Leirin,Fagernes,Norway
643,61.583611,5.024722,Floro,Floro,Norway
644,60.193917,11.100361,Gardermoen,Oslo,Norway
645,59.345267,5.208364,Karmoy,Haugesund,Norway
646,70.486675,22.139744,Hasvik,Hasvik,Norway
647,63.111781,7.824522,Kvernberget,Kristiansund,Norway
649,69.725781,29.891295,Hoybuktmoen,Kirkenes,Norway
651,62.744722,7.2625,Aro,Molde,Norway
652,65.783997,13.214914,Kjaerstad,Mosjoen,Norway
653,70.068814,24.973489,Banak,Lakselv,Norway
655,63.698908,9.604003,Orland,Orland,Norway
656,62.578411,11.342347,Roros,Roros,Norway
657,59.378933,10.785389,Moss,Rygge,Norway
658,78.246111,15.465556,Longyear,Svalbard,Norway
659,59.185,9.566944,Geiteryggen,Skien,Norway
660,59.791925,5.34085,Sorstokken,Stord,Norway
662,65.956828,12.468944,Stokka,Sandnessjoen,Norway
663,69.683333,18.918919,Langnes,Tromso,Norway
664,59.186703,10.258628,Torp,Sandefjord,Norway
665,63.457556,10.92425,Vaernes,Trondheim,Norway
666,58.876778,5.637856,Sola,Stavanger,Norway
668,54.377569,18.466222,Lech Walesa,Gdansk,Poland
669,50.077731,19.784836,Balice,Krakow,Poland
671,50.474253,19.080019,Pyrzowice,Katowice,Poland
674,52.421031,16.826325,Lawica,Poznan,Poland
675,50.109958,22.019,Jasionka,Rzeszow,Poland
676,53.584731,14.902206,Goleniow,Szczecin,Poland
679,52.16575,20.967122,Okecie,Warsaw,Poland
680,51.102683,16.885836,Strachowice,Wroclaw,Poland
685,56.266667,15.265,Ronneby,Ronneby,Sweden
687,57.662836,12.279819,Landvetter,Gothenborg,Sweden
688,57.757594,14.068731,Jonkoping,Joenkoeping,Sweden
691,57.774722,11.870372,Save,Gothenborg,Sweden
693,58.318056,12.345,Trollhattan Vanersborg,Trollhattan,Sweden
698,60.957908,14.511383,Mora,Mora,Sweden
699,58.788636,16.912189,Skavsta,Stockholm,Sweden
703,55.921686,14.085536,Kristianstad,Kristianstad,Sweden
707,56.685531,16.287578,Kalmar,Kalkmar,Sweden
708,55.530193,13.371639,Sturup,Malmoe,Sweden
709,56.691128,12.820211,Halmstad,Halmstad,Sweden
711,56.929144,14.727994,Kronoberg,Vaxjo,Sweden
714,62.047811,14.42295,Sveg,Sveg,Sweden
715,67.132408,20.814636,Gallivare,Gallivare,Sweden
718,63.048597,17.768856,Kramfors Solleftea,Kramfors,Sweden
719,64.548322,18.716219,Lycksele,Lycksele,Sweden
721,62.528125,17.443928,Sundsvall Harnosand,Sundsvall,Sweden
722,63.408339,18.990039,Ornskoldsvik,Ornskoldsvik,Sweden
724,67.821986,20.336764,Kiruna,Kiruna,Sweden
726,64.624772,21.076892,Skelleftea,Skelleftea,Sweden
728,63.791828,20.282758,Umea,Umea,Sweden
729,64.579083,16.833575,Vilhelmina,Vilhelmina,Sweden
730,65.590278,19.281944,Arvidsjaur,Arvidsjaur,Sweden
731,59.223733,15.037956,Orebro,Orebro,Sweden
733,59.589444,16.633611,Vasteras,Vasteras,Sweden
734,65.543758,22.121989,Kallax,Lulea,Sweden
737,59.651944,17.918611,Arlanda,Stockholm,Sweden
738,59.354372,17.94165,Bromma,Stockholm,Sweden
739,60.422017,15.515211,Borlange,Borlange,Sweden
742,58.40615,15.680508,Saab,Linkoeping,Sweden
743,58.586253,16.250622,Kungsangen,Norrkoeping,Sweden
746,57.662797,18.346211,Visby,Visby,Sweden
772,53.918167,12.278333,Laage,Laage,Germany
794,-29.092722,26.302444,Bloemfontein Intl,Bloemfontein,South Africa
797,-33.964806,18.601667,Cape Town Intl,Cape Town,South Africa
799,-29.970089,30.950519,Durban Intl,Durban,South Africa
800,-33.035569,27.825939,East London,East London,South Africa
804,-34.005553,22.378889,George,George,South Africa
811,-24.368642,31.048744,Hoedspruit Afb,Hoedspruit,South Africa
813,-26.139166,28.246,Johannesburg Intl,Johannesburg,South Africa
815,-28.802834,24.765167,Kimberley,Kimberley,South Africa
820,-25.938514,27.926133,Lanseria,Johannesburg,South Africa
827,-30.857408,30.343019,Margate,Margate,South Africa
838,-33.984919,25.617275,Port Elizabeth Intl,Port Elizabeth,South Africa
840,-23.937166,31.15539,Phalaborwa,Phalaborwa,South Africa
841,-23.926089,29.484422,Polokwane International,Polokwane,South Africa
843,-29.648975,30.398667,Pietermaritzburg,Pietermaritzburg,South Africa
849,-28.741039,32.092111,Richards Bay,Richard's Bay,South Africa
865,-28.399097,21.260239,Upington,Upington,South Africa
866,-31.547903,28.674289,Mthatha,Umtata,South Africa
877,-21.159597,27.474525,Francistown,Francistown,Botswana
879,-17.832875,25.1624,Kasane,Kasane,Botswana
880,-19.972564,23.431086,Maun,Maun,Botswana
881,-24.555225,25.918208,Sir Seretse Khama Intl,Gaberone,Botswana
883,-4.2517,15.253031,Maya Maya,Brazzaville,Congo (Brazzaville)
886,-4.816028,11.886597,Pointe Noire,Pointe-noire,Congo (Brazzaville)
887,-26.529022,31.307519,Matsapha,Manzini,Swaziland
888,4.398475,18.518786,Bangui M Poko,Bangui,Central African Republic
890,1.905469,9.805681,Bata,Bata,Equatorial Guinea
891,3.755267,8.708717,Malabo,Malabo,Equatorial Guinea
893,-20.430235,57.6836,Sir Seewoosagur Ramgoolam Intl,Plaisance,Mauritius
894,-19.757658,63.360983,Plaine Corail,Rodriguez Island,Mauritius
897,4.006081,9.719481,Douala,Douala,Cameroon
898,10.451392,14.257361,Salak,Maroua,Cameroon
900,7.357011,13.559242,Ngaoundere,N'gaoundere,Cameroon
901,9.335892,13.370103,Garoua,Garoua,Cameroon
906,-17.821756,25.822692,Livingstone,Livingstone,Zambia
907,-15.330817,28.452628,Lusaka Intl,Lusaka,Zambia
908,-13.258878,31.936581,Mfuwe,Mfuwe,Zambia
910,-12.998139,28.664944,Ndola,Ndola,Zambia
912,-11.533661,43.27185,Prince Said Ibrahim,Moroni,Comoros
915,-12.804722,45.281113,Dzaoudzi Pamandzi,Dzaoudzi,Mayotte
916,-20.8871,55.510308,St Denis Gillot,St.-denis,Reunion
917,-21.320039,55.423581,St Pierre Pierrefonds,St.-pierre,Reunion
918,-18.79695,47.478806,Ivato,Antananarivo,Madagascar
920,-17.093889,49.815834,Sainte Marie,Sainte Marie,Madagascar
921,-18.109517,49.392536,Toamasina,Toamasina,Madagascar
922,-20.28475,44.317614,Morondava,Morondava,Madagascar
923,-12.3494,49.291747,Arrachart,Antsiranana,Madagascar
924,-16.1639,49.773753,Avaratra,Mananara,Madagascar
927,-14.999411,50.320233,Antsirabato,Antalaha,Madagascar
929,-15.667144,46.351828,Philibert Tsiranana,Mahajanga,Madagascar
930,-13.312067,48.314822,Fascene,Nosy-be,Madagascar
932,-15.436666,49.688332,Maroantsetra,Maroantsetra,Madagascar
933,-14.278611,50.174721,Sambava,Sambava,Madagascar
937,-25.038056,46.956111,Tolagnaro,Tolagnaro,Madagascar
943,-23.383369,43.728453,Toliara,Toliara,Madagascar
944,-6.269897,14.247025,Mbanza Congo,M'banza-congo,Angola
946,-5.596992,12.188353,Cabinda,Cabinda,Angola
948,-12.808878,15.760547,Huambo,Huambo,Angola
949,-12.404633,16.947414,Kuito,Kuito,Angola
951,-8.858375,13.231178,Luanda 4 De Fevereiro,Luanda,Angola
952,-9.525086,16.312406,Malanje,Malanje,Angola
953,-14.657583,17.719833,Menongue,Menongue,Angola
957,-9.689067,20.431875,Saurimo,Saurimo,Angola
958,-6.141086,12.371764,Soyo,Soyo,Angola
959,-14.924733,13.575022,Lubango,Lubango,Angola
960,-11.768086,19.897672,Luena,Luena,Angola
967,-0.711739,8.754383,Port Gentil,Port Gentil,Gabon
970,0.4586,9.412283,Leon M Ba,Libreville,Gabon
973,0.378175,6.712153,Sao Tome Intl,Sao Tome,Sao Tome and Principe
974,-19.796419,34.907556,Beira,Beira,Mozambique
976,-23.876431,35.408544,Inhambane,Inhambane,Mozambique
977,-13.273986,35.266262,Lichinga,Lichinga,Mozambique
979,-25.920836,32.572606,Maputo,Maputo,Mozambique
984,-15.105611,39.2818,Nampula,Nampula,Mozambique
985,-12.986753,40.522492,Pemba,Pemba,Mozambique
986,-17.8555,36.869106,Quelimane,Quelimane,Mozambique
988,-16.104817,33.640181,Tete Chingodzi,Tete,Mozambique
990,-22.018431,35.313297,Vilankulo,Vilankulu,Mozambique
994,-4.674342,55.521839,Seychelles Intl,Mahe,Seychelles
995,-4.319292,55.691417,Praslin,Praslin,Seychelles
999,12.133689,15.034019,Ndjamena Hassan Djamous,N'djamena,Chad
1001,-20.017431,28.617869,J M Nkomo Intl,Bulawayo,Zimbabwe
1004,-18.095881,25.839006,Victoria Falls Intl,Victoria Falls,Zimbabwe
1005,-17.931806,31.092847,Harare Intl,Harare,Zimbabwe
1013,-15.679053,34.974014,Chileka Intl,Blantyre,Malawi
1016,-13.789378,33.781,Kamuzu Intl,Lilongwe,Malawi
1018,-29.462256,27.552503,Moshoeshoe I Intl,Maseru,Lesotho
1020,-4.38575,15.444569,Ndjili Intl,Kinshasa,Congo (Kinshasa)
1026,0.0226,18.288744,Mbandaka,Mbandaka,Congo (Kinshasa)
1028,3.235369,19.771258,Gemena,Gemena,Congo (Kinshasa)
1031,0.5175,25.155014,Kisangani Simisini,Kisangani,Congo (Kinshasa)
1032,2.827606,27.588253,Matari,Isiro,Congo (Kinshasa)
1033,1.565719,30.220833,Bunia,Bunia,Congo (Kinshasa)
1035,-2.308978,28.808803,Bukavu Kavumu,Bukavu/kavumu,Congo (Kinshasa)
1036,-1.670814,29.238464,Goma,Goma,Congo (Kinshasa)
1037,-2.919178,25.915361,Kindu,Kindu,Congo (Kinshasa)
1038,-11.591333,27.530889,Lubumbashi Intl,Lubumashi,Congo (Kinshasa)
1042,-5.900055,22.469166,Kananga,Kananga,Congo (Kinshasa)
1043,-6.121236,23.569008,Mbuji Mayi,Mbuji-mayi,Congo (Kinshasa)
1044,12.533544,-7.949944,Senou,Bamako,Mali
1050,13.337961,-16.652206,Banjul Intl,Banjul,Gambia
1051,28.452717,-13.863761,Fuerteventura,Fuerteventura,Spain
1052,27.814847,-17.887056,Hierro,Hierro,Spain
1053,28.626478,-17.755611,La Palma,Santa Cruz De La Palma,Spain
1054,27.931886,-15.386586,Gran Canaria,Gran Canaria,Spain
1055,28.945464,-13.605225,Lanzarote,Las Palmas,Spain
1056,28.044475,-16.572489,Tenerife Sur,Tenerife,Spain
1057,28.482653,-16.341536,Tenerife Norte,Tenerife,Spain
1058,35.279817,-2.956256,Melilla,Melilla,Spain
1059,8.616444,-13.195489,Freetown Lungi,Freetown,Sierra Leone
1062,6.289061,-10.758722,Monrovia Spriggs Payne,Monrovia,Liberia
1063,6.233789,-10.362311,Monrovia Roberts Intl,Monrovia,Liberia
1064,30.381353,-9.546311,Inezgane,Agadir,Morocco
1065,28.448194,-11.161347,Plage Blanche,Tan Tan,Morocco
1066,33.927261,-4.977958,Saiss,Fes,Morocco
1070,34.78715,-1.923986,Angads,Oujda,Morocco
1072,34.051467,-6.751519,Sale,Rabat,Morocco
1074,33.367467,-7.589967,Mohammed V Intl,Casablanca,Morocco
1075,31.606886,-8.0363,Menara,Marrakech,Morocco
1077,30.939053,-6.909431,Ouarzazate,Ouarzazate,Morocco
1078,35.177103,-3.839525,Cherif El Idrissi,Al Hociema,Morocco
1079,35.594333,-5.320019,Saniat Rmel,Tetouan,Morocco
1080,35.726917,-5.916889,Ibn Batouta,Tanger,Morocco
1081,12.555617,-16.281783,Ziguinchor,Ziguinchor,Senegal
1082,12.4102,-16.746125,Cap Skiring,Cap Skiring,Senegal
1084,14.739708,-17.490225,Leopold Sedar Senghor Intl,Dakar,Senegal
1094,18.097856,-15.947956,Nouakchott,Nouakschott,Mauritania
1097,20.933067,-17.029956,Nouadhibou,Nouadhibou,Mauritania
1102,16.741389,-22.949444,Amilcar Cabral Intl,Amilcar Cabral,Cape Verde
1103,16.136531,-22.888897,Rabil,Boa Vista,Cape Verde
1104,15.155928,-23.213703,Maio,Maio,Cape Verde
1105,16.588356,-24.284656,Preguica,Sao Nocolau Island,Cape Verde
1106,16.833689,-25.054661,Sao Pedro,Sao Vicente Island,Cape Verde
1107,8.977889,38.799319,Bole Intl,Addis Ababa,Ethiopia
1109,6.039389,37.590453,Arba Minch,Arba Minch,Ethiopia
1110,14.14675,38.772833,Axum,Axum,Ethiopia
1111,11.608075,37.321644,Bahir Dar,Bahar Dar,Ethiopia
1112,9.6247,41.854203,Dire Dawa Intl,Dire Dawa,Ethiopia
1113,8.128764,34.563131,Gambella,Gambella,Ethiopia
1114,12.5199,37.434047,Gondar,Gondar,Ethiopia
1116,7.666094,36.816639,Jimma,Jimma,Ethiopia
1117,11.975014,38.979969,Lalibella,Lalibella,Ethiopia
1118,13.467367,39.533464,Makale,Makale,Ethiopia
1119,10.01855,34.586253,Asosa,Asosa,Ethiopia
1120,-3.324019,29.318519,Bujumbura Intl,Bujumbura,Burundi
1121,9.518167,44.088758,Egal Intl,Hargeisa,Somalia
1122,10.389167,44.941106,Berbera,Berbera,Somalia
1127,22.375953,31.611722,Abu Simbel,Abu Simbel,Egypt
1128,30.121944,31.405556,Cairo Intl,Cairo,Egypt
1130,27.178317,33.799436,Hurghada Intl,Hurghada,Egypt
1132,25.671028,32.706583,Luxor Intl,Luxor,Egypt
1136,23.964356,32.819975,Aswan Intl,Aswan,Egypt
1138,0.404458,35.238928,Eldoret Intl,Eldoret,Kenya
1140,-0.086139,34.728892,Kisumu,Kisumu,Kenya
1141,0.971989,34.958556,Kitale,Kitale,Kenya
1143,3.121967,35.608692,Lodwar,Lodwar,Kenya
1144,-2.252417,40.913097,Lamu Manda,Lamu,Kenya
1145,-4.034833,39.59425,Mombasa Moi Intl,Mombasa,Kenya
1147,-1.321719,36.814833,Nairobi Wilson,Nairobi,Kenya
1149,1.733239,40.091606,Wajir,Wajir,Kenya
1152,25.145564,10.142647,Ghat,Ghat,Libya
1153,24.178728,23.313958,Kufra,Kufra,Libya
1154,32.096786,20.269472,Benina,Benghazi,Libya
1157,32.663544,13.159011,Tripoli Intl,Tripoli,Libya
1162,30.151695,9.715305,Ghadames East,Ghadames,Libya
1165,-1.968628,30.13945,Kigali Intl,Kigali,Rwanda
1166,-2.462242,28.90795,Kamembe,Kamembe,Rwanda
1169,13.614892,25.32465,El Fashir,El Fasher,Sudan
1173,4.872006,31.601117,Juba,Juba,South Sudan
1175,15.589497,32.553161,Khartoum,Khartoum,Sudan
1176,-3.367794,36.633333,Arusha,Arusha,Tanzania
1177,-6.878111,39.202625,Mwalimu Julius K Nyerere Intl,Dar Es Salaam,Tanzania
1180,-3.429406,37.074461,Kilimanjaro Intl,Kilimanjaro,Tanzania
1182,-10.339058,40.181781,Mtwara,Mtwara,Tanzania
1183,-2.444486,32.932667,Mwanza,Mwanza,Tanzania
1186,-6.222025,39.224886,Zanzibar,Zanzibar,Tanzania
1187,0.042386,32.443503,Entebbe Intl,Entebbe,Uganda
1190,41.414742,19.720561,Tirana Rinas,Tirana,Albania
1191,42.569583,27.515236,Burgas,Bourgas,Bulgaria
1193,42.067806,24.850833,Plovdiv,Plovdiv,Bulgaria
1194,42.695194,23.406167,Sofia,Sofia,Bulgaria
1196,43.232072,27.825106,Varna,Varna,Bulgaria
1197,34.875117,33.62485,Larnaca,Larnaca,Cyprus
1198,34.718039,32.485731,Pafos Intl,Paphos,Cyprus
1200,42.561353,18.268244,Dubrovnik,Dubrovnik,Croatia
1202,45.462667,18.810156,Osijek,Osijek,Croatia
1203,44.893533,13.922192,Pula,Pula,Croatia
1205,45.216889,14.570267,Rijeka,Rijeka,Croatia
1206,43.538944,16.297964,Split,Split,Croatia
1208,45.742931,16.068778,Zagreb,Zagreb,Croatia
1209,44.108269,15.346697,Zadar,Zadar,Croatia
1212,38.282169,-0.558156,Alicante,Alicante,Spain
1213,36.843936,-2.370097,Almeria,Almeria,Spain
1214,43.563567,-6.034622,Asturias,Aviles,Spain
1216,43.301097,-2.910608,Bilbao,Bilbao,Spain
1218,41.297078,2.078464,Barcelona,Barcelona,Spain
1219,38.89125,-6.821333,Talavera La Real,Badajoz,Spain
1220,43.302061,-8.377256,A Coruna,La Coruna,Spain
1222,41.900969,2.760547,Girona,Gerona,Spain
1223,37.188731,-3.777356,Granada,Granada,Spain
1225,38.872858,1.373117,Ibiza,Ibiza,Spain
1226,36.744622,-6.060111,Jerez,Jerez,Spain
1227,37.774972,-0.812389,Murcia San Javier,Murcia,Spain
1229,40.493556,-3.566764,Barajas,Madrid,Spain
1230,36.6749,-4.499106,Malaga,Malaga,Spain
1231,39.862597,4.218647,Menorca,Menorca,Spain
1234,42.770039,-1.646331,Pamplona,Pamplona,Spain
1236,41.147392,1.167172,Reus,Reus,Spain
1238,40.952117,-5.501986,Salamanca,Salamanca,Spain
1242,43.356519,-1.790611,San Sebastian,San Sebastian,Spain
1243,42.896333,-8.415144,Santiago,Santiago,Spain
1246,39.489314,-0.481625,Valencia,Valencia,Spain
1247,41.706111,-4.851944,Valladolid,Valladolid,Spain
1250,42.2318,-8.626775,Vigo,Vigo,Spain
1251,43.427064,-3.820006,Santander,Santander,Spain
1252,41.666242,-1.041553,Zaragoza Ab,Zaragoza,Spain
1253,37.418,-5.893106,Sevilla,Sevilla,Spain
1262,44.174721,0.590556,La Garenne,Agen,France
1264,44.828335,-0.715556,Merignac,Bordeaux,France
1265,44.825279,0.518611,Roumaniere,Bergerac,France
1268,46.587745,0.306666,Biard,Poitiers,France
1270,45.862778,1.179444,Bellegarde,Limoges,France
1273,43.629075,1.363819,Blagnac,Toulouse,France
1274,43.38,-0.418611,Pau Pyrenees,Pau,France
1276,43.178675,-0.006439,Lourdes,Tarbes,France
1277,45.729247,0.221456,Brie Champniers,Angouleme,France
1278,45.150833,1.469167,La Roche,Brive,France
1279,45.198055,0.815556,Bassillac,Perigueux,France
1280,43.468419,-1.523325,Anglet,Biarritz-bayonne,France
1285,43.55625,2.289183,Mazamet,Castres,France
1289,44.407869,2.482672,Marcillac,Rodez,France
1309,47.039014,5.42725,Tavaux,Dole,France
1313,45.080689,3.762889,Loudes,Le Puy,France
1320,48.982142,6.251319,Metz Nancy Lorraine,Metz,France
1321,42.552664,9.483731,Poretta,Bastia,France
1322,42.530753,8.793189,Saint Catherine,Calvi,France
1323,41.500557,9.097777,Sud Corse,Figari,France
1324,41.923637,8.802917,Campo Dell Oro,Ajaccio,France
1330,45.786661,3.169169,Auvergne,Clermont-Ferrand,France
1335,45.726387,5.090833,Saint Exupery,Lyon,France
1344,44.891388,2.421944,Aurillac,Aurillac,France
1350,45.540554,4.296389,Boutheon,St-Etienne,France
1352,43.215978,2.306317,Salvaza,Carcassonne,France
1353,43.435555,5.213611,Provence,Marseille,France
1354,43.658411,7.215872,Cote D\\'Azur,Nice,France
1356,42.740442,2.870667,Rivesaltes,Perpignan,France
1359,43.576194,3.963014,Mediterranee,Montpellier,France
1360,43.323522,3.353903,Vias,Beziers,France
1361,43.9073,4.901831,Caumont,Avignon,France
1367,49.454444,2.112778,Tille,Beauvais,France
1371,49.533889,0.088056,Octeville,Le Havre,France
1374,48.776072,4.184492,Vatry,Chalons,France
1376,47.432222,0.727606,Val De Loire,Tours,France
1382,49.012779,2.55,Charles De Gaulle,Paris,France
1386,48.725278,2.359444,Orly,Paris,France
1399,50.561942,3.089444,Lesquin,Lille,France
1403,48.447911,-4.418539,Guipavas,Brest,France
1405,48.587683,-2.079958,Pleurtuit,Dinard,France
1408,49.365339,0.154306,St Gatien,Deauville,France
1409,47.760555,-3.44,Lann Bihoue,Lorient,France
1412,49.173333,-0.45,Carpiquet,Caen,France
1415,48.069508,-1.734794,St Jacques,Rennes,France
1416,48.754378,-3.471656,Lannion,Lannion,France
1417,47.974981,-4.167786,Pluguffan,Quimper,France
1418,47.153189,-1.610725,Nantes Atlantique,Nantes,France
1423,47.589583,7.529914,Bale Mulhouse,Mulhouse,France
1425,47.26889,5.09,Longvic,Dijon,France
1435,48.538319,7.628233,Entzheim,Strasbourg,France
1438,43.0973,6.14603,Le Palyvestre,Hyeres,France
1439,43.757444,4.416347,Garons,Nimes,France
1441,46.762904,-56.173088,St Pierre,St.-pierre,Saint Pierre and Miquelon
1446,40.855869,25.956264,Dimokritos,Alexandroupolis,Greece
1448,39.219619,22.794339,Nea Anchialos,Nea Anghialos,Greece
1450,38.343175,26.140572,Chios,Chios,Greece
1451,39.696388,20.8225,Ioannina,Ioannina,Greece
1452,35.339719,25.180297,Nikos Kazantzakis,Heraklion,Greece
1453,40.446294,21.282186,Aristotelis,Kastoria,Greece
1454,36.274258,23.016978,Kithira,Kithira,Greece
1455,38.120069,20.500481,Kefallinia,Keffallinia,Greece
1456,37.068319,22.025525,Kalamata,Kalamata,Greece
1458,36.793335,27.091667,Kos,Kos,Greece
1459,35.421408,27.146008,Karpathos,Karpathos,Greece
1460,39.601944,19.911667,Ioannis Kapodistrias Intl,Kerkyra/corfu,Greece
1461,35.421358,26.910047,Kasos,Kasos,Greece
1462,40.913306,24.619223,Megas Alexandros Intl,Kavala,Greece
1464,37.184903,26.800289,Leros,Leros,Greece
1465,39.917072,25.236308,Limnos,Limnos,Greece
1468,37.435128,25.348103,Mikonos,Mykonos,Greece
1469,39.056667,26.598333,Mitilini,Mytilini,Greece
1470,38.925467,20.765311,Aktio,Preveza,Greece
1472,36.405419,28.086192,Rhodes Diagoras,Rhodos,Greece
1473,38.151111,21.425556,Araxos,Patras,Greece
1474,35.531747,24.149678,Souda,Chania,Greece
1475,39.1771,23.503675,Alexandros Papadiamantis,Skiathos,Greece
1476,37.689999,26.911667,Samos,Samos,Greece
1479,36.399169,25.479333,Santorini,Thira,Greece
1480,35.216108,26.101325,Sitia,Sitia,Greece
1482,38.967553,24.487228,Skiros,Skiros,Greece
1486,40.519725,22.97095,Makedonia,Thessaloniki,Greece
1488,37.750853,20.88425,Dionysios Solomos,Zakynthos,Greece
1489,47.436933,19.255592,Ferihegy,Budapest,Hungary
1490,47.488917,21.615333,Debrecen,Debrecen,Hungary
1501,41.138856,16.760594,Bari,Bari,Italy
1505,42.431656,14.181067,Pescara,Pescara,Italy
1506,40.657633,17.947033,Casale,Brindisi,Italy
1508,38.905394,16.242269,Lamezia Terme,Lamezia,Italy
1509,37.466781,15.0664,Catania Fontanarossa,Catania,Italy
1510,35.497914,12.618083,Lampedusa,Lampedusa,Italy
1511,36.816519,11.968864,Pantelleria,Pantelleria,Italy
1512,38.175958,13.091019,Palermo,Palermo,Italy
1514,38.071206,15.651556,Reggio Calabria,Reggio Calabria,Italy
1515,37.911403,12.487961,Trapani Birgi,Trapani,Italy
1517,40.632133,8.290772,Alghero,Alghero,Italy
1519,39.251469,9.054283,Elmas,Cagliari,Italy
1520,40.898661,9.517628,Olbia Costa Smeralda,Olbia,Italy
1524,45.630606,8.728111,Malpensa,Milano,Italy
1525,45.673889,9.704166,Bergamo Orio Al Serio,Bergamo,Italy
1526,45.200761,7.649631,Torino,Torino,Italy
1528,44.413333,8.8375,Genova Sestri,Genoa,Italy
1529,45.445103,9.276739,Linate,Milan,Italy
1531,44.824483,10.296367,Parma,Parma,Italy
1534,44.547019,7.623217,Levaldigi,Cuneo,Italy
1536,46.460194,11.326383,Bolzano,Bolzano,Italy
1538,44.535444,11.288667,Bologna,Bologna,Italy
1539,45.6484,12.194422,Treviso,Treviso,Italy
1545,45.8275,13.472222,Ronchi Dei Legionari,Ronchi De Legionari,Italy
1546,44.020292,12.611747,Rimini,Rimini,Italy
1550,45.395706,10.888533,Villafranca,Villafranca,Italy
1551,45.505278,12.351944,Venezia Tessera,Venice,Italy
1553,41.799361,12.594936,Ciampino,Rome,Italy
1555,41.804475,12.250797,Fiumicino,Rome,Italy
1558,42.760277,10.239445,Marina Di Campo,Marina Di Campo,Italy
1561,40.886033,14.290781,Capodichino,Naples,Italy
1562,43.683917,10.39275,Pisa,Pisa,Italy
1563,43.809953,11.2051,Firenze,Florence,Italy
1567,43.095906,12.513222,Perugia,Perugia,Italy
1569,46.223686,14.457611,Ljubljana,Ljubljana,Slovenia
1579,50.202978,12.914983,Karlovy Vary,Karlovy Vary,Czech Republic
1582,49.696292,18.111053,Mosnov,Ostrava,Czech Republic
1584,50.013419,15.738647,Pardubice,Pardubice,Czech Republic
1587,50.100833,14.26,Ruzyne,Prague,Czech Republic
1588,49.151269,16.694433,Turany,Brno,Czech Republic
1590,32.011389,34.886667,Ben Gurion,Tel-aviv,Israel
1594,29.561281,34.960081,Eilat,Elat,Israel
1596,32.809444,35.043056,Haifa,Haifa,Israel
1602,29.94025,34.93585,Ovda,Ovda,Israel
1605,32.114661,34.782239,Sde Dov,Tel-aviv,Israel
1606,35.857497,14.4775,Luqa,Malta,Malta
1609,46.991067,15.439628,Graz,Graz,Austria
1610,47.260219,11.343964,Innsbruck,Innsbruck,Austria
1611,48.233219,14.187511,Linz,Linz,Austria
1612,47.793304,13.004333,Salzburg,Salzburg,Austria
1613,48.110278,16.569722,Schwechat,Vienna,Austria
1617,36.97139,-25.170639,Santa Maria,Santa Maria (island),Portugal
1625,39.455272,-31.131361,Flores,Flores,Portugal
1626,37.014425,-7.965911,Faro,Faro,Portugal
1627,39.092169,-28.029847,Graciosa,Graciosa Island,Portugal
1628,38.519894,-28.715872,Horta,Horta,Portugal
1629,38.761842,-27.090797,Lajes,Lajes (terceira Island),Portugal
1633,37.741184,-25.69787,Ponta Delgada,Ponta Delgada,Portugal
1634,38.554333,-28.441333,Pico,Pico,Portugal
1636,41.248055,-8.681389,Porto,Porto,Portugal
1637,33.073386,-16.349975,Porto Santo,Porto Santo,Portugal
1638,38.781311,-9.135919,Lisboa,Lisbon,Portugal
1639,38.6655,-28.175817,Sao Jorge,Sao Jorge Island,Portugal
1645,43.2829,17.845878,Mostar,Mostar,Bosnia and Herzegovina
1646,43.824583,18.331467,Sarajevo,Sarajevo,Bosnia and Herzegovina
1647,46.17655,21.262022,Arad,Arad,Romania
1649,47.658389,23.470022,Tautii Magheraus,Baia Mare,Romania
1651,44.362222,28.488333,Mihail Kogalniceanu,Constanta,Romania
1652,46.785167,23.686167,Cluj Napoca,Cluj-napoca,Romania
1654,44.318139,23.888611,Craiova,Craiova,Romania
1655,47.178492,27.620631,Iasi,Iasi,Romania
1656,47.025278,21.9025,Oradea,Oradea,Romania
1657,44.572161,26.102178,Henri Coanda,Bucharest,Romania
1658,45.785597,24.091342,Sibiu,Sibiu,Romania
1659,47.703275,22.8857,Satu Mare,Satu Mare,Romania
1662,46.467714,24.412525,Transilvania Targu Mures,Tirgu Mures,Romania
1663,45.809861,21.337861,Traian Vuia,Timisoara,Romania
1665,46.238064,6.10895,Geneve Cointrin,Geneva,Switzerland
1675,46.004275,8.910578,Lugano,Lugano,Switzerland
1676,46.9141,7.497153,Bern Belp,Bern,Switzerland
1678,47.464722,8.549167,Zurich,Zurich,Switzerland
1679,47.485033,9.560775,St Gallen Altenrhein,Altenrhein,Switzerland
1682,40.128082,32.995083,Esenboga,Ankara,Turkey
1685,36.982166,35.280388,Adana,Adana,Turkey
1688,36.898731,30.800461,Antalya,Antalya,Turkey
1689,36.947183,37.478683,Oguzeli,Gaziantep,Turkey
1691,37.979,32.561861,Konya,Konya,Turkey
1693,40.829375,35.521992,Merzifon,Merzifon,Turkey
1694,39.813828,36.903497,Sivas,Sivas,Turkey
1695,38.435347,38.091006,Erhac,Malatya,Turkey
1696,38.770386,35.495428,Erkilet,Kayseri,Turkey
1699,37.785567,29.701297,Cardak,Denizli,Turkey
1701,40.976922,28.814606,Ataturk,Istanbul,Turkey
1706,38.292392,27.156953,Adnan Menderes,Izmir,Turkey
1715,36.713056,28.7925,Dalaman,Dalaman,Turkey
1721,38.606925,39.291417,Elazig,Elazig,Turkey
1722,37.893897,40.201019,Diyarbakir,Diyabakir,Turkey
1723,39.710203,39.527003,Erzincan,Erzincan,Turkey
1724,39.956501,41.170166,Erzurum,Erzurum,Turkey
1726,40.995108,39.789728,Trabzon,Trabzon,Turkey
1728,38.468219,43.3323,Van,Van,Turkey
1729,37.928969,41.116583,Batman,Batman,Turkey
1735,46.927744,28.930978,Chisinau Intl,Chisinau,Moldova
1737,41.961622,21.621381,Skopje,Skopje,Macedonia
1738,36.151219,-5.349664,Gibraltar,Gibraltar,Gibraltar
1739,44.818444,20.309139,Beograd,Belgrade,Serbia
1741,42.359392,19.251894,Podgorica,Podgorica,Montenegro
1742,42.572778,21.035833,Pristina,Pristina,Serbia
1743,42.404664,18.723286,Tivat,Tivat,Montenegro
1745,48.170167,17.212667,M R Stefanik,Bratislava,Slovakia
1746,48.663055,21.241112,Kosice,Kosice,Slovakia
1754,21.773625,-72.265886,Providenciales,Providenciales,Turks and Caicos Islands
1755,21.515739,-71.528528,South Caicos,South Caicos,Turks and Caicos Islands
1759,18.450711,-68.911833,Casa De Campo Intl,La Romana,Dominican Republic
1760,18.567367,-68.363431,Punta Cana Intl,Punta Cana,Dominican Republic
1761,19.7579,-70.570033,Gregorio Luperon Intl,Puerto Plata,Dominican Republic
1762,18.429664,-69.668925,Las Americas Intl,Santo Domingo,Dominican Republic
1764,19.406092,-70.604689,Cibao Intl,Santiago,Dominican Republic
1767,14.583272,-90.527475,La Aurora,Guatemala City,Guatemala
1771,15.742481,-86.853036,Goloson Intl,La Ceiba,Honduras
1772,15.452639,-87.923556,La Mesa Intl,San Pedro Sula,Honduras
1773,16.445367,-85.906611,Guanaja,Guanaja,Honduras
1774,16.316814,-86.522961,Juan Manuel Galvez Intl,Roatan,Honduras
1776,14.060883,-87.217197,Toncontin Intl,Tegucigalpa,Honduras
1779,17.935667,-76.7875,Norman Manley Intl,Kingston,Jamaica
1780,18.503717,-77.913358,Sangster Intl,Montego Bay,Jamaica
1783,16.757061,-99.753953,General Juan N Alvarez Intl,Acapulco,Mexico
1785,21.705558,-102.317858,Jesus Teran Intl,Aguascalientes,Mexico
1786,15.775317,-96.262572,Bahias De Huatulco Intl,Huatulco,Mexico
1789,18.653739,-91.799017,Ciudad Del Carmen Intl,Ciudad Del Carmen,Mexico
1792,24.764547,-107.474717,Culiacan Intl,Culiacan,Mexico
1793,18.504667,-88.326847,Chetumal Intl,Chetumal,Mexico
1794,27.392639,-109.833111,Ciudad Obregon Intl,Ciudad Obregon,Mexico
1795,19.816794,-90.500314,Ingeniero Alberto Acuna Ongay Intl,Campeche,Mexico
1796,31.636133,-106.428667,Abraham Gonzalez Intl,Ciudad Juarez,Mexico
1797,28.702875,-105.964567,General R Fierro Villalobos Intl,Chihuahua,Mexico
1798,23.703336,-98.956486,General Pedro Jose Mendez Intl,Ciudad Victoria,Mexico
1800,20.522403,-86.925644,Cozumel Intl,Cozumel,Mexico
1801,24.124194,-104.528014,Durango Intl,Durango,Mexico
1802,21.419453,-104.842581,Tepic,Tepic,Mexico
1804,20.5218,-103.311167,Don Miguel Hidalgo Y Costilla Intl,Guadalajara,Mexico
1807,29.095858,-111.047858,General Ignacio P Garcia Intl,Hermosillo,Mexico
1808,19.277011,-103.577397,Colima,Colima,Mexico
1810,25.549497,-100.928669,Plan De Guadalupe Intl,Saltillo,Mexico
1813,18.001731,-102.220525,Lazaro Cardenas,Lazard Cardenas,Mexico
1814,25.685194,-109.080806,Valle Del Fuerte Intl,Los Mochis,Mexico
1815,20.993464,-101.480847,Guanajuato Intl,Del Bajio,Mexico
1816,24.072694,-110.362475,General Manuel Marquez De Leon Intl,La Paz,Mexico
1817,25.989194,-111.348361,Loreto Intl,Loreto,Mexico
1818,25.769894,-97.525311,General Servando Canales Intl,Matamoros,Mexico
1819,20.936981,-89.657672,Licenciado Manuel Crescencio Rejon Int,Merida,Mexico
1820,32.630634,-115.241637,General Rodolfo Sanchez Taboada Intl,Mexicali,Mexico
1821,19.849944,-101.0255,General Francisco J Mujica Intl,Morelia,Mexico
1822,18.103419,-94.580681,Minatitlan,Minatitlan,Mexico
1824,19.436303,-99.072097,Licenciado Benito Juarez Intl,Mexico City,Mexico
1825,25.778489,-100.106878,General Mariano Escobedo Intl,Monterrey,Mexico
1826,23.161356,-106.266072,General Rafael Buelna Intl,Mazatlan,Mexico
1828,27.443918,-99.57046,Quetzalcoatl Intl,Nuevo Laredo,Mexico
1829,16.999906,-96.726639,Xoxocotlan Intl,Oaxaca,Mexico
1830,20.602671,-97.460839,Tajin,Poza Rico,Mexico
1831,19.158144,-98.371447,Hermanos Serdan Intl,Puebla,Mexico
1834,28.627394,-100.535211,Piedras Negras Intl,Piedras Negras,Mexico
1835,19.396692,-102.039056,Licenciado Y Gen Ignacio Lopez Rayon,Uruapan,Mexico
1836,20.680083,-105.254167,Licenciado Gustavo Diaz Ordaz Intl,Puerto Vallarta,Mexico
1837,15.876861,-97.089117,Puerto Escondido Intl,Puerto Escondido,Mexico
1838,20.617289,-100.185658,Queretaro Intercontinental,Queretaro,Mexico
1839,26.008908,-98.228513,General Lucio Blanco Intl,Reynosa,Mexico
1840,23.15185,-109.721044,Los Cabos Intl,San Jose Del Cabo,Mexico
1842,22.254303,-100.930806,Ponciano Arriaga Intl,San Luis Potosi,Mexico
1845,25.568278,-103.410583,Torreon Intl,Torreon,Mexico
1846,16.561822,-93.026081,Angel Albino Corzo,Tuxtla Gutierrez,Mexico
1847,32.541064,-116.970158,General Abelardo L Rodriguez Intl,Tijuana,Mexico
1848,22.29645,-97.865931,General Francisco Javier Mina Intl,Tampico,Mexico
1850,19.337072,-99.566008,Licenciado Adolfo Lopez Mateos Intl,Toluca,Mexico
1851,14.794339,-92.370025,Tapachula Intl,Tapachula,Mexico
1852,21.036528,-86.877083,Cancun Intl,Cancun,Mexico
1853,17.997,-92.817361,C P A Carlos Rovirosa Intl,Villahermosa,Mexico
1854,19.145931,-96.187267,General Heriberto Jara Intl,Vera Cruz,Mexico
1855,22.897112,-102.68689,General Leobardo C Ruiz Intl,Zacatecas,Mexico
1856,17.601569,-101.460536,Ixtapa Zihuatanejo Intl,Zihuatanejo,Mexico
1858,19.144778,-104.558631,Playa De Oro Intl,Manzanillo,Mexico
1863,12.141494,-86.168178,Managua Intl,Managua,Nicaragua
1865,9.340853,-82.250842,Bocas Del Toro Intl,Bocas Del Toro,Panama
1866,9.458636,-82.516806,Cap Manuel Nino Intl,Changuinola,Panama
1867,8.391003,-82.434992,Enrique Malek Intl,David,Panama
1869,8.973339,-79.555583,Marcos A Gelabert Intl,Panama,Panama
1871,9.071364,-79.383453,Tocumen Intl,Panama City,Panama
1879,8.653775,-83.180544,Golfito,Golfito,Costa Rica
1881,10.593289,-85.544408,Daniel Oduber Quiros Intl,Liberia,Costa Rica
1884,9.97649,-85.653,Nosara,Nosara Beach,Costa Rica
1885,9.993861,-84.208806,Juan Santamaria Intl,San Jose,Costa Rica
1887,8.951025,-83.468583,Palmar Sur,Palmar Sur,Costa Rica
1889,9.443164,-84.129772,La Managua,Quepos,Costa Rica
1892,13.440947,-89.055728,El Salvador Intl,San Salvador,El Salvador
1895,19.732989,-72.194739,Cap Haitien Intl,Cap Haitien,Haiti
1897,18.58005,-72.292542,Toussaint Louverture Intl,Port-au-prince,Haiti
1903,21.616453,-81.545989,Vilo Acuna Intl,Cayo Largo del Sur,Cuba
1904,21.420428,-77.847433,Ignacio Agramonte Intl,Camaguey,Cuba
1905,19.969769,-75.835414,Antonio Maceo Intl,Santiago De Cuba,Cuba
1908,20.085419,-75.158328,Mariana Grajales,Guantanamo,Cuba
1909,22.989153,-82.409086,Jose Marti Intl,Havana,Cuba
1910,20.785589,-76.315108,Frank Pais Intl,Holguin,Cuba
1918,22.492192,-79.943611,Abel Santamaria,Santa Clara,Cuba
1923,23.034445,-81.435278,Juan Gualberto Gomez Intl,Varadero,Cuba
1925,19.686981,-79.882789,Gerrard Smith Intl,Cayman Barac,Cayman Islands
1926,19.292778,-81.35775,Owen Roberts Intl,Georgetown,Cayman Islands
1930,26.511406,-77.083472,Marsh Harbour,Marsh Harbor,Bahamas
1932,22.441828,-73.970858,Spring Point,Spring Point,Bahamas
1934,26.745336,-77.391269,Treasure Cay,Treasure Cay,Bahamas
1937,25.699881,-79.264656,South Bimini,Alice Town,Bahamas
1941,23.562631,-75.877958,Exuma Intl,Great Exuma,Bahamas
1943,25.474861,-76.683489,North Eleuthera,North Eleuthera,Bahamas
1944,25.284706,-76.331011,Governors Harbour,Governor's Harbor,Bahamas
1946,24.8917,-76.177739,Rock Sound,Rock Sound,Bahamas
1948,26.558686,-78.695553,Grand Bahama Intl,Freeport,Bahamas
1949,20.975,-73.666862,Matthew Town,Matthew Town,Bahamas
1950,23.179014,-75.093597,Deadmans Cay,Dead Man's Cay,Bahamas
1951,23.581444,-75.270475,Stella Maris,Stella Maris,Bahamas
1952,22.379528,-73.0135,Mayaguana,Mayaguana,Bahamas
1953,25.038958,-77.466231,Lynden Pindling Intl,Nassau,Bahamas
1956,24.063275,-74.523967,San Salvador,Cockburn Town,Bahamas
1957,17.539144,-88.308203,Philip S W Goldson Intl,Belize City,Belize
1958,-18.830922,-159.764233,Aitutaki,Aitutaki,Cook Islands
1959,-21.202739,-159.805556,Rarotonga Intl,Avarua,Cook Islands
1960,-17.755392,177.443378,Nadi Intl,Nandi,Fiji
1961,-18.043267,178.559228,Nausori Intl,Nausori,Fiji
1963,-21.241214,-175.149644,Fua Amotu Intl,Tongatapu,Tonga
1965,1.381636,173.147036,Bonriki Intl,Tarawa,Kiribati
1968,-13.238281,-176.199228,Wallis,Wallis,Wallis and Futuna
1969,-13.829969,-172.008336,Faleolo Intl,Faleolo,Samoa
1970,-14.331,-170.7105,Pago Pago Intl,Pago Pago,American Samoa
1971,-22.434069,-151.360614,Rurutu,Rurutu,French Polynesia
1972,-23.365353,-149.524072,Tubuai,Tubuai,French Polynesia
1975,-15.119617,-148.230697,Tikehau,Tikehau,French Polynesia
1977,-16.05415,-145.656994,Fakarava,Fakarava,French Polynesia
1978,-14.436764,-146.070056,Manihi,Manihi,French Polynesia
1979,-23.079861,-134.890333,Totegegie,Totegegie,French Polynesia
1980,-15.663333,-146.884769,Kaukura,Kaukura Atoll,French Polynesia
1981,-16.583919,-143.658369,Makemo,Makemo,French Polynesia
1983,-14.709544,-145.245814,Takapoto,Takapoto,French Polynesia
1984,-15.248289,-146.616708,Arutua,Arutua,French Polynesia
1985,-14.868055,-148.717225,Mataiva,Mataiva,French Polynesia
1986,-14.455781,-145.024542,Takaroa,Takaroa,French Polynesia
1987,-8.795603,-140.228789,Nuku Hiva,Nuku Hiva,French Polynesia
1989,-16.444378,-151.751286,Bora Bora,Bora Bora,French Polynesia
1990,-14.954283,-147.6608,Rangiroa,Rangiroa,French Polynesia
1991,-16.687242,-151.021667,Huahine,Huahine Island,French Polynesia
1992,-17.489972,-149.761869,Moorea,Moorea,French Polynesia
1993,-18.074814,-140.945886,Hao,Hao Island,French Polynesia
1994,-16.426486,-152.243669,Maupiti,Maupiti,French Polynesia
1995,-16.722861,-151.465856,Raiatea,Raiatea Island,French Polynesia
1997,-17.699325,168.319794,Port Vila Bauerfield,Port-vila,Vanuatu
1998,-21.053428,164.837806,Kone,Kone,New Caledonia
1999,-20.546314,164.255625,Koumac,Koumac,New Caledonia
2000,-20.7748,167.239864,Lifou,Lifou,New Caledonia
2001,-22.258278,166.472806,Magenta,Noumea,New Caledonia
2002,-21.481678,168.037508,Mare,Mare,New Caledonia
2003,-20.790028,165.259486,Touho,Touho,New Caledonia
2004,-20.640556,166.572778,Ouvea,Ouvea,New Caledonia
2005,-22.014553,166.212972,La Tontouta,Noumea,New Caledonia
2006,-37.008056,174.791667,Auckland Intl,Auckland,New Zealand
2007,-38.739723,176.084444,Taupo,Taupo,New Zealand
2009,-43.489358,172.532225,Christchurch Intl,Christchurch,New Zealand
2011,-45.928055,170.198333,Dunedin,Dunedin,New Zealand
2012,-38.663333,177.978333,Gisborne,Gisborne,New Zealand
2014,-42.713611,170.985278,Hokitika,Hokitika,New Zealand
2015,-37.866661,175.332056,Hamilton,Hamilton,New Zealand
2017,-35.262779,173.911944,Kerikeri,Kerikeri,New Zealand
2018,-35.07,173.285278,Kaitaia,Kaitaia,New Zealand
2023,-39.008611,174.179167,New Plymouth,New Plymouth,New Zealand
2024,-41.298333,173.221111,Nelson,Nelson,New Zealand
2025,-46.412408,168.312992,Invercargill,Invercargill,New Zealand
2028,-40.320556,175.616944,Palmerston North,Palmerston North,New Zealand
2029,-40.904722,174.989167,Paraparaumu,Paraparaumu,New Zealand
2030,-45.021111,168.739167,Queenstown,Queenstown International,New Zealand
2031,-38.109167,176.317222,Rotorua,Rotorua,New Zealand
2034,-37.671944,176.19611,Tauranga,Tauranga,New Zealand
2035,-44.302778,171.225278,Timaru,Timaru,New Zealand
2037,-41.518333,173.870278,Woodbourne,Woodbourne,New Zealand
2041,-37.920556,176.914167,Whakatane,Whakatane,New Zealand
2042,-41.327221,174.805278,Wellington Intl,Wellington,New Zealand
2045,-35.768333,174.365,Whangarei,Whangarei,New Zealand
2046,-41.738056,171.580833,Westport,Westport,New Zealand
2047,-39.962222,175.025278,Wanganui,Wanganui,New Zealand
2048,34.210017,62.2283,Herat,Herat,Afghanistan
2050,34.565853,69.212328,Kabul Intl,Kabul,Afghanistan
2051,31.505756,65.847822,Kandahar,Kandahar,Afghanistan
2053,36.706914,67.209678,Mazar I Sharif,Mazar-i-sharif,Afghanistan
2057,26.270834,50.63361,Bahrain Intl,Bahrain,Bahrain
2059,18.240367,42.656625,Abha,Abha,Saudi Arabia
2060,25.285306,49.485189,Al Ahsa,Al-ahsa,Saudi Arabia
2061,20.296139,41.634277,Al Baha,El-baha,Saudi Arabia
2062,19.98435,42.620881,Bisha,Bisha,Saudi Arabia
2064,26.471161,49.79789,King Fahd Intl,Dammam,Saudi Arabia
2066,16.901111,42.585833,King Abdullah Bin Abdulaziz,Gizan,Saudi Arabia
2067,26.302822,43.773911,Gassim,Gassim,Saudi Arabia
2068,31.411942,37.279469,Guriat,Guriat,Saudi Arabia
2069,27.437917,41.686292,Hail,Hail,Saudi Arabia
2072,21.679564,39.156536,King Abdulaziz Intl,Jeddah,Saudi Arabia
2074,24.553422,39.705061,Prince Mohammad Bin Abdulaziz,Madinah,Saudi Arabia
2075,17.611436,44.419169,Nejran,Nejran,Saudi Arabia
2076,28.335192,46.125069,Qaisumah,Hafr Al-batin,Saudi Arabia
2081,29.626419,43.490614,Rafha,Rafha,Saudi Arabia
2082,24.95764,46.698776,King Khaled Intl,Riyadh,Saudi Arabia
2084,30.906589,41.138217,Arar,Arar,Saudi Arabia
2086,17.466875,47.121431,Sharurah,Sharurah,Saudi Arabia
2089,28.365417,36.618889,Tabuk,Tabuk,Saudi Arabia
2090,21.483418,40.544334,Taif,Taif,Saudi Arabia
2093,31.692683,38.7312,Turaif,Turaif,Saudi Arabia
2095,26.198553,36.476381,Wejh,Wejh,Saudi Arabia
2096,24.144244,38.06335,Yenbo,Yenbo,Saudi Arabia
2097,30.371111,48.228333,Abadan,Abadan,Iran
2103,30.556192,49.151879,Mahshahr,Bandar Mahshahr,Iran
2104,31.337431,48.76195,Ahwaz,Ahwaz,Iran
2106,28.944811,50.834637,Bushehr,Bushehr,Iran
2109,26.526156,53.980211,Kish Island,Kish Island,Iran
2110,26.532,54.824847,Bandar Lengeh,Bandar Lengeh,Iran
2114,34.345853,47.158128,Shahid Ashrafi Esfahani,Bakhtaran,Iran
2117,35.245856,47.009247,Sanandaj,Sanandaj,Iran
2123,37.325314,49.605817,Rasht,Rasht,Iran
2131,35.689167,51.313416,Mehrabad Intl,Teheran,Iran
2134,27.218317,56.37785,Bandar Abbass Intl,Bandar Abbas,Iran
2136,30.274444,56.951111,Kerman,Kerman,Iran
2142,32.898056,59.266111,Birjand,Birjand,Iran
2151,36.909908,50.679589,Ramsar,Ramsar,Iran
2157,29.539242,52.589786,Shiraz Shahid Dastghaib Intl,Shiraz,Iran
2162,38.133889,46.235,Tabriz Intl,Tabriz,Iran
2164,31.904908,54.276503,Yazd Shahid Sadooghi,Yazd,Iran
2166,25.44335,60.382114,Chah Bahar,Chah Bahar,Iran
2167,29.475686,60.906189,Zahedan Intl,Zahedan,Iran
2170,31.722556,35.993214,Queen Alia Intl,Amman,Jordan
2172,29.611619,35.018067,Aqaba King Hussein Intl,Aqaba,Jordan
2176,29.226567,47.968928,Kuwait Intl,Kuwait,Kuwait
2177,33.820931,35.488389,Rafic Hariri Intl,Beirut,Lebanon
2179,24.432972,54.651138,Abu Dhabi Intl,Abu Dhabi,United Arab Emirates
2180,24.428333,54.458084,Bateen,Abu Dhabi,United Arab Emirates
2188,25.252778,55.364444,Dubai Intl,Dubai,United Arab Emirates
2189,25.112225,56.323964,Fujairah Intl,Fujeirah,United Arab Emirates
2191,25.328575,55.51715,Sharjah Intl,Sharjah,United Arab Emirates
2192,26.170986,56.240569,Khasab,Khasab,Oman
2194,23.593278,58.284444,Seeb Intl,Muscat,Oman
2195,17.038719,54.091297,Salalah,Salalah,Oman
2202,31.365014,72.994842,Faisalabad Intl,Faisalabad,Pakistan
2203,25.233308,62.329494,Gwadar,Gwadar,Pakistan
2204,35.918786,74.333644,Gilgit,Gilgit,Pakistan
2206,24.906547,67.160797,Jinnah Intl,Karachi,Pakistan
2207,31.521564,74.403594,Allama Iqbal Intl,Lahore,Pakistan
2212,27.335156,68.143053,Moenjodaro,Moenjodaro,Pakistan
2214,30.203222,71.419111,Multan Intl,Multan,Pakistan
2217,26.954547,64.132517,Panjgur,Panjgur,Pakistan
2219,33.993911,71.514581,Peshawar Intl,Peshawar,Pakistan
2221,30.251369,66.937764,Quetta,Quetta,Pakistan
2222,28.3839,70.279572,Sheikh Zayed,Rahim Yar Khan,Pakistan
2223,33.616653,73.099233,Chaklala,Islamabad,Pakistan
2227,27.721989,68.791683,Sukkur,Sukkur,Pakistan
2233,31.358381,69.463606,Zhob,Zhob,Pakistan
2234,30.549069,47.662142,Basrah Intl,Basrah,Iraq
2241,25.261125,51.565056,Doha Intl,Doha,Qatar
2243,14.174308,145.242536,Rota Intl,Rota,Northern Mariana Islands
2244,15.119003,145.729356,Francisco C Ada Saipan Intl,Saipan,Northern Mariana Islands
2246,13.48345,144.795983,Guam Intl,Agana,Guam
2249,7.064758,171.272022,Marshall Islands Intl,Majuro,Marshall Islands
2251,8.720122,167.731661,Bucholz Aaf,Kwajalein,Marshall Islands
2252,1.986161,-157.349778,Cassidy Intl,Kiritimati,Kiribati
2254,7.461869,151.843006,Chuuk Intl,Chuuk,Micronesia
2255,6.9851,158.208989,Pohnpei Intl,Pohnpei,Micronesia
2256,7.367303,134.544278,Babelthuap,Babelthuap,Palau
2257,5.356975,162.958386,Kosrae,Kosrae,Micronesia
2258,9.498911,138.082497,Yap Intl,Yap,Micronesia
2259,24.427892,118.359197,Shang Yi,Kinmen,Taiwan
2262,22.754986,121.101681,Fengnin,Fengnin,Taiwan
2264,22.577094,120.350006,Kaohsiung Intl,Kaohsiung,Taiwan
2268,24.264668,120.62058,Ching Chuang Kang,Taichung,Taiwan
2270,22.950361,120.205778,Tainan,Tainan,Taiwan
2272,23.568669,119.628311,Magong,Makung,Taiwan
2275,25.069722,121.5525,Sungshan,Taipei,Taiwan
2276,25.077731,121.232822,Taoyuan Intl,Taipei,Taiwan
2278,24.023725,121.616906,Hualien,Hualien,Taiwan
2279,35.764722,140.386389,Narita Intl,Tokyo,Japan
2280,36.166758,137.922669,Matsumoto,Matsumoto,Japan
2281,36.181083,140.415444,Hyakuri,Ibaraki,Japan
2284,33.662222,135.364444,Nanki Shirahama,Nanki-shirahama,Japan
2286,42.733333,143.217222,Obihiro,Obihiro,Japan
2287,42.7752,141.692283,New Chitose,Sapporo,Japan
2288,41.77,140.821944,Hakodate,Hakodate,Japan
2290,43.880606,144.164053,Memanbetsu,Memanbetsu,Japan
2291,43.5775,144.96,Nakashibetsu,Nakashibetsu,Japan
2294,45.404167,141.800833,Wakkanai,Wakkanai,Japan
2295,33.749027,129.785417,Iki,Iki,Japan
2296,33.93,131.278611,Yamaguchi Ube,Yamaguchi,Japan
2297,34.284889,129.33055,Tsushima,Tsushima,Japan
2298,44.303914,143.404028,Monbetsu,Monbetsu,Japan
2299,43.670833,142.4475,Asahikawa,Asahikawa,Japan
2304,32.666269,128.832808,Fukue,Fukue,Japan
2305,33.585942,130.450686,Fukuoka,Fukuoka,Japan
2307,31.803397,130.719408,Kagoshima,Kagoshima,Japan
2308,31.877222,131.448611,Miyazaki,Miyazaki,Japan
2310,33.479444,131.737222,Oita,Oita,Japan
2311,33.845942,131.034689,New Kitakyushu,Kitakyushu,Japan
2312,32.837319,130.85505,Kumamoto,Kumamoto,Japan
2313,32.916944,129.913611,Nagasaki,Nagasaki,Japan
2316,28.430633,129.712542,Amami,Amami,Japan
2322,36.394611,136.406544,Komatsu,Kanazawa,Japan
2324,36.648333,137.1875,Toyama,Toyama,Japan
2326,34.436111,132.919444,Hiroshima,Hiroshima,Japan
2327,34.756944,133.855278,Okayama,Okayama,Japan
2328,35.413611,132.89,Izumo,Izumo,Japan
2330,35.492222,133.236389,Yonago Kitaro,Miho,Japan
2332,33.546111,133.669444,Kochi,Kochi,Japan
2333,33.827222,132.699722,Matsuyama,Matsuyama,Japan
2334,34.785528,135.438222,Osaka Intl,Osaka,Japan
2335,35.530069,134.166553,Tottori,Tottori,Japan
2336,34.132808,134.606639,Tokushima,Tokushima,Japan
2337,34.214167,134.015556,Takamatsu,Takamatsu,Japan
2340,40.734722,140.690833,Aomori,Aomori,Japan
2341,38.411894,140.371331,Yamagata,Yamagata,Japan
2344,39.428611,141.135278,Hanamaki,Hanamaki,Japan
2345,39.615556,140.218611,Akita,Akita,Japan
2346,40.703222,141.368364,Misawa Ab,Misawa,Japan
2347,38.139722,140.916944,Sendai,Sendai,Japan
2352,33.115,139.785833,Hachijojima,Hachijojima,Japan
2356,34.782033,139.360306,Oshima,Oshima,Japan
2359,35.552258,139.779694,Tokyo Intl,Tokyo,Japan
2361,35.126389,126.808889,Gwangju,Kwangju,South Korea
2365,34.842328,127.61685,Yeosu,Yeosu,South Korea
2370,33.511306,126.493028,Jeju Intl,Cheju,South Korea
2372,35.179528,128.938222,Gimhae Intl,Busan,South Korea
2374,35.593494,129.351722,Ulsan,Ulsan,South Korea
2378,37.558311,126.790586,Gimpo,Seoul,South Korea
2380,35.987858,129.420486,Pohang,Pohang,South Korea
2381,35.894108,128.658856,Daegu Ab,Taegu,South Korea
2384,26.195814,127.645869,Naha,Okinawa,Japan
2387,24.344525,124.186983,Ishigaki,Ishigaki,Japan
2388,26.363506,126.713806,Kumejima,Kumejima,Japan
2390,24.782833,125.295111,Miyako,Miyako,Japan
2397,14.508647,121.019581,Ninoy Aquino Intl,Manila,Philippines
2399,7.165242,124.209619,Cotabato,Cotabato,Philippines
2400,8.415619,124.611219,Cagayan De Oro,Ladag,Philippines
2401,7.827197,123.458294,Pagadian,Pagadian,Philippines
2404,6.922419,122.059633,Zamboanga Intl,Zamboanga,Philippines
2422,11.227628,125.027758,Daniel Z Romualdez,Tacloban,Philippines
2423,10.642511,122.929617,Bacolod,Bacolod,Philippines
2425,9.333714,123.300472,Dumaguete,Dumaguete,Philippines
2429,10.713044,122.545297,Iloilo,Iloilo,Philippines
2430,11.679431,122.376294,Kalibo,Kalibo,Philippines
2433,9.742119,118.758731,Puerto Princesa,Puerto Princesa,Philippines
2435,10.766044,121.933439,Antique,San Jose,Philippines
2439,-31.794778,-60.480361,General Urquiza,Parana,Argentina
2440,-32.903611,-60.785,Rosario,Rosario,Argentina
2441,-31.711666,-60.811668,Sauce Viejo,Santa Fe,Argentina
2442,-34.559175,-58.415606,Aeroparque Jorge Newbery,Buenos Aires,Argentina
2443,-31.323619,-64.207953,Ambrosio L V Taravella,Cordoba,Argentina
2452,-32.831717,-68.792856,El Plumerillo,Mendoza,Argentina
2454,-34.588314,-68.403854,San Rafael,San Rafael,Argentina
2455,-28.593214,-65.750925,Catamarca,Catamarca,Argentina
2456,-27.765617,-64.310122,Santiago Del Estero,Santiago Del Estero,Argentina
2458,-29.381636,-66.795839,La Rioja,La Rioja,Argentina
2460,-26.840861,-65.104944,Teniente Benjamin Matienzo,Tucuman,Argentina
2461,-31.571472,-68.418194,San Juan,San Julian,Argentina
2467,-33.273192,-66.356422,San Luis,San Luis,Argentina
2469,-27.449986,-59.056125,Resistencia,Resistencia,Argentina
2470,-26.212722,-58.228111,Formosa,Formosa,Argentina
2471,-25.737281,-54.473444,Cataratas Del Iguazu,Iguazu Falls,Argentina
2474,-27.385839,-55.970728,Posadas,Posadas,Argentina
2476,-24.855978,-65.486169,Salta,Salta,Argentina
2477,-24.392778,-65.097778,Jujuy,Jujuy,Argentina
2487,-45.785347,-67.465508,Comodoro Rivadavia,Comodoro Rivadavia,Argentina
2488,-42.90795,-71.139472,Esquel,Esquel,Argentina
2490,-43.2105,-65.270319,Almirante Zar,Trelew,Argentina
2491,-40.869222,-63.000389,Gobernador Castello,Viedma,Argentina
2492,-42.759161,-65.102725,El Tehuelche,Puerto Madryn,Argentina
2495,-53.777667,-67.749389,Rio Grande,Rio Grande,Argentina
2496,-51.608875,-69.312636,Rio Gallegos,Rio Gallegos,Argentina
2497,-54.843278,-68.29575,Ushuaia Malvinas Argentinas,Ushuaia,Argentina
2501,-38.724967,-62.169317,Comandante Espora,Bahia Blanca,Argentina
2508,-37.934167,-57.573333,Mar Del Plata,Mar Del Plata,Argentina
2509,-38.949,-68.155711,Presidente Peron,Neuquen,Argentina
2512,-36.588322,-64.275694,Santa Rosa,Santa Rosa,Argentina
2513,-41.151172,-71.157542,San Carlos De Bariloche,San Carlos De Bariloche,Argentina
2517,-40.075383,-71.137294,Aviador C Campos,San Martin Des Andes,Argentina
2518,-8.348347,-49.301528,Conceicao Do Araguaia,Conceicao Do Araguaia,Brazil
2521,-21.812,-48.133028,Araraquara,Araracuara,Brazil
2522,-10.984,-37.070333,Santa Maria,Aracaju,Brazil
2524,-9.866092,-56.106206,Alta Floresta,Alta Floresta,Brazil
2525,-21.141342,-50.424722,Aracatuba,Aracatuba,Brazil
2526,-1.37925,-48.476292,Val De Cans Intl,Belem,Brazil
2528,-19.851181,-43.950628,Pampulha Carlos Drummond De Andrade,Belo Horizonte,Brazil
2531,-15.8711,-47.918625,Presidente Juscelino Kubitschek,Brasilia,Brazil
2533,2.846311,-60.690069,Boa Vista,Boa Vista,Brazil
2535,-25.000339,-53.500764,Cascavel,Cascavel,Brazil
2537,-19.63375,-43.968856,Tancredo Neves Intl,Belo Horizonte,Brazil
2538,-20.468667,-54.6725,Campo Grande,Campo Grande,Brazil
2539,-27.134219,-52.656553,Chapeco,Chapeco,Brazil
2541,-28.725817,-49.424739,Forquilhinha,Criciuma,Brazil
2543,-21.698333,-41.301669,Bartolomeu Lisandro,Campos,Brazil
2544,-19.011931,-57.673053,Corumba Intl,Corumba,Brazil
2545,-25.528475,-49.175775,Afonso Pena,Curitiba,Brazil
2547,-29.197064,-51.187536,Campo Dos Bugres,Caxias Do Sul,Brazil
2548,-15.652931,-56.116719,Marechal Rondon,Cuiaba,Brazil
2549,-7.599906,-72.769489,Cruzeiro do Sul,Cruzeiro do Sul,Brazil
2550,-22.175056,-51.424639,Presidente Prudente,President Prudente,Brazil
2551,-3.038611,-60.049721,Eduardo Gomes Intl,Manaus,Brazil
2554,-25.59615,-54.487206,Cataratas Intl,Foz Do Iguacu,Brazil
2555,-27.670489,-48.547181,Hercilio Luz,Florianopolis,Brazil
2556,-3.854928,-32.423336,Fernando De Noronha,Fernando Do Noronha,Brazil
2559,-3.776283,-38.532556,Pinto Martins Intl,Fortaleza,Brazil
2560,-22.808903,-43.243647,Galeao Antonio Carlos Jobim,Rio De Janeiro,Brazil
2562,-16.632033,-49.220686,Santa Genoveva,Goiania,Brazil
2564,-23.432075,-46.469511,Guarulhos Gov Andre Franco Montouro,Sao Paulo,Brazil
2566,-3.253906,-52.253978,Altamira,Altamira,Brazil
2569,-14.815964,-39.033197,Ilheus,Ilheus,Brazil
2570,-19.470722,-42.487583,Usiminas,Ipatinga,Brazil
2572,-5.531292,-47.46005,Prefeito Renato Moreira,Imperatriz,Brazil
2575,-7.148381,-34.950681,Presidente Castro Pinto,Joao Pessoa,Brazil
2576,-26.224453,-48.797364,Lauro Carneiro De Loyola,Joinville,Brazil
2577,-7.269917,-35.896364,Presidente Joao Suassuna,Campina Grande,Brazil
2578,-23.0075,-47.134444,Viracopos,Campinas,Brazil
2581,-23.333625,-51.130072,Londrina,Londrina,Brazil
2582,-13.262086,-43.408114,Bom Jesus Da Lapa,Bom Jesus Da Lapa,Brazil
2584,-5.368589,-49.138025,Maraba,Maraba,Brazil
2586,-23.476392,-52.016406,Regional De Maringa Silvio Name Junior,Maringa,Brazil
2587,-16.706925,-43.8189,Mario Ribeiro,Montes Claros,Brazil
2590,-9.510808,-35.791678,Zumbi Dos Palmares,Maceio,Brazil
2591,0.050664,-51.072178,Macapa,Macapa,Brazil
2595,-26.879999,-48.65139,Ministro Victor Konder Intl,Navegantes,Brazil
2596,-28.281683,-54.169139,Santo Angelo,Santo Angelo,Brazil
2597,-5.911417,-35.247717,Augusto Severo,Natal,Brazil
2599,-29.994428,-51.171428,Salgado Filho,Porto Alegre,Brazil
2602,-28.243989,-52.326558,Lauro Kurtz,Passo Fundo,Brazil
2603,-31.718353,-52.327689,Pelotas,Pelotas,Brazil
2604,-9.362411,-40.569097,Senador Nilo Coelho,Petrolina,Brazil
2607,-8.709294,-63.902281,Governador Jorge Teixeira De Oliveira,Porto Velho,Brazil
2609,-9.583,-67.4836,Plcido de Castro,Rio Branco,Brazil
2610,-8.126794,-34.923039,Guararapes Gilberto Freyre Intl,Recife,Brazil
2611,-32.082617,-52.166542,Rio Grande,Rio Grande,Brazil
2612,-22.910461,-43.163133,Santos Dumont,Rio De Janeiro,Brazil
2613,-21.134167,-47.774189,Leite Lopes,Ribeirao Preto,Brazil
2615,-23.228172,-45.862739,Professor Urbano Ernesto Stumpf,Sao Jose Dos Campos,Brazil
2616,-2.585361,-44.234139,Marechal Cunha Machado Intl,Sao Luis,Brazil
2618,-23.626692,-46.655375,Congonhas,Sao Paulo,Brazil
2619,-20.816567,-49.406511,Sao Jose Do Rio Preto,Sao Jose Do Rio Preto,Brazil
2621,-12.910994,-38.331044,Deputado Luis Eduardo Magalhaes,Salvador,Brazil
2622,-1.4896,-56.396803,Trombetas,Oriximina,Brazil
2623,-5.059942,-42.823478,Senador Petronio Portella,Teresina,Brazil
2624,-3.382944,-64.724056,Tefe,Tefe,Brazil
2628,-4.255669,-69.935828,Tabatinga,Tabatinga,Brazil
2629,-3.786008,-49.720267,Tucurui,Tucurui,Brazil
2631,-9.400878,-38.250575,Paulo Afonso,Paulo Alfonso,Brazil
2632,-29.782178,-57.038189,Rubem Berta,Uruguaiana,Brazil
2633,-18.882844,-48.225594,Ten Cel Av Cesar Bombonato,Uberlandia,Brazil
2635,-19.765,-47.964778,Uberaba,Uberaba,Brazil
2637,-12.694375,-60.098269,Vilhena,Vilhena,Brazil
2638,-20.258056,-40.286389,Goiabeiras,Vitoria,Brazil
2641,-18.348531,-70.338742,Chacalluta,Arica,Chile
2642,-45.916058,-71.689475,Balmaceda,Balmaceda,Chile
2645,-22.498175,-68.903575,El Loa,Calama,Chile
2647,-53.002642,-70.854586,Carlos Ibanez Del Campo Intl,Punta Arenas,Chile
2649,-20.535222,-70.181275,Diego Aracena Intl,Iquique,Chile
2650,-33.392975,-70.785803,Arturo Merino Benitez Intl,Santiago,Chile
2651,-23.444478,-70.4451,Cerro Moreno Intl,Antofagasta,Chile
2656,-36.77265,-73.063106,Carriel Sur Intl,Concepcion,Chile
2657,-27.164792,-109.421831,Mataveri Intl,Easter Island,Chile
2658,-40.611208,-73.061042,Canal Bajo Carlos Hott Siebert,Osorno,Chile
2662,-29.916233,-71.199522,La Florida,La Serena,Chile
2664,-38.766819,-72.637097,Maquehue,Temuco,Chile
2665,-41.438886,-73.093953,El Tepual Intl,Puerto Montt,Chile
2667,-39.649956,-73.086111,Pichoy,Valdivia,Chile
2670,-0.462886,-76.986842,Francisco De Orellana,Coca,Ecuador
2671,-2.889467,-78.984397,Mariscal Lamar,Cuenca,Ecuador
2672,-0.453758,-90.265914,Seymour,Galapagos,Ecuador
2673,-2.157419,-79.883558,Jose Joaquin De Olmedo Intl,Guayaquil,Ecuador
2683,-0.946078,-80.678808,Eloy Alfaro Intl,Manta,Ecuador
2688,-0.141144,-78.488214,Mariscal Sucre Intl,Quito,Ecuador
2699,-25.23985,-57.519133,Silvio Pettirossi Intl,Asuncion,Paraguay
2705,4.452775,-75.766447,El Eden,Armenia,Colombia
2706,0.505228,-76.500836,Tres De Mayo,Puerto Asis,Colombia
2708,7.1265,-73.184778,Palonegro,Bucaramanga,Colombia
2709,4.701594,-74.146947,Eldorado Intl,Bogota,Colombia
2710,10.889589,-74.780819,Ernesto Cortissoz,Barranquilla,Colombia
2711,6.202917,-77.394675,Jose Celestino Mutis,Bahia Solano,Colombia
2712,3.819628,-76.989767,Gerardo Tobar Lopez,Buenaventura,Colombia
2713,7.927567,-72.511547,Camilo Daza,Cucuta,Colombia
2714,10.442381,-75.512961,Rafael Nunez,Cartagena,Colombia
2715,3.543222,-76.381583,Alfonso Bonilla Aragon Intl,Cali,Colombia
2716,1.814417,-78.749228,La Florida,Tumaco,Colombia
2717,9.332742,-75.285594,Las Brujas,Corozal,Colombia
2718,7.024331,-73.8068,Yariguies,Barrancabermeja,Colombia
2719,1.589189,-75.564372,Gustavo Artunduaga Paredes,Florencia,Colombia
2722,2.570133,-77.8986,Juan Casiano,Guapi,Colombia
2724,4.421608,-75.1333,Perales,Ibague,Colombia
2725,0.861925,-77.671764,San Luis,Ipiales,Colombia
2728,-4.193549,-69.943163,Alfredo Vasquez Cobo,Leticia,Colombia
2729,6.219958,-75.590519,Olaya Herrera,Medellin,Colombia
2731,8.823744,-75.825831,Los Garzones,Monteria,Colombia
2732,1.253664,-70.233878,Fabio Alberto Leon Bentley,Mitu,Colombia
2733,5.029597,-75.464708,La Nubia,Manizales,Colombia
2734,2.95015,-75.294,Benito Salas,Neiva,Colombia
2738,6.184717,-67.493164,Puerto Carreno,Puerto Carreno,Colombia
2739,4.812675,-75.739519,Matecana,Pereira,Colombia
2741,2.4544,-76.609319,Guillermo Leon Valencia,Popayan,Colombia
2742,1.396247,-77.291478,Antonio Narino,Pasto,Colombia
2743,13.356944,-81.35833,El Embrujo,Providencia,Colombia
2745,6.164536,-75.423119,Jose Maria Cordova,Rio Negro,Colombia
2746,11.526222,-72.925958,Almirante Padilla,Rio Hacha,Colombia
2747,2.579694,-72.639358,Jorge E Gonzalez Torres,San Jose Del Guaviare,Colombia
2748,11.11965,-74.230647,Simon Bolivar,Santa Marta,Colombia
2749,12.583594,-81.711192,Gustavo Rojas Pinilla,San Andres Island,Colombia
2750,2.152175,-74.76635,Eduardo Falla Solano,San Vincente De Caguan,Colombia
2751,6.451081,-71.760261,Tame,Tame,Colombia
2752,7.068881,-70.736925,Santiago Perez,Arauca,Colombia
2753,5.690758,-76.641181,El Carano,Quibdo,Colombia
2755,10.435042,-73.249506,Alfonso Lopez Pumarejo,Valledupar,Colombia
2756,4.167875,-73.613761,Vanguardia,Villavicencio,Colombia
2759,-17.421058,-66.177114,Jorge Wilsterman,Cochabamba,Bolivia
2761,-11.040436,-68.782972,Heroes Del Acre,Cobija,Bolivia
2762,-16.513339,-68.192256,El Alto Intl,La Paz,Bolivia
2764,-19.543069,-65.723706,Capitan Nicolas Rojas,Potosi,Bolivia
2767,-19.007083,-65.288747,Juana Azurduy De Padilla,Sucre,Bolivia
2768,-21.555736,-64.701325,Capitan Oriel Lea Plaza,Tarija,Bolivia
2769,-14.818739,-64.918019,Tte Av Jorge Henrich Arauz,Trinidad,Bolivia
2771,-17.644756,-63.135364,Viru Viru Intl,Santa Cruz,Bolivia
2772,-21.960925,-63.651669,Yacuiba,Yacuiba,Bolivia
2773,5.452831,-55.187783,Johan A Pengel Intl,Zandery,Suriname
2774,4.819808,-52.360447,Rochambeau,Cayenne,French Guiana
2781,-8.377939,-74.574297,Cap Fap David Abenzur Rengifo Intl,Pucallpa,Peru
2785,-6.787475,-79.828097,Capt Jose A Quinones Gonzales Intl,Chiclayo,Peru
2786,-13.154819,-74.204417,Coronel Fap Alfredo Mendivil Duarte,Ayacucho,Peru
2787,-13.706408,-73.350378,Andahuaylas,Andahuaylas,Peru
2788,-9.347444,-77.598392,Comandante Fap German Arias Graziani,Anta,Peru
2789,-12.021889,-77.114319,Jorge Chavez Intl,Lima,Peru
2792,-15.467103,-70.158169,Juliaca,Juliaca,Peru
2796,-3.552528,-80.381356,Pedro Canga,Tumbes,Peru
2801,-3.784739,-73.308806,Coronel Francisco Secada Vignetta Intl,Iquitos,Peru
2802,-16.341072,-71.583083,Rodriguez Ballon,Arequipa,Peru
2804,-8.081411,-79.108761,Capitan Carlos Martinez De Pinillos,Trujillo,Peru
2806,-6.508742,-76.373247,Cadete Guillermo Del Castillo Paredes,Tarapoto,Peru
2807,-18.053333,-70.275833,Coronel Carlos Ciriani Santa Rosa Intl,Tacna,Peru
2808,-12.613611,-69.228611,Padre Aldamiz,Puerto Maldonado,Peru
2809,-5.20575,-80.616444,Capitan Fap Guillermo Concha Iberico,Piura,Peru
2812,-13.535722,-71.938781,Teniente Alejandro Velasco Astete Intl,Cuzco,Peru
2816,-34.838417,-56.030806,Carrasco Intl,Montevideo,Uruguay
2821,10.107139,-64.689161,General Jose Antonio Anzoategui Intl,Barcelona,Venezuela
2822,8.619575,-70.220825,Barinas,Barinas,Venezuela
2824,10.042747,-69.358619,Barquisimeto Intl,Barquisimeto,Venezuela
2830,6.231989,-62.854433,Canaima,Canaima,Venezuela
2833,11.414867,-69.681656,Jose Leonardo Chirinos,Coro,Venezuela
2835,10.450333,-64.130472,Antonio Jose De Sucre,Cumana,Venezuela
2844,11.780775,-70.151497,Josefa Camejo,Paraguana,Venezuela
2846,8.239167,-72.271028,La Fria,La Fria,Venezuela
2848,10.558208,-71.727856,La Chinita Intl,Maracaibo,Venezuela
2849,8.582294,-71.161186,Alberto Carnevalli,Merida,Venezuela
2850,10.912926,-63.967581,Del Caribe Intl Gen Santiago Marino,Porlamar,Venezuela
2851,10.603117,-66.990583,Simon Bolivar Intl,Caracas,Venezuela
2852,9.749067,-63.1534,Maturin,Maturin,Venezuela
2853,5.619992,-67.606103,Casique Aramare,Puerto Ayacucho,Venezuela
2854,10.4805,-68.073025,General Bartolome Salom Intl,Puerto Cabello,Venezuela
2856,8.288528,-62.760361,General Manuel Carlos Piar,Guayana,Venezuela
2858,7.840831,-72.439742,San Antonio Del Tachira,San Antonio,Venezuela
2861,7.565111,-72.035125,Mayor Buenaventura Vivas,Santo Domingo,Venezuela
2864,8.945147,-64.151083,San Tome,San Tome,Venezuela
2868,10.149733,-67.9284,Arturo Michelena Intl,Valencia,Venezuela
2870,9.340797,-70.584089,Dr Antonio Nicolas Briceno,Valera,Venezuela
2874,17.136749,-61.792667,V C Bird Intl,Antigua,Antigua and Barbuda
2875,13.074603,-59.492456,Grantley Adams Intl,Bridgetown,Barbados
2877,15.547028,-61.3,Melville Hall,Dominica,Dominica
2878,14.591033,-61.003175,Le Lamentin,Fort-de-france,Martinique
2879,18.099914,-63.047197,Grand Case,St. Martin,Guadeloupe
2881,16.265306,-61.531806,Le Raizet,Pointe-a-pitre,Guadeloupe
2882,12.004247,-61.786192,Point Salines Intl,Point Salines,Grenada
2883,18.337306,-64.973361,Cyril E King,St. Thomas,Virgin Islands
2884,17.701889,-64.798556,Henry E Rohlsen,St. Croix Island,Virgin Islands
2885,18.494861,-67.129444,Rafael Hernandez,Aguadilla,Puerto Rico
2888,18.255694,-67.148472,Eugenio Maria De Hostos,Mayaguez,Puerto Rico
2889,18.008306,-66.563028,Mercedita,Ponce,Puerto Rico
2890,18.439417,-66.001833,Luis Munoz Marin Intl,San Juan,Puerto Rico
2891,17.311194,-62.718667,Robert L Bradshaw,Basse Terre,Saint Kitts and Nevis
2893,14.020228,-60.992936,George F L Charles,Castries,Saint Lucia
2894,13.733194,-60.952597,Hewanorra Intl,Hewandorra,Saint Lucia
2895,12.501389,-70.015221,Reina Beatrix Intl,Oranjestad,Aruba
2896,12.131044,-68.268511,Flamingo,Kralendijk,Netherlands Antilles
2897,12.188853,-68.959803,Hato,Willemstad,Netherlands Antilles
2898,17.496492,-62.979439,F D Roosevelt,Oranjestad,Netherlands Antilles
2899,18.040953,-63.1089,Princess Juliana Intl,Philipsburg,Netherlands Antilles
2900,18.204834,-63.055084,Wallblake,The Valley,Anguilla
2901,11.149658,-60.832194,Crown Point,Scarborough,Trinidad and Tobago
2902,10.595369,-61.337242,Piarco,Port-of-spain,Trinidad and Tobago
2903,18.444834,-64.542975,Terrance B Lettsome Intl,Tortola,British Virgin Islands
2907,13.144306,-61.210861,E T Joshua,Kingstown,Saint Vincent and the Grenadines
2908,43.352072,77.040508,Almaty,Alma-ata,Kazakhstan
2910,51.022222,71.466944,Astana Intl,Tselinograd,Kazakhstan
2911,42.853611,71.303611,Taraz,Dzhambul,Kazakhstan
2912,43.061306,74.477556,Manas,Bishkek,Kyrgyzstan
2913,40.608989,72.793269,Osh,Osh,Kyrgyzstan
2914,42.364167,69.478889,Shymkent,Chimkent,Kazakhstan
2916,51.150833,51.543056,Uralsk,Uralsk,Kazakhstan
2917,52.195,77.073889,Pavlodar,Pavlodar,Kazakhstan
2918,50.3513,80.2344,Semipalatinsk,Semiplatinsk,Kazakhstan
2920,50.245833,57.206667,Aktyubinsk,Aktyubinsk,Kazakhstan
2922,40.4675,50.046667,Heydar Aliyev,Baku,Azerbaijan
2923,62.09325,129.770672,Yakutsk,Yakutsk,Russia
2925,62.534689,114.038928,Mirny,Mirnyj,Russia
2926,50.425394,127.412478,Ignatyevo,Blagoveschensk,Russia
2927,48.528044,135.188361,Novy,Khabarovsk,Russia
2930,59.910989,150.720439,Sokol,Magadan,Russia
2931,69.783283,170.597006,Pevek,Pevek,Russia
2932,53.167889,158.453669,Yelizovo,Petropavlovsk,Russia
2933,46.888672,142.717531,Khomutovo,Yuzhno-sakhalinsk,Russia
2934,43.398953,132.148017,Knevichi,Vladivostok,Russia
2935,52.026317,113.305556,Kadala,Chita,Russia
2936,56.370556,101.698331,Bratsk,Bratsk,Russia
2937,52.268028,104.388975,Irkutsk,Irkutsk,Russia
2938,51.807764,107.437644,Mukhino,Ulan-ude,Russia
2939,50.345,30.894722,Boryspil Intl,Kiev,Ukraine
2940,48.073611,37.739722,Donetsk Intl,Donetsk,Ukraine
2941,48.357222,35.100556,Dnipropetrovsk Intl,Dnepropetrovsk,Ukraine
2942,45.052222,33.975139,Simferopol Intl,Simferopol,Ukraine
2944,50.401694,30.449697,Zhuliany Intl,Kiev,Ukraine
2945,49.8125,23.956111,Lviv Intl,Lvov,Ukraine
2947,46.426767,30.676464,Odesa Intl,Odessa,Ukraine
2948,59.800292,30.262503,Pulkovo,St. Petersburg,Russia
2949,68.781672,32.750822,Murmansk,Murmansk,Russia
2952,54.89005,20.592633,Khrabrovo,Kaliningrad,Russia
2954,53.882469,28.030731,Minsk 2,Minsk 2,Belarus
2955,53.74,91.385,Abakan,Abakan,Russia
2956,53.363775,83.538533,Barnaul,Barnaul,Russia
2957,55.270094,86.107208,Kemerovo,Kemorovo,Russia
2958,54.967042,73.310514,Omsk,Omsk,Russia
2960,45.034689,39.170539,Pashkovskiy,Krasnodar,Russia
2961,42.816822,47.652294,Uytash,Makhachkala,Russia
2962,44.225072,43.081889,Mineralnyye Vody,Mineralnye Vody,Russia
2963,45.109165,42.112778,Shpakovskoye,Stavropol,Russia
2964,47.258208,39.818089,Rostov Na Donu,Rostov,Russia
2965,43.449928,39.956589,Sochi,Sochi,Russia
2966,46.283333,48.006278,Astrakhan,Astrakhan,Russia
2967,48.782528,44.345544,Gumrak,Volgograd,Russia
2968,55.305836,61.503333,Balandino,Chelyabinsk,Russia
2969,53.393131,58.755661,Magnitogorsk,Magnetiogorsk,Russia
2972,60.949272,76.483617,Nizhnevartovsk,Nizhnevartovsk,Russia
2973,57.914517,56.021214,Bolshoye Savino,Perm,Russia
2974,61.343694,73.401842,Surgut,Surgut,Russia
2975,56.743108,60.802728,Koltsovo,Yekaterinburg,Russia
2976,37.986814,58.360967,Ashgabat,Ashkhabad,Turkmenistan
2979,38.543333,68.825,Dushanbe,Dushanbe,Tajikistan
2980,39.775,64.483333,Bukhara,Bukhara,Uzbekistan
2981,39.700547,66.983829,Samarkand,Samarkand,Uzbekistan
2983,41.257861,69.281186,Yuzhny,Tashkent,Uzbekistan
2985,55.972642,37.414589,Sheremetyevo,Moscow,Russia
2987,51.814211,39.229589,Chertovitskoye,Voronezh,Russia
2988,55.591531,37.261486,Vnukovo,Moscow,Russia
2989,61.64705,50.84505,Syktyvkar,Syktyvkar,Russia
2990,55.606186,49.278728,Kazan,Kazan,Russia
2991,51.795786,55.456744,Orenburg,Orenburg,Russia
2992,54.557511,55.874417,Ufa,Ufa,Russia
2994,23.077242,72.63465,Ahmedabad,Ahmedabad,India
2996,19.862728,75.398114,Aurangabad,Aurangabad,India
2997,19.088686,72.867919,Chhatrapati Shivaji Intl,Mumbai,India
2999,23.287828,69.670147,Bhuj,Bhuj,India
3000,15.859286,74.618292,Belgaum,Belgaum,India
3001,22.336164,73.226289,Vadodara,Baroda,India
3002,23.287467,77.337375,Bhopal,Bhopal,India
3003,21.752206,72.185181,Bhavnagar,Bhaunagar,India
3007,15.380833,73.831422,Goa,Goa,India
3008,22.721786,75.801086,Devi Ahilyabai Holkar,Indore,India
3009,23.177817,80.052047,Jabalpur,Jabalpur,India
3010,22.465522,70.012556,Jamnagar,Jamnagar,India
3012,24.817197,79.918597,Khajuraho,Khajuraho,India
3015,21.092192,79.047183,Dr Ambedkar Intl,Nagpur,India
3017,18.582111,73.919697,Pune,Pune,India
3018,21.648675,69.657219,Porbandar,Porbandar,India
3019,22.309183,70.779525,Rajkot,Rajkot,India
3020,21.180406,81.738753,Raipur,Raipur,India
3022,21.114061,72.741792,Surat,Surat,India
3023,24.617697,73.8961,Udaipur,Udaipur,India
3024,7.180756,79.884117,Bandaranaike Intl Colombo,Colombo,Sri Lanka
3030,8.538514,81.181853,China Bay,Trinciomalee,Sri Lanka
3034,11.546556,104.844139,Phnom Penh Intl,Phnom-penh,Cambodia
3035,13.410666,103.81284,Siem Reap,Siem-reap,Cambodia
3038,23.886978,91.24045,Agartala,Agartala,India
3039,23.746603,92.802767,Aizawl,Aizwal,India
3040,26.681206,88.328567,Bagdogra,Baghdogra,India
3042,20.244364,85.817781,Bhubaneshwar,Bhubaneswar,India
3043,22.654739,88.446722,Netaji Subhash Chandra Bose Intl,Kolkata,India
3050,24.75995,93.896697,Imphal,Imphal,India
3055,24.912928,92.978742,Silchar,Silchar,India
3061,25.591317,85.087992,Patna,Patina,India
3063,23.31425,85.321675,Birsa Munda,Ranchi,India
3066,17.721167,83.224483,Vishakhapatnam,Vishakhapatnam,India
3068,21.452194,91.963889,Coxs Bazar,Cox's Bazar,Bangladesh
3069,22.249611,91.813286,Shah Amanat Intl,Chittagong,Bangladesh
3071,23.1838,89.160833,Jessore,Jessore,Bangladesh
3072,24.437219,88.616511,Shah Mokhdum,Rajshahi,Bangladesh
3073,25.759228,88.908869,Saidpur,Saidpur,Bangladesh
3074,24.963242,91.866783,Osmany Intl,Sylhet Osmani,Bangladesh
3076,23.843333,90.397781,Zia Intl,Dhaka,Bangladesh
3077,22.308919,113.914603,Hong Kong Intl,Hong Kong,Hong Kong
3079,27.155831,77.960892,Agra,Agra,India
3080,25.440064,81.733872,Allahabad,Allahabad,India
3081,31.709594,74.797264,Amritsar,Amritsar,India
3084,25.452358,82.859342,Varanasi,Varanasi,India
3085,31.876706,77.154367,Kullu Manali,Kulu,India
3089,30.673469,76.788542,Chandigarh,Chandigarh,India
3092,30.189689,78.180256,Dehradun,Dehra Dun,India
3093,28.5665,77.103088,Indira Gandhi Intl,Delhi,India
3094,26.293336,78.227753,Gwalior,Gwalior,India
3097,26.251092,73.048869,Jodhpur,Jodhpur,India
3098,26.824192,75.812161,Jaipur,Jaipur,India
3100,32.689142,74.837389,Jammu,Jammu,India
3101,26.441444,80.364864,Kanpur,Kanpur,India
3103,30.854681,75.952592,Ludhiana,Ludhiaha,India
3104,34.135872,77.546514,Leh,Leh,India
3105,26.760594,80.889339,Lucknow,Lucknow,India
3112,33.987139,74.77425,Srinagar,Srinagar,India
3115,19.897914,102.160764,Luang Phabang Intl,Luang Prabang,Laos
3116,15.132053,105.781417,Pakse,Pakse,Laos
3118,16.556594,104.759531,Savannakhet,Savannakhet,Laos
3120,17.988322,102.563256,Wattay Intl,Vientiane,Laos
3121,22.149556,113.591558,Macau Intl,Macau,Macau
3122,27.505703,83.41625,Bhairahawa,Bhairawa,Nepal
3125,27.696583,85.3591,Tribhuvan Intl,Kathmandu,Nepal
3127,28.200881,83.982056,Pokhara,Pokhara,Nepal
3129,26.481453,87.264036,Biratnagar,Biratnagar,Nepal
3130,10.823656,72.176042,Agatti,Agatti Island,India
3131,12.949986,77.668206,Bangalore,Bangalore,India
3134,16.530433,80.796847,Vijayawada,Vijayawada,India
3135,11.030031,77.043383,Coimbatore,Coimbatore,India
3136,10.155556,76.391389,Cochin,Kochi,India
3137,11.136839,75.9553,Calicut,Calicut,India
3141,17.453117,78.467586,Hyderabad,Hyderabad,India
3142,9.834508,78.093378,Madurai,Madurai,India
3143,12.961267,74.890069,Mangalore,Mangalore,India
3144,12.994414,80.180517,Chennai Intl,Madras,India
3146,11.641161,92.729744,Port Blair,Port Blair,India
3148,17.110361,81.818208,Rajahmundry,Rajahmundry,India
3151,13.632492,79.543256,Tirupati,Tirupeti,India
3152,10.765364,78.709722,Trichy,Tiruchirappalli,India
3153,8.482122,76.920114,Thiruvananthapuram Intl,Trivandrum,India
3155,27.403192,89.424606,Paro,Thimphu,Bhutan
3156,4.191833,73.529128,Male Intl,Male,Maldives
3157,13.912583,100.60675,Don Muang Intl,Bangkok,Thailand
3161,12.679944,101.005028,U Taphao Intl,Pattaya,Thailand
3163,18.270933,99.504167,Lampang,Lampang,Thailand
3164,18.132169,100.164664,Phrae,Phrae,Thailand
3170,16.782939,100.279122,Phitsanulok,Phitsanulok,Thailand
3173,6.519922,101.7434,Narathiwat,Narathiwat,Thailand
3174,8.095969,98.988764,Krabi,Krabi,Thailand
3177,9.547794,100.062272,Samui,Ko Samui,Thailand
3179,8.1132,98.316872,Phuket Intl,Phuket,Thailand
3181,6.933206,100.392975,Hat Yai Intl,Hat Yai,Thailand
3182,7.508744,99.616578,Trang,Trang,Thailand
3183,17.386436,102.788247,Udon Thani,Udon Thani,Thailand
3184,17.195142,104.118625,Sakon Nakhon,Sakon Nakhon,Thailand
3186,17.439133,101.722064,Loei,Loei,Thailand
3196,16.043917,108.19937,Danang Intl,Danang,Vietnam
3199,21.221192,105.807178,Noibai Intl,Hanoi,Vietnam
3205,10.818797,106.651856,Tansonnhat Intl,Ho Chi Minh City,Vietnam
3213,20.747036,96.792044,Heho,Heho,Burma
3215,21.301611,99.635997,Kengtung,Kengtung,Burma
3217,19.426447,93.534836,Kyaukpyu,Kyaukpyu,Burma
3222,21.702156,95.977928,Mandalay Intl,Mandalay,Burma
3223,12.439797,98.621478,Myeik,Myeik,Burma
3224,25.383636,97.351919,Myitkyina,Myitkyina,Burma
3232,27.329922,97.426269,Putao,Putao,Burma
3235,20.132708,92.872628,Sittwe,Sittwe,Burma
3236,18.460731,94.300119,Thandwe,Thandwe,Burma
3237,20.483831,99.935353,Tachileik,Tachilek,Burma
3239,16.907305,96.133222,Yangon Intl,Yangon,Burma
3240,-5.061631,119.554042,Hasanuddin,Ujung Pandang,Indonesia
3241,-1.190017,136.107997,Frans Kaisiepo,Biak,Indonesia
3242,-3.368183,135.496406,Nabire,Nabire,Indonesia
3243,-4.528275,136.887375,Moses Kilangin,Timika,Indonesia
3244,-2.576953,140.516372,Sentani,Jayapura,Indonesia
3245,-4.102511,138.957372,Wamena,Wamena,Indonesia
3246,-8.520294,140.418453,Mopah,Merauke,Indonesia
3247,0.637119,122.849858,Jalaluddin,Gorontalo,Indonesia
3249,-0.918542,119.909642,Mutiara,Palu,Indonesia
3250,1.549447,124.925878,Sam Ratulangi,Manado,Indonesia
3251,-1.416753,120.657669,Kasiguncu,Poso,Indonesia
3253,0.831414,127.381486,Sultan Babullah,Ternate,Indonesia
3254,-1.038919,122.771906,Bubung,Luwuk,Indonesia
3256,-3.710264,128.089136,Pattimura,Ambon,Indonesia
3257,-2.920192,132.267031,Fak Fak,Fak Fak,Indonesia
3258,-3.644517,133.695553,Kaimana,Kaimana,Indonesia
3259,-2.532242,133.438894,Babo,Babo,Indonesia
3260,-0.891833,134.049183,Rendani,Manokwari,Indonesia
3261,-0.926358,131.121194,Jefman,Sorong,Indonesia
3262,3.12385,113.020472,Bintulu,Bintulu,Malaysia
3263,1.484697,110.346933,Kuching Intl,Kuching,Malaysia
3264,4.808303,115.010439,Limbang,Limbang,Malaysia
3265,4.1775,114.321944,Marudi,Marudi,Malaysia
3266,4.322014,113.986806,Miri,Miri,Malaysia
3267,2.261603,111.985322,Sibu,Sibu,Malaysia
3268,5.032247,118.324036,Lahad Datu,Lahad Datu,Malaysia
3269,5.937208,116.051181,Kota Kinabalu Intl,Kota Kinabalu,Malaysia
3270,5.300683,115.250181,Labuan,Labuan,Malaysia
3271,4.313369,118.121953,Tawau,Tawau,Malaysia
3272,4.9442,114.928353,Brunei Intl,Bandar Seri Begawan,Brunei
3273,0.460786,101.444539,Sultan Syarif Kasim Ii,Pekanbaru,Indonesia
3275,-6.125567,106.655897,Soekarno Hatta Intl,Jakarta,Indonesia
3278,-0.874989,100.351881,Minangkabau,Padang,Indonesia
3282,-1.816639,109.963483,Rahadi Usman,Ketapang,Indonesia
3284,-0.150711,109.403892,Supadio,Pontianak,Indonesia
3287,-1.638017,103.644378,Sultan Thaha,Jambi,Indonesia
3288,-3.8637,102.339036,Fatmawati Soekarno,Bengkulu,Indonesia
3289,-2.89825,104.699903,Sultan Mahmud Badaruddin Ii,Palembang,Indonesia
3294,5.523522,95.420372,Sultan Iskandarmuda,Banda Aceh,Indonesia
3296,6.189667,100.398183,Sultan Abdul Halim,Alor Setar,Malaysia
3298,6.16685,102.293014,Sultan Ismail Petra,Kota Bahru,Malaysia
3299,3.775389,103.209056,Kuantan,Kuantan,Malaysia
3300,4.537222,103.426756,Kerteh,Kerteh,Malaysia
3302,4.567972,101.092194,Sultan Azlan Shah,Ipoh,Malaysia
3303,1.641308,103.669619,Sultan Ismail,Johor Bahru,Malaysia
3304,2.745578,101.709917,Kuala Lumpur Intl,Kuala Lumpur,Malaysia
3305,6.329728,99.728667,Langkawi Intl,Pulau,Malaysia
3307,5.382639,103.10336,Sultan Mahmud,Kuala Terengganu,Malaysia
3308,5.297139,100.276864,Penang Intl,Penang,Malaysia
3310,-8.546553,125.524719,Presidente Nicolau Lobato Intl,Dili,East Timor
3316,1.350189,103.994433,Changi Intl,Singapore,Singapore
3318,-10.950833,142.459444,Bamaga Injinoo,Amberley,Australia
3319,-23.806667,133.902222,Alice Springs,Alice Springs,Australia
3320,-27.384167,153.1175,Brisbane Intl,Brisbane,Australia
3321,-28.164444,153.504722,Gold Coast,Coolangatta,Australia
3322,-16.885833,145.755278,Cairns Intl,Cairns,Australia
3323,-26.413334,146.2625,Charleville,Charlieville,Australia
3324,-20.663889,139.488611,Mount Isa,Mount Isa,Australia
3325,-26.603333,153.091111,Sunshine Coast,Maroochydore,Australia
3326,-21.171667,149.179722,Mackay,Mackay,Australia
3328,-20.495,148.552222,Proserpine Whitsunday Coast,Prosserpine,Australia
3329,-23.381944,150.475278,Rockhampton,Rockhampton,Australia
3330,-19.2525,146.765278,Townsville,Townsville,Australia
3331,-12.678611,141.925278,Weipa,Weipa,Australia
3332,-38.039444,144.469444,Avalon,Avalon,Australia
3333,-36.067778,146.958056,Albury,Albury,Australia
3334,-37.728056,144.901944,Melbourne Essendon,Melbourne,Australia
3336,-42.836111,147.510278,Hobart,Hobart,Australia
3337,-41.545278,147.214167,Launceston,Launceston,Australia
3339,-37.673333,144.843333,Melbourne Intl,Melbourne,Australia
3341,-34.945,138.530556,Adelaide Intl,Adelaide,Australia
3345,-20.712222,116.773333,Karratha,Karratha,Australia
3346,-30.789444,121.461667,Kalgoorlie Boulder,Kalgoorlie,Australia
3347,-15.778056,128.7075,Kununurra,Kununurra,Australia
3348,-22.235556,114.088611,Learmonth,Learmonth,Australia
3349,-20.377778,118.626389,Port Hedland Intl,Port Hedland,Australia
3351,-31.940278,115.966944,Perth Intl,Perth,Australia
3353,-10.450556,105.690278,Christmas Island,Christmas Island,Christmas Island
3355,-35.306944,149.195,Canberra,Canberra,Australia
3356,-30.320556,153.116389,Coffs Harbour,Coff's Harbour,Australia
3358,-32.216667,148.574722,Dubbo,Dubbo,Australia
3359,-29.041625,167.938742,Norfolk Island Intl,Norfolk Island,Norfolk Island
3360,-33.600556,150.780833,Richmond,Richmond,Australia
3361,-33.946111,151.177222,Sydney Intl,Sydney,Australia
3362,-31.083889,150.846667,Tamworth,Tamworth,Australia
3363,-35.165278,147.466389,Wagga Wagga,Wagga Wagga,Australia
3364,40.080111,116.584556,Capital Intl,Beijing,China
3366,49.204997,119.825,Dongshan,Hailar,China
3368,39.124353,117.346183,Binhai,Tianjin,China
3369,37.746897,112.628428,Wusu,Taiyuan,China
3370,23.392436,113.298786,Baiyun Intl,Guangzhou,China
3371,28.189158,113.219633,Huanghua,Changcha,China
3372,25.218106,110.039197,Liangjiang,Guilin,China
3373,22.608267,108.172442,Wuxu,Nanning,China
3374,22.639258,113.810664,Baoan Intl,Shenzhen,China
3375,34.519672,113.840889,Xinzheng,Zhengzhou,China
3376,30.783758,114.2081,Tianhe,Wuhan,China
3377,39.224061,125.67015,Pyongyang Intl,Pyongyang,Korea
3379,34.447119,108.751592,Xianyang,Xi'an,China
3380,47.843056,106.766639,Chinggis Khaan Intl,Ulan Bator,Mongolia
3382,24.992364,102.743536,Wujiaba,Kunming,China
3383,24.544036,118.127739,Gaoqi,Xiamen,China
3384,28.865,115.9,Changbei Intl,Nanchang,China
3385,25.935064,119.663272,Changle,Fuzhou,China
3386,30.229503,120.434453,Xiaoshan,Hangzhou,China
3387,29.826683,121.461906,Lishe,Ninbo,China
3388,31.742042,118.862025,Lukou,Nanjing,China
3389,31.780019,117.298436,Luogang,Hefei,China
3390,36.266108,120.374436,Liuting,Qingdao,China
3391,31.197875,121.336319,Hongqiao Intl,Shanghai,China
3392,37.401667,121.371667,Laishan,Yantai,China
3393,29.719217,106.641678,Jiangbei,Chongqing,China
3394,26.538522,106.800703,Longdongbao,Guiyang,China
3395,30.578528,103.947086,Shuangliu,Chengdu,China
3396,27.989083,102.184361,Qingshan,Xichang,China
3397,39.542922,76.019956,Kashi,Kashi,China
3398,37.038522,79.864933,Hotan,Hotan,China
3399,43.907106,87.474244,Diwopu,Urumqi,China
3400,45.623403,126.250328,Taiping,Harbin,China
3404,38.965667,121.5386,Zhoushuizi,Dalian,China
3406,31.143378,121.805214,Pudong,Shanghai,China
3408,3.130583,101.549333,Subang-Sultan Abdul Aziz Shah Intl,Kuala Lumpur,Malaysia
3409,37.293097,136.961853,Noto,Wajima,Japan
3410,30.917669,29.696408,Borg El Arab Intl,Alexandria,Egypt
3411,70.133989,-143.581867,Barter Island Lrrs,Barter Island,United States
3413,68.875133,-166.110022,Cape Lisburne Lrrs,Cape Lisburne,United States
3414,69.732875,-163.005342,Point Lay Lrrs,Point Lay,United States
3415,19.721375,-155.048469,Hilo Intl,Hilo,United States
3417,66.913944,-151.529056,Bettles,Bettles,United States
3420,66.571492,-145.250417,Fort Yukon,Fort Yukon,United States
3423,62.894369,-155.976525,Tatalina Lrrs,Tatalina,United States
3426,57.167333,-170.220444,St Paul Island,St. Paul Island,United States
3429,59.754356,-154.910961,Iliamna,Iliamna,United States
3430,59.011356,-161.819664,Platinum,Port Moller,United States
3437,35.336583,-94.367444,Fort Smith Rgnl,Fort Smith,United States
3442,47.949256,-97.176111,Grand Forks Intl,Grand Forks,United States
3445,20.795636,-156.014439,Hana,Hana,United States
3446,34.654472,-112.419583,Ernest A Love Fld,Prescott,United States
3447,40.276692,-74.813469,Trenton Mercer,Trenton,United States
3448,42.364347,-71.005181,General Edward Lawrence Logan Intl,Boston,United States
3453,37.721278,-122.220722,Metropolitan Oakland Intl,Oakland,United States
3454,41.303167,-95.894069,Eppley Afld,Omaha,United States
3456,20.89865,-156.430458,Kahului,Kahului,United States
3457,37.649944,-97.433056,Wichita Mid Continent,Wichita,United States
3458,39.297606,-94.713905,Kansas City Intl,Kansas City,United States
3459,43.139858,-89.337514,Dane Co Rgnl Truax Fld,Madison,United States
3460,59.044667,-158.5055,Dillingham,Dillingham,United States
3461,36.261519,-93.154728,Boone Co,Harrison,United States
3462,33.434278,-112.011583,Phoenix Sky Harbor Intl,Phoenix,United States
3463,44.807444,-68.828139,Bangor Intl,Bangor,United States
3465,32.384014,-94.711486,East Texas Rgnl,Longview,United States
3467,47.619861,-117.533833,Spokane Intl,Spokane,United States
3469,37.618972,-122.374889,San Francisco Intl,San Francisco,United States
3472,29.690056,-82.271778,Gainesville Rgnl,Gainesville,United States
3473,35.042417,-89.976667,Memphis Intl,Memphis,United States
3484,33.942536,-118.408075,Los Angeles Intl,Los Angeles,United States
3486,41.411689,-81.849794,Cleveland Hopkins Intl,Cleveland,United States
3488,39.048836,-84.667822,Cincinnati Northern Kentucky Intl,Cincinnati,United States
3491,44.3852,-98.228542,Huron Rgnl,Huron,United States
3492,58.354972,-134.576278,Juneau Intl,Juneau,United States
3493,30.205278,-91.987611,Lafayette Rgnl,Lafayette,United States
3494,40.6925,-74.168667,Newark Liberty Intl,Newark,United States
3495,43.564361,-116.222861,Boise Air Terminal,Boise,United States
3497,37.927528,-100.724417,Garden City Rgnl,Garden City,United States
3498,48.259378,-101.280333,Minot Intl,Minot,United States
3502,32.847111,-96.851778,Dallas Love Fld,Dallas,United States
3504,46.606806,-111.98275,Helena Rgnl,Helena,United States
3513,30.126112,-93.223335,Lake Charles Rgnl,Lake Charles,United States
3514,19.738767,-156.045631,Kona Intl At Keahole,Kona,United States
3515,33.67975,-78.928333,Myrtle Beach Intl,Myrtle Beach,United States
3517,41.253053,-70.060181,Nantucket Mem,Nantucket,United States
3520,38.852083,-77.037722,Ronald Reagan Washington Natl,Washington,United States
3524,39.457583,-74.577167,Atlantic City Intl,Atlantic City,United States
3527,38.289085,-104.496572,Pueblo Memorial,Pueblo,United States
3528,46.688958,-68.044797,Northern Maine Rgnl At Presque Isle,Presque Isle,United States
3531,57.749967,-152.493856,Kodiak,Kodiak,United States
3533,26.072583,-80.15275,Fort Lauderdale Hollywood Intl,Fort Lauderdale,United States
3535,48.566186,-93.403067,Falls Intl,International Falls,United States
3536,40.788389,-111.977772,Salt Lake City Intl,Salt Lake City,United States
3542,40.193494,-76.763403,Harrisburg Intl,Harrisburg,United States
3543,40.850971,-96.75925,Lincoln,Lincoln,United States
3544,42.7787,-84.587357,Capital City,Lansing,United States
3545,20.001328,-155.668108,Waimea Kohala,Kamuela,United States
3546,44.935833,-74.845547,Massena Intl Richards Fld,Massena,United States
3550,29.984433,-95.341442,George Bush Intercontinental,Houston,United States
3558,35.433598,-119.05677,Meadows Fld,Bakersfield,United States
3559,31.80725,-106.377583,El Paso Intl,El Paso,United States
3560,26.2285,-97.654389,Valley Intl,Harlingen,United States
3561,33.938833,-81.119528,Columbia Metropolitan,Columbia,United States
3564,30.473425,-87.186611,Pensacola Rgnl,Pensacola,United States
3566,29.645419,-95.278889,William P Hobby,Houston,United States
3570,40.491467,-80.232872,Pittsburgh Intl,Pittsburgh,United States
3571,71.285446,-156.766003,Wiley Post Will Rogers Mem,Barrow,United States
3576,25.79325,-80.290556,Miami Intl,Miami,United States
3577,47.449,-122.309306,Seattle Tacoma Intl,Seattle,United States
3578,35.035278,-85.203808,Lovell Fld,Chattanooga,United States
3580,32.311167,-90.075889,Jackson Evers Intl,Jackson,United States
3582,33.817722,-118.151611,Long Beach,Long Beach,United States
3584,41.241836,-76.921094,Williamsport Rgnl,Williamsport,United States
3585,39.717331,-86.294383,Indianapolis Intl,Indianapolis,United States
3589,41.066959,-73.707575,Westchester Co,White Plains,United States
3591,35.831708,-90.646417,Jonesboro Muni,Jonesboro,United States
3596,32.656578,-114.60598,Yuma Mcas Yuma Intl,Yuma,United States
3597,32.337472,-104.263278,Cavern City Air Terminal,Carlsbad,United States
3598,46.842091,-92.193649,Duluth Intl,Duluth,United States
3599,60.779778,-161.838,Bethel,Bethel,United States
3602,21.975983,-159.338958,Lihue,Lihue,United States
3604,48.542983,-109.762342,Havre City Co,Havre,United States
3608,37.505167,-77.319667,Richmond Intl,Richmond,United States
3609,32.446629,-93.8256,Shreveport Rgnl,Shreveport,United States
3610,60.491778,-145.477556,Merle K Mudhole Smith,Cordova,United States
3611,36.894611,-76.201222,Norfolk Intl,Norfolk,United States
3612,29.950833,-94.020694,Southeast Texas Rgnl,Beaumont,United States
3613,32.127583,-81.202139,Savannah Hilton Head Intl,Savannah,United States
3615,64.512203,-165.445247,Nome,Nome,United States
3616,45.771028,-122.861833,Scappoose Industrial Airpark,San Luis,United States
3617,27.910167,-82.687389,St Petersburg Clearwater Intl,St. Petersburg,United States
3620,70.19475,-148.465167,Deadhorse,Deadhorse,United States
3621,29.533694,-98.469778,San Antonio Intl,San Antonio,United States
3622,43.118866,-77.672389,Greater Rochester Intl,Rochester,United States
3624,40.850103,-74.060837,Teterboro,Teterboro,United States
3626,35.877639,-78.787472,Raleigh Durham Intl,Raleigh-durham,United States
3627,39.902375,-84.219375,James M Cox Dayton Intl,Dayton,United States
3628,60.573111,-151.245,Kenai Muni,Kenai,United States
3630,43.107333,-78.946194,Niagara Falls Intl,Niagara Falls,United States
3633,37.131894,-76.492989,Newport News Williamsburg Intl,Newport News,United States
3636,32.116083,-110.941028,Tucson Intl,Tucson,United States
3641,41.732581,-71.420383,Theodore Francis Green State,Providence,United States
3642,38.340525,-75.510289,Salisbury Ocean City Wicomico Rgnl,Salisbury,United States
3644,34.200667,-118.358667,Bob Hope,Burbank,United States
3645,42.212444,-83.353389,Detroit Metro Wayne Co,Detroit,United States
3646,27.975472,-82.53325,Tampa Intl,Tampa,United States
3650,47.3866,-92.838994,Chisholm Hibbing,Hibbing,United States
3652,31.942528,-102.201914,Midland Intl,Midland,United States
3653,44.485072,-88.129589,Austin Straubel Intl,Green Bay,United States
3658,33.369944,-81.9645,Augusta Rgnl At Bush Fld,Bush Field,United States
3659,48.177939,-103.642347,Sloulin Fld Intl,Williston,United States
3660,34.729444,-92.224306,Adams Fld,Little Rock,United States
3661,41.504094,-74.104839,Stewart Intl,Newburgh,United States
3664,59.645556,-151.476583,Homer,Homer,United States
3665,37.741631,-92.140736,Waynesville Rgnl Arpt At Forney Fld,Fort Leonardwood,United States
3670,32.896828,-97.037997,Dallas Fort Worth Intl,Dallas-Fort Worth,United States
3671,28.102753,-80.645258,Melbourne Intl,Melbourne,United States
3673,30.194528,-97.669889,Austin Bergstrom Intl,Austin,United States
3674,39.813786,-82.927822,Rickenbacker Intl,Columbus,United States
3676,35.810972,-83.994028,Mc Ghee Tyson,Knoxville,United States
3678,38.748697,-90.370028,Lambert St Louis Intl,St. Louis,United States
3680,33.988797,-98.491894,Sheppard Afb Wichita Falls Muni,Wichita Falls,United States
3681,39.103333,-84.418611,Cincinnati Muni Lunken Fld,Cincinnati,United States
3682,33.636719,-84.428067,Hartsfield Jackson Atlanta Intl,Atlanta,United States
3685,42.880833,-85.522806,Gerald R Ford Intl,Grand Rapids,United States
3687,36.776194,-119.71814,Fresno Yosemite Intl,Fresno,United States
3689,32.834219,-115.578744,Imperial Co,Imperial,United States
3690,36.124472,-86.678194,Nashville Intl,Nashville,United States
3691,27.54375,-99.461556,Laredo Intl,Laredo,United States
3693,66.884678,-162.59855,Ralph Wien Mem,Kotzebue,United States
3694,40.296372,-78.320022,Altoona Blair Co,Altoona,United States
3696,33.220972,-92.813278,South Arkansas Rgnl At Goodwin Fld,El Dorado,United States
3697,40.777245,-73.872608,La Guardia,New York,United States
3698,30.396528,-84.350333,Tallahassee Rgnl,Tallahassee,United States
3700,31.611289,-97.230519,Waco Rgnl,Waco,United States
3701,44.320647,-69.797317,Augusta State,Augusta,United States
3704,35.599889,-88.915611,Mc Kellar Sipes Rgnl,Jackson,United States
3705,21.152886,-157.096256,Molokai,Molokai,United States
3708,31.35775,-100.496306,San Angelo Rgnl Mathis Fld,San Angelo,United States
3710,39.795383,-121.858422,Chico Muni,Chico,United States
3711,44.471861,-73.153278,Burlington Intl,Burlington,United States
3712,30.494056,-81.687861,Jacksonville Intl,Jacksonville,United States
3713,37.151516,-107.75377,Durango La Plata Co,Durango,United States
3714,38.944533,-77.455811,Washington Dulles Intl,Washington,United States
3715,30.588583,-96.363833,Easterwood Fld,College Station,United States
3717,42.947222,-87.896583,General Mitchell Intl,Milwaukee,United States
3718,32.411319,-99.681897,Abilene Rgnl,Abilene,United States
3719,38.818094,-92.219631,Columbia Rgnl,Columbia,United States
3720,45.588722,-122.5975,Portland Intl,Portland,United States
3722,26.683161,-80.095589,Palm Beach Intl,West Palm Beach,United States
3724,44.681854,-75.4655,Ogdensburg Intl,Ogdensburg,United States
3726,47.53,-122.301947,Boeing Fld King Co Intl,Seattle,United States
3728,21.318681,-157.922428,Honolulu Intl,Honolulu,United States
3729,41.533972,-93.663083,Des Moines Intl,Des Moines,United States
3730,35.072972,-77.042944,Craven Co Rgnl,New Bern,United States
3731,32.733556,-117.189667,San Diego Intl,San Diego,United States
3732,32.510864,-92.037689,Monroe Rgnl,Monroe,United States
3734,34.056,-117.601194,Ontario Intl,Ontario,United States
3736,33.301556,-104.530556,Roswell Intl Air Center,Roswell,United States
3738,25.906833,-97.425861,Brownsville South Padre Island Intl,Brownsville,United States
3739,31.321339,-85.449628,Dothan Rgnl,Dothan,United States
3743,36.74125,-108.229944,Four Corners Rgnl,Farmington,United States
3744,27.770361,-97.501222,Corpus Christi Intl,Corpus Christi,United States
3745,43.111187,-76.106311,Syracuse Hancock Intl,Syracuse,United States
3747,41.785972,-87.752417,Chicago Midway Intl,Chicago,United States
3748,37.3626,-121.929022,Norman Y Mineta San Jose Intl,San Jose,United States
3749,32.687528,-103.217028,Lea Co Rgnl,Hobbs,United States
3751,39.861656,-104.673178,Denver Intl,Denver,United States
3752,39.871944,-75.241139,Philadelphia Intl,Philadelphia,United States
3753,42.402603,-96.384367,Sioux Gateway Col Bud Day Fld,Sioux City,United States
3754,32.69285,-83.649211,Middle Georgia Rgnl,Macon,United States
3759,39.997972,-82.891889,Port Columbus Intl,Columbus,United States
3764,64.736178,-156.937417,Edward G Pitka Sr,Galena,United States
3770,33.453722,-93.991028,Texarkana Rgnl Webb Fld,Texarkana,United States
3771,44.650944,-73.468139,Plattsburgh Intl,Plattsburgh,United States
3774,61.174361,-149.996361,Ted Stevens Anchorage Intl,Anchorage,United States
3775,31.06725,-97.828917,Robert Gray Aaf,Killeen,United States
3777,48.792694,-122.537528,Bellingham Intl,Bellingham,United States
3782,30.691231,-88.242814,Mobile Rgnl,Mobile,United States
3784,35.617108,-106.089422,Santa Fe Muni,Santa Fe,United States
3790,38.545178,-89.835183,Scott Afb Midamerica,Belleville,United States
3793,26.536167,-81.755167,Southwest Florida Intl,Fort Myers,United States
3794,58.676778,-156.649278,King Salmon,King Salmon,United States
3796,20.962936,-156.673031,Kapalua,Lahania-kapalua,United States
3797,40.639751,-73.778925,John F Kennedy Intl,New York,United States
3804,41.155722,-104.811839,Cheyenne Rgnl Jerry Olson Fld,Cheyenne,United States
3805,37.894167,-121.238306,Stockton Metropolitan,Stockton,United States
3806,32.898647,-80.040528,Charleston Afb Intl,Charleston,United States
3807,39.499108,-119.768108,Reno Tahoe Intl,Reno,United States
3808,55.355556,-131.71375,Ketchikan Intl,Ketchikan,United States
3811,33.562942,-86.75355,Birmingham Intl,Birmingham,United States
3816,37.625817,-120.954422,Modesto City Co Harry Sham,Modesto,United States
3817,38.695417,-121.590778,Sacramento Intl,Sacramento,United States
3819,38.805805,-104.700778,City Of Colorado Springs Muni,Colorado Springs,United States
3820,42.940525,-78.732167,Buffalo Niagara Intl,Buffalo,United States
3824,37.700967,-113.098847,Cedar City Rgnl,Cedar City,United States
3825,41.938889,-72.683222,Bradley Intl,Windsor Locks,United States
3826,26.175833,-98.238611,Mc Allen Miller Intl,Mcallen,United States
3829,33.663639,-101.822778,Lubbock Preston Smith Intl,Lubbock,United States
3830,41.978603,-87.904842,Chicago Ohare Intl,Chicago,United States
3832,64.815114,-147.856267,Fairbanks Intl,Fairbanks,United States
3838,43.991922,-76.021739,Watertown Intl,Watertown,United States
3839,33.829667,-116.506694,Palm Springs Intl,Palm Springs,United States
3840,35.219369,-101.705931,Rick Husband Amarillo Intl,Amarillo,United States
3843,38.950944,-95.663611,Forbes Fld,Topeka,United States
3845,34.270615,-77.902569,Wilmington Intl,Wilmington,United States
3846,30.533167,-91.149639,Baton Rouge Metro Ryan Fld,Baton Rouge,United States
3848,32.354139,-95.402386,Tyler Pounds Rgnl,Tyler,United States
3849,39.175361,-76.668333,Baltimore Washington Intl,Baltimore,United States
3851,20.785611,-156.951419,Lanai,Lanai,United States
3852,31.3274,-92.549833,Alexandria Intl,Alexandria,United States
3854,55.206061,-162.725436,Cold Bay,Cold Bay,United States
3855,36.198389,-95.888111,Tulsa Intl,Tulsa,United States
3856,57.047138,-135.361611,Sitka Rocky Gutierrez,Sitka,United States
3857,40.79525,-73.100222,Long Island Mac Arthur,Islip,United States
3858,44.881956,-93.221767,Minneapolis St Paul Intl,Minneapolis,United States
3859,39.678722,-75.606528,New Castle,Wilmington,United States
3860,53.900139,-166.5435,Unalaska,Unalaska,United States
3861,29.993389,-90.258028,Louis Armstrong New Orleans Intl,New Orleans,United States
3862,43.646161,-70.309281,Portland Intl Jetport,Portland,United States
3863,35.393089,-97.600733,Will Rogers World,Oklahoma City,United States
3864,42.748267,-73.801692,Albany Intl,Albany,United States
3865,61.133949,-146.248342,Valdez Pioneer Fld,Valdez,United States
3867,33.675667,-117.868222,John Wayne Arpt Orange Co,Santa Ana,United States
3872,42.908,-106.464417,Natrona Co Intl,Casper,United States
3873,30.48325,-86.5254,Eglin Afb,Valparaiso,United States
3875,24.556111,-81.759556,Key West Intl,Key West,United States
3876,35.214,-80.943139,Charlotte Douglas Intl,Charlotte,United States
3877,36.080056,-115.15225,Mc Carran Intl,Las Vegas,United States
3878,28.429394,-81.308994,Orlando Intl,Orlando,United States
3879,34.185361,-79.723889,Florence Rgnl,Florence,United States
3880,47.482,-111.370689,Great Falls Intl,Great Falls,United States
3881,41.260736,-80.679097,Youngstown Warren Rgnl,Youngstown,United States
3885,13.681108,100.747283,Suvarnabhumi Intl,Bangkok,Thailand
3886,3.683214,125.528019,Naha,Naha,Indonesia
3890,-4.081608,122.418231,Wolter Monginsidi,Kendari,Indonesia
3894,-7.926556,112.714514,Abdul Rachman Saleh,Malang,Indonesia
3896,-6.900625,107.576294,Husein Sastranegara,Bandung,Indonesia
3898,-7.788181,110.431758,Adi Sutjipto,Yogyakarta,Indonesia
3901,-6.971447,110.374122,Achmad Yani,Semarang,Indonesia
3903,1.121028,104.118753,Hang Nadim,Batam,Indonesia
3904,-2.745722,107.754917,H As Hanandjoeddin,Tanjung Pandan,Indonesia
3905,-2.1622,106.139064,Depati Amir,Pangkal Pinang,Indonesia
3906,0.922683,104.532311,Kijang,Tanjung Pinang,Indonesia
3908,-3.442356,114.762553,Syamsudin Noor,Banjarmasin,Indonesia
3910,-2.705197,111.673208,Iskandar,Pangkalan Bun,Indonesia
3911,-2.225128,113.942661,Tjilik Riwut,Palangkaraya,Indonesia
3913,-8.640647,122.236889,Wai Oti,Maumere,Indonesia
3914,-8.849294,121.660644,H Hasan Aroeboesman,Ende,Indonesia
3916,-10.171583,123.671136,El Tari,Kupang,Indonesia
3917,-8.486656,119.88905,Mutiara Ii,Labuhan Bajo,Indonesia
3919,-1.268272,116.894478,Sepinggan,Balikpapan,Indonesia
3920,3.326694,117.565569,Juwata,Taraken,Indonesia
3924,-8.539647,118.687322,Muhammad Salahuddin,Bima,Indonesia
3927,-9.669217,120.302006,Mau Hau,Waingapu,Indonesia
3928,-7.379831,112.786858,Juanda,Surabaya,Indonesia
3929,-7.516089,110.756892,Adi Sumarmo Wiryokusumo,Solo City,Indonesia
3930,37.469075,126.450517,Incheon Intl,Seoul,South Korea
3931,18.766847,98.962644,Chiang Mai Intl,Chiang Mai,Thailand
3932,19.952342,99.882928,Chiang Rai Intl,Chiang Rai,Thailand
3933,8.539617,99.944725,Nakhon Si Thammarat,Nakhon Si Thammarat,Thailand
3936,17.383794,104.643022,Nakhon Phanom,Nakhon Phanom,Thailand
3937,15.251278,104.870231,Ubon Ratchathani,Ubon Ratchathani,Thailand
3938,16.466628,102.783661,Khon Kaen,Khon Kaen,Thailand
3939,17.237992,99.818183,Sukhothai,Sukhothai,Thailand
3940,-8.748169,115.167172,Bali Ngurah Rai,Denpasar,Indonesia
3941,37.936358,23.944467,Eleftherios Venizelos Intl,Athens,Greece
3942,34.858414,136.805408,Chubu Centrair Intl,Nagoya,Japan
3943,34.632778,135.223889,Kobe,Kobe,Japan
3944,46.743861,-117.109583,Pullman-Moscow Rgnl,Pullman,United States
3945,46.3745,-117.015389,Lewiston Nez Perce Co,Lewiston,United States
3946,42.159889,-76.891611,Elmira Corning Rgnl,Elmira,United States
3947,42.491028,-76.458444,Ithaca Tompkins Rgnl,Ithaca,United States
3948,36.587,-121.842944,Monterey Peninsula,Monterey,United States
3949,34.426211,-119.840372,Santa Barbara Muni,Santa Barbara,United States
3950,29.179917,-81.058056,Daytona Beach Intl,Daytona Beach,United States
3953,56.923611,23.971111,Riga Intl,Riga,Latvia
3956,54.963919,24.084778,Kaunas Intl,Kaunas,Lithuania
3958,55.973228,21.093856,Palanga Intl,Palanga,Lithuania
3959,54.634133,25.285767,Vilnius Intl,Vilnius,Lithuania
3964,40.147275,44.395881,Zvartnots,Yerevan,Armenia
3965,40.750369,43.859342,Gyumri,Gyumri,Armenia
3967,15.291853,38.910667,Asmara Intl,Asmara,Eritrea
3968,15.669989,39.370103,Massawa Intl,Massawa,Eritrea
3971,41.610278,41.599694,Batumi,Batumi,Georgia
3972,42.176653,42.482583,Kopitnari,Kutaisi,Georgia
3973,41.669167,44.954722,Tbilisi,Tbilisi,Georgia
3974,14.662639,49.375028,Riyan,Mukalla,Yemen
3975,13.685964,44.139056,Taiz Intl,Taiz,Yemen
3976,14.753,42.976336,Hodeidah Intl,Hodeidah,Yemen
3977,12.829542,45.028792,Aden Intl,Aden,Yemen
3978,14.551322,46.826183,Ataq,Ataq,Yemen
3979,16.191667,52.175,Al Ghaidah Intl,Al Ghaidah Intl,Yemen
3980,15.476258,44.219739,Sanaa Intl,Sanaa,Yemen
3984,12.630672,53.905778,Socotra Intl,Socotra,Yemen
3986,47.988758,10.2395,Allgau,Memmingen,Germany
3987,38.771867,34.53455,Kapadokya,Nevsehir,Turkey
3988,-34.822222,-58.535833,Ministro Pistarini,Buenos Aires,Argentina
3989,36.237611,43.963158,Erbil Intl,Erbil,Iraq
3990,-23.5675,148.179167,Emerald,Emerald,Australia
3992,34.4347222,135.244167,Kansai,Osaka,Japan
3994,9.66408056,123.853247,Tagbilaran,Tagbilaran,Philippines
3995,69.23444,-51.05111,Ilulissat,Ilulissat,Greenland
3997,68.7,-52.75,Aasiaat,Aasiaat,Greenland
3998,39.55361,2.727778,Son Sant Joan,Palma de Mallorca,Spain
3999,-12.4083333,130.87266,Darwin Intl,Darwin,Australia
4000,9.1325,99.135556,Surat Thani,Surat Thani,Thailand
4001,21.173833266,94.9246666,Bagan Intl,Nyuang U,Burma
4002,11.9214999,121.953,Godofredo P,Caticlan,Philippines
4006,41.26375,-72.886806,Tweed-New Haven Airport,New Haven,United States
4007,35.436194,-82.541806,Asheville Regional Airport,Asheville,United States
4008,36.09775,-79.937306,Piedmont Triad,Greensboro,United States
4009,43.582014,-96.741914,Sioux Falls,Sioux Falls,United States
4010,-25.186111,130.975556,Ayers Rock,Uluru,Australia
4011,42.932556,-71.435667,Manchester Regional Airport,Manchester NH,United States
4012,26.152619,-81.775294,Naples Muni,Naples,United States
4013,5.76528,103.007,Redang,Redang,Malaysia
4014,38.1740858,-85.7364989,Louisville International Airport,Louisville,United States
4015,38.138639,-78.452861,Charlottesville-Albemarle,Charlottesville VA,United States
4016,37.325472,-79.975417,Roanoke Regional,Roanoke VA,United States
4017,38.0365,-84.605889,Blue Grass,Lexington KY,United States
4018,38.036997,-87.532364,Evansville Regional,Evansville,United States
4019,35.0402222,-106.6091944,Albuquerque International Sunport,Albuquerque,United States
4020,45.777643,-111.160151,Gallatin Field,Bozeman,United States
4021,45.80921,-108.537654,Billings Logan International Airport,Billings,United States
4022,45.954806,-112.497472,Bert Mooney Airport,Butte,United States
4023,44.741445,-85.582235,Cherry Capital Airport,Traverse City,United States
4024,16.913819,-89.866383,Mundo Maya International,Flores,Guatemala
4025,44.4497689,-68.3615653,Hancock County - Bar Harbor,Bar Harbor,United States
4026,44.0601111,-69.0992303,Knox County Regional Airport,Rockland,United States
4027,43.607333333,-110.73775,Jackson Hole Airport,Jacksn Hole,United States
4028,42.1953611,-89.0972222,Chicago Rockford International Airport,Rockford,United States
4029,55.408611,37.906111,Domododevo,Moscow,Russia
4030,18.302897,109.412272,Phoenix International,Sanya,China
4033,26.883333,100.23333,Lijiang Airport,Lijiang,China
4034,34.895556,-82.218889,Greenville-Spartanburg International,Greenville,United States
4037,40.477111,-88.915917,Central Illinois Rgnl,Bloomington,United States
4038,30.407278,-89.070111,Gulfport-Biloxi,Gulfport,United States
4039,42.234875,-85.552058,Kalamazoo,Kalamazoo,United States
4040,41.586806,-83.807833,Toledo,Toledo,United States
4041,40.978472,-85.195139,Fort Wayne,Fort Wayne,United States
4042,39.834564,-88.865689,Decatur,Decatur,United States
4043,41.884694,-91.710806,Cedar Rapids,Cedar Rapids,United States
4044,43.878986,-91.256711,La Crosse Municipal,La Crosse,United States
4045,44.772726,-89.646635,Central Wisconsin,Wassau,United States
4046,40.664203,-89.693258,Peoria Regional,Peoria,United States
4047,44.257526,-88.507576,Appleton,Appleton,United States
4048,43.908283,-92.500014,Rochester,Rochester,United States
4049,40.03925,-88.278056,Champaign,Champaign,United States
4050,39.140972,-96.670833,Manhattan Reigonal,Manhattan,United States
4051,-35.713889,137.521389,Kingscote Airport,Kingscote,Australia
4052,-25.318889,152.880278,Hervey Bay Airport,Hervey Bay,Australia
4053,47.59,7.529167,EuroAirport Basel-Mulhouse-Freiburg,Basel,Switzerland
4054,25.649444,100.319444,Dali,Dali,China
4056,4.048333,114.805,Mulu,Mulu,Malaysia
4057,27.977222,34.394722,Sharm El Sheikh Intl,Sharm El Sheikh,Egypt
4058,41.377874,-79.860362,Franklin,Franklin,United States
4059,-1.319167,36.9275,Jomo Kenyatta International,Nairobi,Kenya
4061,-50.280322,-72.053103,El Calafate,El Calafate,Argentina
4062,-30.528056,151.617222,Armidale,Armidale,Australia
4063,39.122413,-108.526735,Grand Junction Regional,Grand Junction,United States
4064,37.090583,-113.593056,St George Muni,Saint George,United States
4067,27.395444,-82.554389,Sarasota Bradenton Intl,Sarasota,United States
4069,32.364042,-64.678703,Bermuda Intl,Bermuda,Bermuda
4072,41.448528,-90.507539,Quad City Intl,Moline,United States
4074,-9.428,160.054789,Honiara International,Honiara,Solomon Islands
4075,-17.556667,-149.611389,Faa\\'a International,Papeete,French Polynesia
4076,-0.547458,166.9191,Nauru Intl,Nauru,Nauru
4077,-8.525,179.196389,Funafuti International,Funafuti,Tuvalu
4078,55.012622,82.650656,Tolmachevo,Novosibirsk,Russia
4081,19.449997,103.158333,Xieng Khouang,Phon Savan,Laos
4082,16.401499,107.702614,Phu Bai,Hue,Vietnam
4083,46.775842,-100.757931,Bismarck Municipal Airport,Bismarck,United States
4085,38.481944,106.009167,Yinchuan,Yinchuan,China
4086,19.301667,97.975,Mae Hong Son,Mae Hong Son,Thailand
4087,44.045278,-103.057222,Rapid City Regional Airport,Rapid City,United States
4088,33.0742,-117.1648,McClellan-Palomar Airport,Carlsbad,United States
4089,42.965424,-83.743629,Bishop International,Flint,United States
4090,7.125522,125.645778,Francisco Bangoy International,Davao,Philippines
4091,32.697889,-16.774453,Madeira,Funchal,Portugal
4092,-2.422431,-54.792789,Santarem,Santarem,Brazil
4093,10.579686,103.636828,Sihanoukville,Sihanoukville,Cambodia
4095,-39.465833,176.87,Napier,NAPIER,New Zealand
4097,29.297778,90.911944,Lhasa-Gonggar,Lhasa,China
4098,40.509,-122.293389,Redding Muni,Redding,United States
4099,44.124583,-123.211972,Mahlon Sweet Fld,Eugene,United States
4100,43.514556,-112.07075,Idaho Falls Rgnl,Idaho Falls,United States
4101,42.374228,-122.8735,Rogue Valley Intl Medford,Medford,United States
4103,44.254066,-121.149964,Roberts Fld,Redmond-Bend,United States
4105,-22.486667,17.4625,Windhoek Hosea Kutako International Airport,Windhoek,Namibia
4106,48.422778,-123.3875,Victoria Inner Harbour Airport,Victoria,Canada
4107,49.289722,-123.115833,Vancouver Coal Harbour,Vancouver,Canada
4108,36.857214,117.215992,Jinan,Jinan,China
4109,31.941667,119.711667,Changzhou,Changzhou,China
4110,28.800278,104.544444,Yibin,Yibin,China
4111,57.189567,65.3243,Roschino,Tyumen,Russia
4112,40.9160833,-81.4421944,Akron Canton Regional Airport,Akron,United States
4113,34.6371944,-86.7750556,Huntsville International Airport-Carl T Jones Field,Huntsville,United States
4114,39.3451039,-81.4392031,Mid-Ohio Valley Regional Airport,PARKERSBURG,United States
4115,32.3006389,-86.3939722,Montgomery Regional Airport,MONTGOMERY,United States
4116,36.4752222,-82.4074167,Tri-Cities Regional Airport,BRISTOL,United States
4117,37.0602875,-88.7729583,Barkley Regional Airport,PADUCAH,United States
4118,53.5,50.15,Kurumoch,Samara,Russia
4119,11.5472,43.1594,Ambouli International Airport,Djibouti,Djibouti
4120,19.934856,110.458961,Meilan,Haikou,China
4124,36.9261,-111.4483,Page Municipal Airport,Page,United States
4127,48.310472,-114.256,Glacier Park Intl,Kalispell,United States
4128,43.532913,-84.079647,Mbs Intl,Saginaw,United States
4129,42.208689,-75.979839,Greater Binghamton Edwin A Link Fld,Binghamton,United States
4130,33.262539,44.234578,Baghdad International Airport,Baghdad,Iraq
4131,18.807914,100.783419,Nan,Nan,Thailand
4132,16.116761,103.773797,Roi Et,Roi Et,Thailand
4133,15.229539,103.253231,Buri Ram,Buri Ram,Thailand
4135,12.274572,102.318958,Trat,Trat,Thailand
4140,15.185833,120.560278,Diosdado Macapagal International,Angeles City,Philippines
4141,5.900897,118.059486,Sandakan,Sandakan,Malaysia
4142,20.960556,101.4025,Luang Namtha,Luang Namtha,Laos
4143,20.6827,101.994,Oudomxay,Muang Xay,Laos
4144,41.3824,123.2901,Shenyang Taoxian International Airport,Shenyang,China
4145,37.2716,118.2819,Dongying Airport,Dongying,China
4147,56.801667,-132.945278,Petersburg James A. Johnson,Petersburg,United States
4148,34.41,112.28,Luoyang Airport,Luoyang,China
4149,34.16,117.11,Xuzhou Guanyin Airport,Xuzhou,China
4153,11.75,108.367,Dalat,Dalat,Vietnam
4154,17.515,106.590556,Dong Hoi,Dong Hoi,Vietnam
4155,9.949676,105.133659,Rach Gia,Rach Gia,Vietnam
4156,9.188049,105.174721,Ca Mau,Ca Mau,Vietnam
4157,15.405944,108.705889,Chu Lai,Chu Lai,Vietnam
4158,13.04955,109.333706,Dong Tac,Tuy Hoa,Vietnam
4159,19.372,98.437,Pai,Pai,Thailand
4160,43.285719,16.679719,Brac,Brac,Croatia
4161,3.722556,11.553269,Yaounde Nsimalen,Yaounde,Cameroon
4162,9.576889,-13.611961,Conakry,Conakry,Guinea
4166,48.7793,8.08048,Baden Airpark,Karlsruhe/Baden-Baden,Germany
4167,28.777639,-81.237489,Orlando Sanford Intl,Sanford,United States
4169,40.316111,-78.833889,John Murtha Johnstown-Cambria County Airport,Johnstown,United States
4183,27.315,87.193333,Tumling Tar,Tumling Tar,Nepal
4188,28.753333,80.581944,Dhangarhi,Dhangarhi,Nepal
4189,34.991389,126.382778,Muan,Muan,South Korea
4190,36.579886,26.375822,Astypalaia,Astypalaia,Greece
4191,37.682717,26.347061,Ikaria,Ikaria,Greece
4192,36.963333,26.940556,Kalymnos Island,Kalymnos,Greece
4193,36.696111,24.4775,Milos,Milos,Greece
4194,37.080556,25.368056,Naxos,Cyclades Islands,Greece
4195,37.010278,25.127778,Paros,Paros,Greece
4196,36.127777,29.566656,Kastelorizo,Kastelorizo,Greece
4197,25.557111,34.583711,Marsa Alam Intl,Marsa Alam,Egypt
4198,51.602222,6.141944,Niederrhein,Weeze,Germany
4199,12.121458,120.100031,Busuanga,Busuanga,Philippines
4200,8.951322,125.477972,Butuan,Butuan,Philippines
4201,8.601261,123.334481,Dipolog,Dipolog,Philippines
4202,18.178092,120.531522,Laoag Intl,Laoag,Philippines
4203,13.157064,123.746247,Legazpi,Legazpi,Philippines
4204,8.178508,123.841731,Ozamis,Ozamis,Philippines
4209,-16.438611,-39.080833,Aeroporto de Porto Seguro,Porto Seguro,Brazil
4214,-10.241667,-48.35278,Palmas,Palmas,Brazil
4215,-17.7267,-48.6114,Caldas Novas,Caldas Novas,Brazil
4216,46.916306,-114.090556,Missoula Intl,Missoula,United States
4217,-24.427778,145.428611,Blackall,Blackall,Australia
4218,-24.903889,152.318611,Bundaberg,Bundaberg,Australia
4219,35.9523611,-112.1469722,Grand Canyon National Park Airport,Grand Canyon,United States
4235,0.4880555,72.995556,Kaadedhdhoo,Kaadedhdhoo,Maldives
4237,65.1833333,-125.41666667,Deline,Deline,Canada
4238,64.0833333,-125.5833333,Tulita,Tulita,Canada
4239,66.26666667,-128.65,Fort Good Hope,Fort Good Hope,Canada
4242,-19.455198,169.22394,Tanna island,Tanna,Vanuatu
4244,62.35,-124.3333,Paulatuk,Paulatuk,Canada
4247,-17.8,-63.166667,Santa Cruz,Santa Cruz,Bolivia
4248,65.566667,-37.1166667,Kulusuk,Kulusuk,Greenland
4249,17.645278,-63.220556,Juancho E. Yrausquin,Saba,Netherlands Antilles
4250,39.642556,-106.917694,Eagle Co Rgnl,Vail,United States
4252,68.580833,15.026111,Skagen,Stokmarknes,Norway
4255,32.5163333,-84.9388611,Columbus Metropolitan Airport,Columbus,United States
4256,34.5677144,-98.4166367,Lawton-Fort Sill Regional Airport,Lawton,United States
4261,35.140318,-111.6692392,Flagstaff Pulliam Airport,Flagstaff,United States
4263,42.481803,-114.487733,Magic Valley Regional Airport,Twin Falls,United States
4264,43.73333333,7.41666666,Monaco,Monaco,Monaco
4265,41.391667,-70.615278,Martha\\'s Vineyard,Vineyard Haven MA,United States
4271,45.546556,-94.059889,Saint Cloud Regional Airport,Saint Cloud,United States
4273,33.450333,-88.591361,Golden Triangle Regional Airport,Columbus Mississippi,United States
4274,56.230119,43.784042,Nizhny Novgorod,Nizhniy Novgorod,Russia
4276,42.082022,-80.176217,Erie Intl Tom Ridge Fld,Erie,United States
4278,41.669336,-70.280356,Barnstable Muni Boardman Polando Fld,Barnstable,United States
4279,17.913936,-87.971075,San Pedro,San Pedro,Belize
4284,39.642908,-79.916314,Morgantown Muni Walter L Bill Hart Fld,Morgantown,United States
4285,38.373147,-81.593189,Yeager,Charleston,United States
4286,41.338478,-75.723403,Wilkes Barre Scranton Intl,Scranton,United States
4287,47.510722,-94.934722,Bemidji Regional Airport,Bemidji,United States
4291,-28.833889,153.5625,Ballina Byron Gateway,Ballina Byron Bay,Australia
4292,46.92065,-96.8157639,Hector International Airport,Fargo,United States
4296,44.3489167,-105.5393611,Gillette-Campbell County Airport,Gillette,United States
4297,56.380278,85.208333,Tomsk Bogashevo Airport,Tomsk,Russia
4300,10.7112,99.361706,Chumphon,Chumphon,Thailand
4301,32.857,103.683,Jiuzhaigou Huanglong,Jiuzhaigou,China
4302,23.4,116.683,Wai Sha Airport,Shantou,China
4304,6.498553,-58.254119,Cheddi Jagan Intl,Georgetown,Guyana
4305,-25.4555,-54.843592,Ciudad del Este,Ciudad del Este,Paraguay
4306,6.806944,-58.104444,Ogle,Georgetown,Guyana
4308,40.094,94.4818,Dunhuang Airport,Dunhuang,China
4309,43.616389,13.362222,Falconara,Ancona,Italy
4312,-27.0,-70.0,Copiapo,Copiapo,Chile
4314,19.6591666667,-80.09083333,Edward Bodden Airfield,Little Cayman,Cayman Islands
4315,37.249,27.667,Bodrum - Milas,Bodrum,Turkey
4317,40.898553,29.309219,Sabiha Gokcen,Istanbul,Turkey
4318,40.849278,-77.848694,University Park Airport,State College Pennsylvania,United States
4319,-17.8,122.2,Broome,Broome,Australia
4320,-32.78,151.83,Newcastle Airport,Newcastle,Australia
4325,70.679722,23.668889,Hammerfest Airport,Hammerfest,Norway
4326,70.99,25.83,Valan,Honningsvag,Norway
4327,71.029722,27.826667,Mehamn,Mehamn,Norway
4328,70.065,29.844,Airport,Vadso,Norway
4331,36.234,59.643,Mashhad,Mashhad,Iran
4334,44.523889,129.568889,Mudanjiang,Mudanjiang,China
4335,32.332624,-88.751868,Key Field,Meridian,United States
4338,37.303,-108.628056,Cortez Muni,Cortez,United States
4339,40.481181,-107.21766,Yampa Valley,Hayden,United States
4341,37.044222,-100.95986,Liberal Muni,Liberal,United States
4344,44.520194,-109.023806,Yellowstone Rgnl,Cody,United States
4345,62.18,6.0742,Hovden,Orsta-Volda,Norway
4347,49.919,-6.3075,ISLES OF SCILLY,ST MARY\\'S,United Kingdom
4348,37.245667,-93.388639,Springfield Branson Natl,Springfield,United States
4349,68.435833,17.388056,Framnes,Narvik,Norway
4350,70.866667,29.0,Berlevag,Berlevag,Norway
4352,69.311053,87.332183,Alykel,Norilsk,Russia
4353,45.002097,37.347272,Vityazevo,Anapa,Russia
4354,37.151814,-94.498269,Joplin Rgnl,Joplin,United States
4355,40.652083,-75.440806,Lehigh Valley Intl,Allentown,United States
4356,36.2818694,-94.3068111,NW Arkansas Regional,Bentonville,United States
4357,47.121944,51.821389,Atyrau,Atyrau,Kazakhstan
4358,44.709,65.591,Kzyl-Orda,Kzyl-Orda,Kazakhstan
4359,41.708661,-86.31725,South Bend Rgnl,South Bend,United States
4362,64.360281,40.430167,Talagi,Arkhangelsk,Russia
4363,51.334366,46.022952,Central,Saratov,Russia
4364,66.041811,76.313938,Novyi Urengoy,Novy Urengoy,Russia
4365,63.110079,75.162243,Noyabrsk,Noyabrsk,Russia
4368,63.340297,53.482592,Ukhta,Ukhta,Russia
4369,66.00077,57.221113,Usinsk,Usinsk,Russia
4371,67.380537,53.051016,Naryan-Mar,Naryan-Mar,Russia
4373,62.18,74.53,Kogalym International,Kogalym,Russia
4374,56.18,92.475,Emelyanovo,Krasnoyarsk,Russia
4375,49.670833,73.334444,Sary-Arka,Karaganda,Kazakhstan
4377,60.1,64.83,Uraj,Uraj,Russia
4380,43.5412,125.1201,Changchun,Changchun,China
4381,37.5711,139.0646,Niigata,Niigata,Japan
4384,40.978111,-124.108611,Arcata,Arcata CA,United States
4385,30.31666,-97.7666,Camp Mabry Austin City,Austin TX,United States
4386,34.829164,-77.612139,Albert J Ellis,Jacksonville NC,United States
4388,42.402,-90.709472,Dubuque Rgnl,Dubuque IA,United States
4389,61.392,5.763,Forde Bringeland,Forde,Norway
5404,-8.87333,161.011,Uru Harbour Airport,Atoifi,Solomon Islands
5407,-8.1075,159.577,Fera/Maringe Airport,Fera Island,Solomon Islands
5409,-10.4497,161.898,Ngorangora Airport,Kirakira,Solomon Islands
5410,-10.7203,165.795,Santa Cruz/Graciosa Bay/Luova Airport,Santa Cruz/Graciosa Bay/Luova,Solomon Islands
5411,-8.32797,157.263,Munda Airport,Munda,Solomon Islands
5412,-8.09778,156.864,Nusatupe Airport,Gizo,Solomon Islands
5414,-11.5339,160.063,Rennell/Tingoa Airport,Rennell Island,Solomon Islands
5415,-9.86167,160.825,Marau Airport,Marau,Solomon Islands
5416,-7.58556,158.731,Suavanao Airport,Suavanao,Solomon Islands
5417,-7.333,157.583,Kagau Island Airport,Kagau Island,Solomon Islands
5418,-8.16806,157.643,Ramata Airport,Ramata,Solomon Islands
5419,-5.42232,154.673,Buka Airport,Buka Island,Papua New Guinea
5420,-6.02429,144.971,Chimbu Airport,Kundiawa,Papua New Guinea
5421,-9.08676,143.208,Daru Airport,Daru,Papua New Guinea
5422,-10.3115,150.334,Gurney Airport,Gurney,Papua New Guinea
5423,-8.80454,148.309,Girua Airport,Girua,Papua New Guinea
5424,-5.46217,150.405,Kimbe Airport,Hoskins,Papua New Guinea
5425,-6.12571,141.282,Kiunga Airport,Kiunga,Papua New Guinea
5428,-2.5794,150.808,Kavieng Airport,Kavieng,Papua New Guinea
5429,-6.14774,143.657,Mendi Airport,Mendi,Papua New Guinea
5430,-2.06189,147.424,Momote Airport,Momote,Papua New Guinea
5431,-6.36333,143.238,Moro Airport,Moro,Papua New Guinea
5432,-10.6892,152.838,Misima Island Airport,Misima Island,Papua New Guinea
5433,-5.845,142.948,Tari Airport,Tari,Papua New Guinea
5434,-5.27861,141.226,Tabubil Airport,Tabubil,Papua New Guinea
5435,-4.34046,152.38,Tokua Airport,Tokua,Papua New Guinea
5436,-2.69717,141.302,Vanimo Airport,Vanimo,Papua New Guinea
5437,-5.6433,143.895,Wapenamanda Airport,Wapenamanda,Papua New Guinea
5438,60.4644,-45.5778,Alluitsup Paa Heliport,Alluitsup Paa,Greenland
5439,70.7433,-22.6606,Neerlerit Inaat Airport,Neerlerit Inaat,Greenland
5440,61.9922,-49.6625,Paamiut Heliport,Paamiut,Greenland
5442,60.7158,-46.0294,Qaqortoq Heliport,Qaqortoq,Greenland
5443,65.4125,-52.9394,Maniitsoq Airport,Maniitsoq,Greenland
5444,60.14,-45.2317,Nanortalik Heliport,Nanortalik,Greenland
5445,60.9167,-46.0586,Narsaq Heliport,Narsaq,Greenland
5446,77.4886,-69.3887,Qaanaaq Airport,Qaanaaq,Greenland
5447,66.9513,-53.7293,Sisimiut Airport,Sisimiut,Greenland
5448,72.7902,-56.1306,Upernavik Airport,Upernavik,Greenland
5449,70.7342,-52.6962,Qaarsut Airport,Uummannaq,Greenland
5454,17.7347,-88.0325,Caye Caulker Airport,Caye Caulker,Belize
5455,16.1024,-88.8083,Punta Gorda Airport,Punta Gorda,Belize
5457,52.4525,-125.303,Anahim Lake Airport,Anahim Lake,Canada
5461,54.1797,-58.4575,Rigolet Airport,Rigolet,Canada
5463,63.1317,-117.246,What Airport,What,Canada
5464,52.7086,-88.5419,Summer Beaver Airport,Summer Beaver,Canada
5465,53.8492,-89.5794,Wapekeka Airport,Angling Lake,Canada
5466,52.8939,-89.2892,Wunnumin Lake Airport,Wunnumin Lake,Canada
5467,52.49,-92.9711,North Spirit Lake Airport,North Spirit Lake,Canada
5468,53.9656,-91.0272,Bearskin Lake Airport,Bearskin Lake,Canada
5469,53.0125,-89.8553,Kingfisher Lake Airport,Kingfisher Lake,Canada
5470,51.6586,-85.9017,Ogoki Post Airport,Ogoki Post,Canada
5471,52.1133,-94.2556,Poplar Hill Airport,Poplar Hill,Canada
5472,53.8056,-78.9169,Chisasibi Airport,Chisasibi,Canada
5473,50.6744,-59.3836,Tte--la-Baleine Airport,Tte--la-Baleine,Canada
5474,50.8308,-58.9756,La Tabatire Airport,La Tabatire,Canada
5475,32.0708,120.976,Nantong Airport,Nantong,China
5476,7.033,-77.2,Apartad Airport,Apartad,Colombia
5477,-2.867,-69.733,Tarapac Airport,Tarapac,Colombia
5478,51.7272,-91.8244,Cat Lake Airport,Cat Lake,Canada
5479,48.6542,-93.4397,Fort Frances Municipal Airport,Fort Frances,Canada
5480,53.5247,-88.6428,Kasabonika Airport,Kasabonika,Canada
5481,60.0272,-69.9992,Kangirsuk Airport,Kangirsuk,Canada
5482,52.9275,-82.4319,Attawapiskat Airport,Attawapiskat,Canada
5485,51.4436,-57.1853,Lourdes De Blanc Sablon Airport,Lourdes-De-Blanc-Sablon,Canada
5487,63.3469,-90.7311,Chesterfield Inlet Airport,Chesterfield Inlet,Canada
5488,56.5492,-61.6803,Nain Airport,Nain,Canada
5489,56.0189,-87.6761,Fort Severn Airport,Fort Severn,Canada
5490,52.2014,-81.6969,Fort Albany Airport,Fort Albany,Canada
5491,51.5619,-87.9078,Fort Hope Airport,Fort Hope,Canada
5492,55.0769,-59.1864,Makkovik Airport,Makkovik,Canada
5495,69.3647,-81.8161,Igloolik Airport,Igloolik,Canada
5496,55.2819,-77.7653,Kuujjuarapik Airport,Kuujjuarapik,Canada
5497,56.3575,-94.7106,Gillam Airport,Gillam,Canada
5498,76.4261,-82.9092,Grise Fiord Airport,Grise Fiord,Canada
5499,61.0464,-69.6178,Quaqtaq Airport,Quaqtaq,Canada
5501,51.6911,-76.1356,Nemiscau Airport,Nemiscau,Canada
5502,55.4483,-60.2286,Hopedale Airport,Hopedale,Canada
5503,50.4689,-59.6367,Chevery Airport,Chevery,Canada
5504,62.4173,-77.9253,Ivujivik Airport,Ivujivik,Canada
5506,60.8186,-78.1486,Akulivik Airport,Akulivik,Canada
5507,51.4733,-78.7583,Waskaganish Airport,Waskaganish,Canada
5508,59.2967,-69.5997,Aupaluk Airport,Aupaluk,Canada
5509,62.85,-69.8833,Kimmirut Airport,Kimmirut,Canada
5510,52.1956,-87.9342,Lansdowne House Airport,Lansdowne House,Canada
5511,62.4183,-110.682,Lutselk'e Airport,Lutselk'e,Canada
5512,58.7114,-65.9928,Kangiqsualujjuaq (Georges River) Airport,Kangiqsualujjuaq,Canada
5514,49.7719,-74.5281,Chapais Airport,Chibougamau,Canada
5515,56.5361,-76.5183,Umiujaq Airport,Umiujaq,Canada
5516,53.0106,-78.8311,Wemindji Airport,Wemindji,Canada
5520,58.4719,-78.0769,Inukjuak Airport,Inukjuak,Canada
5521,51.8197,-93.9733,Pikangikum Airport,Pikangikum,Canada
5522,54.9881,-85.4433,Peawanuck Airport,Peawanuck,Canada
5523,49.8342,-124.5,Powell River Airport,Powell River,Canada
5524,53.9714,-101.091,The Pas Airport,The Pas,Canada
5526,64.1161,-117.31,Rae Lakes Airport,Gamt,Canada
5527,51.0669,-93.7931,Red Lake Airport,Red Lake,Canada
5529,56.5378,-79.2467,Sanikiluaq Airport,Sanikiluaq,Canada
5531,53.8178,-89.8969,Big Trout Lake Airport,Big Trout Lake,Canada
5532,52.6558,-94.0614,Deer Lake Airport,Deer Lake,Canada
5533,52.9597,-87.3689,Webequie Airport,Webequie,Canada
5534,62.24,-92.5981,Whale Cove Airport,Whale Cove,Canada
5535,62.1794,-75.6672,Salluit Airport,Salluit,Canada
5538,47.6297,-65.7389,Bathurst Airport,Bathurst,Canada
5539,52.2264,-78.5225,Eastmain River Airport,Eastmain River,Canada
5543,52.2825,-81.6778,Kashechewan Airport,Kashechewan,Canada
5544,53.4414,-91.7628,Muskrat Dam Airport,Muskrat Dam,Canada
5545,54.0275,-132.125,Masset Airport,Masset,Canada
5546,53.8911,-92.1964,Sachigo Lake Airport,Sachigo Lake,Canada
5547,52.9436,-91.3128,Round Lake (Weagamow Lake) Airport,Round Lake,Canada
5548,53.0642,-93.3444,Sandy Lake Airport,Sandy Lake,Canada
5550,53.5619,-64.1064,Churchill Falls Airport,Churchill Falls,Canada
5552,35.752106,6.308589,Batna Airport,Batna,Algeria
5553,31.6457,-2.26986,Bchar Boudghene Ben Ali Lotfi Airport,Bchar,Algeria
5554,21.375,0.923889,Bordj Badji Mokhtar Airport,Bordj Badji Mokhtar,Algeria
5555,33.5114,6.77679,Guemar Airport,Guemar,Algeria
5556,6.71456,-1.59082,Kumasi Airport,Kumasi,Ghana
5557,53.878706,14.152347,Heringsdorf Airport,Heringsdorf,Germany
5562,53.474722,-1.004444,Robin Hood Doncaster Sheffield Airport,"Doncaster, Sheffield",United Kingdom
5563,55.4372,-5.68639,Campbeltown Airport,Campbeltown,United Kingdom
5564,59.1906,-2.77222,Eday Airport,Eday,United Kingdom
5566,59.3675,-2.43444,North Ronaldsay Airport,North Ronaldsay,United Kingdom
5567,59.3517,-2.90028,Papa Westray Airport,Papa Westray,United Kingdom
5568,59.1553,-2.64139,Stronsay Airport,Stronsay,United Kingdom
5569,59.2503,-2.57667,Sanday Airport,Sanday,United Kingdom
5571,59.3503,-2.95,Westray Airport,Westray,United Kingdom
5572,50.1028,-5.67056,Land's End / St. Just Airport,Land's End,United Kingdom
5575,57.0228,-7.44306,Barra Airport,Barra,United Kingdom
5577,55.044192,-8.341,Donegal Airport,Dongloe,Ireland
5580,68.1525,13.6094,Leknes Airport,Leknes,Norway
5581,64.4722,11.5786,Namsos Hknesra Airport,Namsos,Norway
5582,66.3639,14.3014,Rssvoll Airport,Mo i Rana,Norway
5583,64.8383,11.1461,Ryum Airport,Rrvik,Norway
5584,67.5278,12.1033,Rst Airport,Rst,Norway
5585,61.83,6.10583,Anda Airport,Sandane,Norway
5586,61.1561,7.13778,Sogndal Airport,Sogndal,Norway
5587,68.2433,14.6692,Svolvr Helle Airport,Svolvr,Norway
5588,69.7868,20.9594,Sorkjosen Airport,Sorkjosen,Norway
5589,70.355392,31.044889,Svartnes Airport,Vard,Norway
5591,53.0968,17.9777,Bydgoszcz Ignacy Jan Paderewski Airport,Bydgoszcz,Poland
5593,63.1944,14.5003,stersund Airport,stersund,Sweden
5594,60.020064,13.578908,Hagfors Airport,Hagfors,Sweden
5595,59.4447,13.3374,Karlstad Airport,Karlstad,Sweden
5596,60.157622,12.991269,Torsby Airport,Torsby,Sweden
5597,56.2961,12.8471,ngelholm-Helsingborg Airport,ngelholm,Sweden
5599,65.806111,15.082778,Hemavan Airport,Hemavan,Sweden
5601,14.0781,38.2725,Shire Inda Selassie Airport,Shire Indasilase,Ethiopia
5604,-25.3832,31.1056,Kruger Mpumalanga International Airport,Mpumalanga,South Africa
5612,-13.5583,32.5872,Chipata Airport,Chipata,Zambia
5613,-12.1737,26.3651,Solwesi Airport,Solwesi,Zambia
5630,-12.4792,13.4869,Catumbela Airport,Catumbela,Angola
5632,-17.043464,15.683822,Ondjiva Pereira Airport,Ondjiva,Angola
5633,-15.261222,12.146756,Namibe Airport,Mocamedes,Angola
5637,-19.151267,33.428958,Chimoio Airport,Chimoio,Mozambique
5641,-26.6874,15.2429,Luderitz Airport,Luderitz,Namibia
5642,-17.8782,15.9526,Ondangwa Airport,Ondangwa,Namibia
5643,-28.5847,16.4467,Oranjemund Airport,Oranjemund,Namibia
5645,-22.6122,17.0804,Eros Airport,Windhoek,Namibia
5652,-6.43833,20.7947,Tshikapa Airport,Tshikapa,Congo (Kinshasa)
5653,-3.417,23.45,Lodja Airport,Lodja,Congo (Kinshasa)
5659,28.0296,-17.2146,La Gomera Airport,La Gomera,Spain
5665,11.89485,-15.653681,Osvaldo Vieira International Airport,Bissau,Guinea-Bissau
5670,23.7183,-15.932,Dakhla Airport,Dakhla,Western Sahara
5671,31.3975,-9.681667,Mogador Airport,Essadouira,Morocco
5672,27.1517,-13.2192,Hassan I Airport,El Aain,Western Sahara
5673,34.9888,-3.02821,El Aroui Airport,El Aroui,Morocco
5674,14.9245,-23.4935,Praia International Airport,"Praia, Santiago Island",Cape Verde
5675,14.885,-24.48,Sao Filipe Airport,"Sao Filipe, Fogo Island",Cape Verde
5680,5.935128,43.578567,Gode Airport,Gode,Ethiopia
5686,11.2753,49.1494,Bosaso Airport,Bosaso,Somalia
5687,2.01444,45.3047,Aden Adde International Airport,Mogadishu,Somalia
5688,6.78083,47.4547,Galcaio Airport,Galcaio,Somalia
5691,27.046508,31.011983,Asyut International Airport,Asyut,Egypt
5692,-2.64505,37.2531,Amboseli Airport,Amboseli National Park,Kenya
5693,4.204117,34.348186,Lokichoggio Airport,Lokichoggio,Kenya
5694,-3.22931,40.1017,Malindi Airport,Malindi,Kenya
5695,-0.067,37.033,Nanyuki Civil Airport,Nanyuki,Kenya
5696,31.0635,16.595,Gardabya Airport,Sirt,Libya
5697,31.861,23.907,Gamal Abdel Nasser Airport,Tobruk,Libya
5699,32.788673,21.964333,La Abraq Airport,Al Bayda',Libya
5701,12.0535,24.9562,Nyala Airport,Nyala,Sudan
5702,19.4336,37.2341,Port Sudan New International Airport,Port Sudan,Sudan
5703,-1.3,31.8,Bukoba Airport,Bukoba,Tanzania
5709,3.05,30.917,Arua Airport,Arua,Uganda
5711,20.7131,70.9211,Diu Airport,Diu,India
5712,26.9487,56.2688,Gheshm Airport,Gheshm,Iran
5714,45.4491,-98.4218,Aberdeen Regional Airport,Aberdeen,United States
5715,31.5355,-84.1945,Southwest Georgia Regional Airport,Albany,United States
5716,33.9486,-83.3263,Athens Ben Epps Airport,Athens,United States
5718,42.5571,-92.4003,Waterloo Regional Airport,Waterloo,United States
5719,46.0949,-118.288,Walla Walla Regional Airport,Walla Walla,United States
5720,45.0781,-83.5603,Alpena County Regional Airport,Alpena,United States
5721,44.914,-97.1547,Watertown Regional Airport,Watertown,United States
5722,41.8031,-78.6401,Bradford Regional Airport,Bradford,United States
5723,41.874,-103.596,Western Nebraska Regional Airport,Scottsbluff,United States
5724,37.7873,-81.1242,Raleigh County Memorial Airport,Beckley,United States
5725,31.2588,-81.4665,Brunswick Golden Isles Airport,Brunswick,United States
5726,40.7832,-91.1255,Southeast Iowa Regional Airport,Burlington,United States
5727,41.7802,-124.237,Del Norte County Airport,Crescent City,United States
5728,37.2253,-89.5708,Cape Girardeau Regional Airport,Cape Girardeau,United States
5729,46.2508,-84.4724,Chippewa County International Airport,Sault Ste Marie,United States
5730,39.2966,-80.2281,Harrison Marion Regional Airport,Clarksburg,United States
5731,48.1202,-123.5,William R Fairchild International Airport,Port Angeles,United States
5732,47.1684,-88.4891,Houghton County Memorial Airport,Hancock,United States
5733,37.7634,-99.9656,Dodge City Regional Airport,Dodge City,United States
5734,41.1783,-78.8987,DuBois Regional Airport,Du Bois,United States
5735,44.8658,-91.4843,Chippewa Valley Regional Airport,Eau Claire,United States
5736,40.8249,-115.792,Elko Regional Airport,Elko,United States
5737,41.6761,-70.9569,New Bedford Regional Airport,New Bedford,United States
5738,34.9912,-78.8803,Fayetteville Regional Grannis Field,Fayetteville,United States
5739,48.2125,-106.615,Wokal Field Glasgow International Airport,Glasgow,United States
5740,40.9675,-98.3096,Central Nebraska Regional Airport,Grand Island,United States
5741,34.478,-93.0962,Memorial Field,Hot Springs,United States
5742,38.3667,-82.558,Tri State Milton J Ferguson Field,Huntington,United States
5744,40.0935,-92.5449,Kirksville Regional Airport,Kirksville,United States
5746,41.3121,-105.675,Laramie Regional Airport,Laramie,United States
5747,40.2759,-79.4048,Arnold Palmer Regional Airport,Latrobe,United States
5748,41.1262,-100.684,North Platte Regional Airport Lee Bird Field,North Platte,United States
5749,43.6261,-72.3042,Lebanon Municipal Airport,Lebanon,United States
5750,42.1561,-121.733,Klamath Falls Airport,Klamath Falls,United States
5751,40.1217,-76.2961,Lancaster Airport,Lancaster,United States
5753,37.3267,-79.2004,Lynchburg Regional Preston Glenn Field,Lynchburg,United States
5754,43.1695,-86.2382,Muskegon County Airport,Muskegon,United States
5756,34.7453,-87.6102,Northwest Alabama Regional Airport,Muscle Shoals,United States
5757,43.4171,-124.246,Southwest Oregon Regional Airport,North Bend,United States
5758,37.7401,-87.1668,Owensboro Daviess County Airport,Owensboro,United States
5759,31.4671,-89.3371,Hattiesburg Laurel Regional Airport,Hattiesburg/Laurel,United States
5760,42.9098,-112.596,Pocatello Regional Airport,Pocatello,United States
5761,44.3827,-100.286,Pierre Regional Airport,Pierre,United States
5762,45.5709,-84.7967,Pellston Regional Airport of Emmet County Airport,Pellston,United States
5763,43.0779,-70.8233,Pease International Tradeport,Portsmouth,United States
5765,45.6312,-89.4675,Rhinelander Oneida County Airport,Rhinelander,United States
5766,41.5942,-109.065,Rock Springs Sweetwater County Airport,Rock Springs,United States
5767,43.5294,-72.9496,Rutland State Airport,Rutland,United States
5768,35.2368,-120.642,San Luis County Regional Airport,San Luis Obispo,United States
5769,44.7692,-106.98,Sheridan County Airport,Sheridan,United States
5770,44.3853,-74.2062,Adirondack Regional Airport,Saranac Lake,United States
5771,38.791,-97.6522,Salina Municipal Airport,Salina,United States
5772,34.8989,-120.457,Santa Maria Pub Cpt G Allan Hancock Airport,Santa Maria,United States
5773,34.2681,-88.7699,Tupelo Regional Airport,Tupelo,United States
5774,39.9427,-91.1946,Quincy Regional Baldwin Field,Quincy,United States
5775,28.8526,-96.9185,Victoria Regional Airport,Victoria,United States
5776,30.7825,-83.2767,Valdosta Regional Airport,Valdosta,United States
5777,43.9657,-107.951,Worland Municipal Airport,Worland,United States
5779,46.5682,-120.544,Yakima Air Terminal McAllister Field,Yakima,United States
5780,35.1547,33.4961,Ercan International Airport,Nicosia,Cyprus
5781,42.4542,-2.32083,Logroo-Agoncillo Airport,Logroo-Agoncillo,Spain
5787,37.422792,24.950936,Syros Airport,Syros Island,Greece
5793,39.6715,-31.1136,Corvo Airport,Corvo,Portugal
5794,44.941444,17.297501,Banja Luka International Airport,Banja Luka,Bosnia and Herzegovina
5796,40.562222,43.115002,Kars Airport,Kars,Turkey
5798,37.539,36.9534,Kahramanmaras Airport,Kahramanmaras,Turkey
5799,39.6546,43.0271,Agri Airport,Agri,Turkey
5800,37.7314,38.4689,Adiyaman Airport,Adiyaman,Turkey
5801,37.8554,30.3684,Isparta Sleyman Demirel Airport,Isparta,Turkey
5802,39.5546,27.0138,Balikesir Korfez Airport,Balikesir Korfez,Turkey
5804,32.325,15.061,Misratah Airport,Misratah,Libya
5805,26.5675,12.8231,Ubari Airport,Ubari,Libya
5807,21.4445,-71.1423,JAGS McCartney International Airport,Cockburn Town,Turks and Caicos Islands
5809,21.333,-71.2,Salt Cay Airport,Salt Cay,Turks and Caicos Islands
5810,19.267,-69.742,Saman El Catey International Airport,Samana,Dominican Republic
5811,18.5725,-69.9856,Dr Joaquin Balaguer International Airport,La Isabela,Dominican Republic
5832,15.2622,-83.7812,Puerto Lempira Airport,Puerto Lempira,Honduras
5837,19.475083,-96.797506,Lencero Airport,Jalapa,Mexico
5840,7.51778,-78.1572,Jaqu Airport,Jaqu,Panama
5842,10.569,-83.5148,Aerotortuguero Airport,Roxana,Costa Rica
5844,10.3557,-85.852892,Cabo Velas Airport,Nicoya,Costa Rica
5847,8.53333,-83.3,Puerto Jimenez Airport,Puerto Jimenez,Costa Rica
5848,9.957053,-84.139797,Tobias Bolanos International Airport,San Jose,Costa Rica
5852,22.5132,-78.511,Cayo Coco Airport,Cayo Coco,Cuba
5855,3.18495,115.454,Long Banga Airport,Long Banga,Malaysia
5857,24.629417,-75.673775,Arthurs Town Airport,Arthur's Town,Bahamas
5859,22.745561,-74.182353,Colonel Hill Airport,Colonel Hill,Bahamas
5861,-19.9678,-158.119,Atiu Island Airport,Atiu Island,Cook Islands
5862,-21.8956,-157.905,Mangaia Island Airport,Mangaia Island,Cook Islands
5864,-20.1361,-157.345,Mauke Airport,Mauke Island,Cook Islands
5865,-19.8425,-157.703,Mitiaro Island Airport,Mitiaro Island,Cook Islands
5867,-17.7433,-179.342,Cicia Airport,Cicia,Fiji
5869,-19.0581,178.157,Vunisea Airport,Vunisea,Fiji
5873,-18.1992,-178.817,Lakeba Island Airport,Lakeba Island,Fiji
5874,-16.466749,179.33986,Labasa Airport,Lambasa,Fiji
5875,-16.6906,-179.877,Matei Airport,Matei,Fiji
5877,-12.4825,177.071,Rotuma Airport,Rotuma,Fiji
5878,-16.8028,179.341,Savusavu Airport,Savusavu,Fiji
5883,-17.269,-178.976,Vanua Balavu Airport,Vanua Balavu,Fiji
5884,-19.080028,-169.925639,Niue International Airport,Alofi,Niue
5885,-14.3114,-178.066,Pointe Vele Airport,Futuna Island,Wallis and Futuna
5889,-14.4281,-146.257,Ahe Airport,Ahe,French Polynesia
5890,-9.768794,-139.011256,Hiva Oa-Atuona Airport,Hiva-oa,French Polynesia
5891,-9.35167,-140.078,Ua Pou Airport,Ua Pou,French Polynesia
5892,-8.93611,-139.552,Ua Huka Airport,Ua Huka,French Polynesia
5893,-13.666,167.712,Mota Lava Airport,Ablow,Vanuatu
5894,-13.8517,167.537,Sola Airport,Sola,Vanuatu
5895,-13.328,166.638,Torres Airstrip,Loh/Linua,Vanuatu
5896,-17.0903,168.343,Sangafa Airport,Sangafa,Vanuatu
5897,-16.265,167.924,Craig Cove Airport,Craig Cove,Vanuatu
5898,-15.3067,167.967,Longana Airport,Longana,Vanuatu
5899,-15.4708,168.152,Sara Airport,Pentecost Island,Vanuatu
5900,-16.439,168.257,Tavie Airport,Paama Island,Vanuatu
5901,-16.454,167.823,Lamap Airport,Lamap,Vanuatu
5902,-16.5842,168.159,Lamen Bay Airport,Lamen Bay,Vanuatu
5903,-15.0,168.083,Naone Airport,Maewo Island,Vanuatu
5904,-15.8656,168.172,Lonorore Airport,Lonorore,Vanuatu
5905,-16.0797,167.401,Norsup Airport,Norsup,Vanuatu
5906,-14.2181,167.587,Gaua Island Airport,Gaua Island,Vanuatu
5908,-15.505033,167.219742,Santo Pekoa International Airport,Santo,Vanuatu
5909,-16.8911,168.551,Tongoa Island Airport,Tongoa Island,Vanuatu
5910,-16.333,168.283,Uli Airport,Ambryn Island,Vanuatu
5911,-16.7961,168.177,Valesdir Airport,Valesdir,Vanuatu
5912,-16.495,167.438,Southwest Bay Airport,Malekula Island,Vanuatu
5914,-20.2492,169.771,Anelghowhat Airport,Anelghowhat,Vanuatu
5915,-19.24,169.605,Aniwa Airport,Aniwa,Vanuatu
5916,-18.7694,169.001,Dillon's Bay Airport,Dillon's Bay,Vanuatu
5917,-19.5164,170.232,Futuna Airport,Futuna Island,Vanuatu
5918,-18.8783,169.308,Ipota Airport,Ipota,Vanuatu
5919,-21.0961,167.804,Tiga Airport,Tiga,New Caledonia
5920,-19.7206,163.661,Belep Islands Airport,Waala,New Caledonia
5921,-22.5889,167.456,le des Pins Airport,le des Pins,New Caledonia
5924,24.5,44.4,Dawadmi Domestic Airport,Dawadmi,Saudi Arabia
5925,29.785133,40.100006,Al-Jawf Domestic Airport,Al-Jawf,Saudi Arabia
5927,33.435378,48.282889,Khoram Abad Airport,Khorram Abad,Iran
5928,29.084169,58.450042,Bam Airport,Bam,Iran
5930,37.492958,57.308219,Bojnourd Airport,Bojnourd,Iran
5931,36.168083,57.595183,Sabzevar National Airport,Sabzevar,Iran
5932,36.663333,51.464722,Noshahr Airport,Noshahr,Iran
5933,36.635833,53.193611,Sari Dasht E Naz Airport,Dasht-e-naz,Iran
5934,27.674725,54.383278,Lar Airport,Lar,Iran
5935,38.325678,48.424356,Ardabil Airport,Ardabil,Iran
5936,37.6681,45.0687,Uromiyeh Airport,Uromiyeh,Iran
5937,24.261667,55.609167,Al Ain International Airport,Al Ain,United Arab Emirates
5939,29.3481,71.717981,Bahawalpur Airport,Bahawalpur,Pakistan
5940,35.886592,71.800578,Chitral Airport,Chitral,Pakistan
5941,28.8783,64.3998,Dalbandin Airport,Dalbandin,Pakistan
5942,29.961011,70.485925,Dera Ghazi Khan Airport,Dera Ghazi Khan,Pakistan
5943,31.909422,70.896639,Dera Ismael Khan Airport,Dera Ismael Khan,Pakistan
5949,35.335508,75.536047,Skardu Airport,Skardu,Pakistan
5951,25.986369,63.030167,Turbat International Airport,Turbat,Pakistan
5952,35.5608,45.3147,Sulaymaniyah International Airport,Sulaymaniyah,Iraq
5954,15.966111,48.7883,Sayun International Airport,Sayun Intl,Yemen
5955,7.583,-78.2,Bahia Pia Airport,Bahia Pia,Panama
5957,8.62876,-79.0347,Contadora Airport,Contadora Island,Panama
5958,8.017,-78.2,Sambu Airport,Boca de Sbalo,Panama
5959,51.878,-176.646,Adak Airport,Adak Island,United States
5960,58.4253,-135.707,Gustavus Airport,Gustavus,United States
5961,59.4601,-135.316,Skagway Airport,Skagway,United States
5962,62.1883,-159.775,Holy Cross Airport,Holy Cross,United States
5963,59.2438,-135.524,Haines Airport,Haines,United States
5964,61.5363,-160.341,Kalskag Airport,Kalskag,United States
5965,62.9529,-155.606,McGrath Airport,Mcgrath,United States
5966,62.0954,-163.682,Mountain Village Airport,Mountain Village,United States
5967,61.5816,-159.543,Aniak Airport,Aniak,United States
5968,61.5338,-165.584,Chevak Airport,Chevak,United States
5969,56.4843,-132.37,Wrangell Airport,Wrangell,United States
5979,-3.04361,152.629,Londolovit Airport,Londolovit,Papua New Guinea
5980,-8.50582,151.081,Losuia Airport,Losuia,Papua New Guinea
5984,-9.07595,149.32,Tufi Airport,Tufi,Papua New Guinea
5994,43.041,144.193,Kushiro Airport,Kushiro,Japan
5996,33.1497,130.302,Saga Airport,Saga,Japan
5997,35.255,136.924,Nagoya Airport,Nagoya,Japan
5998,34.6764,131.79,Iwami Airport,Iwami,Japan
5999,37.2274,140.431,Fukushima Airport,Fukushima,Japan
6000,40.1919,140.371,Odate Noshiro Airport,Odate Noshiro,Japan
6001,38.812222,139.787222,Shonai Airport,Shonai,Japan
6003,35.903756,126.615906,Kunsan Air Base,Kunsan,South Korea
6005,37.438081,127.960383,Wonju Airport,Wonju,South Korea
6006,38.061311,128.669164,Yangyang International Airport,Sokcho / Gangneung,South Korea
6007,35.088543,128.07037,Sacheon Air Base,Sacheon,South Korea
6008,36.7166,127.499119,Cheongju International Airport,Chongju,South Korea
6011,6.106439,125.2353,General Santos International Airport,General Santos City,Philippines
6013,6.05367,121.011,Jolo Airport,Jolo,Philippines
6016,9.757567,125.479328,Surigao Airport,Sangley Point,Philippines
6018,13.584886,123.270239,Naga Airport,Naga,Philippines
6019,20.451322,121.979883,Basco Airport,Basco,Philippines
6021,17.638311,121.730614,Tuguegarao Airport,Tuguegarao,Philippines
6022,13.576439,124.205672,Virac Airport,Virac,Philippines
6023,12.072706,124.545092,Calbayog Airport,Calbayog City,Philippines
6024,12.502417,124.635778,Catarman National Airport,Catarman,Philippines
6025,12.3694,123.629,Masbate Airport,Masbate,Philippines
6026,11.597669,122.751669,Roxas Airport,Roxas City,Philippines
6034,-7.218958,-39.2701,Orlando Bezerra de Menezes Airport,Juazeiro Do Norte,Brazil
6036,-12.4823,-41.277,Chapada Diamantina Airport,Lenis,Brazil
6037,-22.343,-41.766,Maca Airport,Maca,Brazil
6038,-22.196892,-49.9264,Marlia Airport,Marlia,Brazil
6039,-14.862761,-40.863106,Vitria da Conquista Airport,Vitria Da Conquista,Brazil
6040,-29.711358,-53.688153,Santa Maria Airport,Santa Maria,Brazil
6045,-0.910206,-89.61745,San Cristbal Airport,San Cristbal,Ecuador
6046,-3.99589,-79.3719,Camilo Ponce Enriquez Airport,La Toma (Catamayo),Ecuador
6047,0.978519,-79.6266,General Rivadeneira Airport,Esmeraldas,Ecuador
6051,-0.18,-74.77,Caucaya Airport,Puerto Leguzamo,Colombia
6052,-1.33,-69.58,La Pedrera Airport,La Pedrera,Colombia
6053,5.7,-77.28,Reyes Murillo Airport,Nuqu,Colombia
6054,3.85,-67.91,Obando Airport,Puerto Inrida,Colombia
6055,5.319114,-72.383975,El Alcaravn Airport,Yopal,Colombia
6056,-10.8206,-65.3456,Capitn de Av. Emilio Beltrn Airport,Guayaramern,Bolivia
6058,-11.0,-66.0,Capitn Av. Selin Zeitun Lopez Airport,Riberalta,Bolivia
6066,-7.139183,-78.4894,Mayor General FAP Armando Revoredo Iglesias Airport,Cajamarca,Peru
6067,-9.878811,-76.204797,Alferez Fap David Figueroa Fernandini Airport,Hunuco,Peru
6069,-27.9067,-54.5204,Santa Rosa Airport,Santa Rosa,Brazil
6072,8.6241,-71.672819,Juan Pablo Prez Alfonso Airport,El Viga,Venezuela
6073,-10.8708,-61.8465,Ji-Paran Airport,Ji-Paran,Brazil
6079,17.205678,-62.589869,Vance Winkworth Amory International Airport,Charlestown,Saint Kitts and Nevis
6080,18.4464,-64.4275,Virgin Gorda Airport,Spanish Town,British Virgin Islands
6083,53.3291,69.5946,Kokshetau Airport,Kokshetau,Kazakhstan
6084,54.7747,69.1839,Petropavlosk South Airport,Petropavlosk,Kazakhstan
6085,47.708333,67.733333,Zhezkazgan Airport,Zhezkazgan,Kazakhstan
6086,50.0366,82.4942,Ust Kamenogorsk Airport,Ust Kamenogorsk,Kazakhstan
6088,53.206944,63.550278,Kostanay West Airport,Kostanay,Kazakhstan
6089,40.7377,46.3176,Ganja Airport,Ganja,Azerbaijan
6090,39.1888,45.4584,Nakhchivan Airport,Nakhchivan,Azerbaijan
6092,66.400431,112.030325,Poliarny Airport,Yakutia,Russia
6093,70.6231,147.902,Chokurdakh Airport,Chokurdah,Russia
6094,68.7406,161.338,Cherskiy Airport,Cherskiy,Russia
6095,71.6977,128.903,Tiksi Airport,Tiksi,Russia
6098,64.73495,177.741483,Ugolny Airport,Anadyr,Russia
6103,47.867,35.3157,Zaporizhzhia International Airport,Zaporozhye,Ukraine
6105,49.924786,36.289986,Osnova International Airport,Kharkov,Ukraine
6106,48.884167,24.686111,Ivano Frankivsk International Airport,Ivano-Frankivsk,Ukraine
6109,48.634278,22.263356,Uzhhorod International Airport,Uzhgorod,Ukraine
6110,65.03,35.7333,Solovki Airport,Solovetsky Islands,Russia
6111,59.2736,38.0158,Cherepovets Airport,Cherepovets,Russia
6114,61.8852,34.1547,Petrozavodsk Airport,Petrozavodsk,Russia
6118,51.6694,94.4006,Kyzyl Airport,Kyzyl,Russia
6119,53.8114,86.8772,Spichenkovo Airport,Novokuznetsk,Russia
6121,67.4372,86.6219,Igarka Airport,Igarka,Russia
6122,43.2981,45.7841,Grozny Airport,Grozny,Russia
6124,43.2051,44.6066,Beslan Airport,Beslan,Russia
6125,46.3739,44.3309,Elista Airport,Elista,Russia
6129,40.727,-99.0068,Kearney Municipal Airport,Kearney,United States
6130,33.4829,-90.9856,Mid Delta Regional Airport,Greenville,United States
6132,35.2595,-113.938,Kingman Airport,Kingman,United States
6133,46.2647,-119.119,Tri Cities Airport,Pasco,United States
6134,54.1325,-165.785,Akutan Seaplane Base,Akutan,United States
6135,32.6365,-108.156,Grant County Airport,Silver City,United States
6136,48.4839,-122.938,Lopez Island Airport,Lopez,United States
6137,66.590753,66.611042,Salekhard Airport,Salekhard,Russia
6138,61.028479,69.086067,Khanty Mansiysk Airport,Khanty-Mansiysk,Russia
6139,62.11,65.615,Nyagan Airport,Nyagan,Russia
6140,61.32,63.6044,Sovetsky Tyumenskaya Airport,Sovetskiy,Russia
6141,56.8281,53.4575,Izhevsk Airport,Izhevsk,Russia
6142,58.5033,49.3483,Pobedilovo Airport,Kirov,Russia
6143,65.4809,72.6989,Nadym Airport,Nadym,Russia
6146,55.4753,65.4156,Kurgan Airport,Kurgan,Russia
6147,40.2154,69.6947,Khudzhand Airport,Khudzhand,Tajikistan
6148,40.7277,72.294,Andizhan Airport,Andizhan,Uzbekistan
6149,40.3588,71.745,Fergana Airport,Fergana,Uzbekistan
6150,40.9846,71.5567,Namangan Airport,Namangan,Uzbekistan
6151,42.4884,59.6233,Nukus Airport,Nukus,Uzbekistan
6152,41.5843,60.6417,Urgench Airport,Urgench,Uzbekistan
6153,38.8336,65.9215,Karshi Khanabad Airport,Khanabad,Uzbekistan
6154,37.286667,67.31,Termez Airport,Termez,Uzbekistan
6156,50.6438,36.5901,Belgorod International Airport,Belgorod,Russia
6157,51.7506,36.2956,Kursk East Airport,Kursk,Russia
6159,67.4886,63.9931,Vorkuta Airport,Vorkuta,Russia
6160,54.64,52.8017,Bugulma Airport,Bugulma,Russia
6162,56.0903,47.3473,Cheboksary Airport,Cheboksary,Russia
6164,51.0725,58.5956,Orsk Airport,Orsk,Russia
6165,53.1106,45.0211,Penza Airport,Penza,Russia
6166,54.1251,45.2123,Saransk Airport,Saransk,Russia
6168,15.3617,75.0849,Hubli Airport,Hubli,India
6169,5.99368,80.3203,Koggala Airport,Koggala,Sri Lanka
6172,25.7036,91.9787,Shillong Airport,Shillong,India
6173,26.106092,91.585939,Lokpriya Gopinath Bordoloi International Airport,Guwahati,India
6174,25.8839,93.7711,Dimapur Airport,Dimapur,India
6176,22.801,90.3012,Barisal Airport,Barisal,Bangladesh
6179,27.6781,84.4294,Bharatpur Airport,Bharatpur,Nepal
6180,26.570822,88.079578,Chandragadhi Airport,Chandragarhi,Nepal
6182,28.103633,81.667006,Nepalgunj Airport,Nepalgunj,Nepal
6183,-0.693342,73.1556,Gan Island Airport,Gan Island,Maldives
6184,6.74423,73.1705,Hanimaadhoo Airport,Haa Dhaalu Atoll,Maldives
6185,1.85917,73.5219,Kadhdhoo Airport,Laamu Atoll,Maldives
6186,16.699856,98.545056,Mae Sot Airport,Tak,Thailand
6187,12.668311,108.120272,Buon Ma Thuot Airport,Buonmethuot,Vietnam
6188,20.819386,106.724989,Cat Bi International Airport,Haiphong,Vietnam
6189,11.998153,109.219372,Cam Ranh Airport,Nha Trang,Vietnam
6190,8.731831,106.632589,Co Ong Airport,Conson,Vietnam
6191,10.085119,105.711922,Tr Nc Airport,Can Tho,Vietnam
6192,21.397481,103.007831,Dien Bien Phu Airport,Dienbienphu,Vietnam
6193,13.954986,109.042267,Phu Cat Airport,Phucat,Vietnam
6194,14.004522,108.017158,Pleiku Airport,Pleiku,Vietnam
6195,18.737569,105.670764,Vinh Airport,Vinh,Vietnam
6197,14.103886,98.203636,Dawei Airport,Dawei,Burma
6198,10.049258,98.538006,Kawthoung Airport,Kawthoung,Burma
6204,-9.409717,119.244494,Tambolaka Airport,Waikabubak-Sumba Island,Indonesia
6209,2.155497,117.432256,Barau(Kalimaru) Airport,Tanjung Redep-Borneo Island,Indonesia
6212,-5.661619,132.731431,Dumatubun Airport,Langgur-Kei Islands,Indonesia
6215,3.421,115.154,Long Lellang Airport,Long Datih,Malaysia
6216,3.967,115.05,Long Seridan Airport,Long Seridan,Malaysia
6217,2.90639,112.08,Mukah Airport,Mukah,Malaysia
6218,3.974,115.618,Bakalalan Airport,Bakalalan,Malaysia
6219,4.84917,115.408,Lawas Airport,Lawas,Malaysia
6220,3.73389,115.479,Bario Airport,Bario,Malaysia
6222,6.9225,116.836,Kudat Airport,Kudat,Malaysia
6223,-5.242339,105.178939,Radin Inten II (Branti) Airport,Bandar Lampung-Sumatra Island,Indonesia
6225,3.908714,108.387897,Ranai Airport,Ranai-Natuna Besar Island,Indonesia
6231,-3.29472,116.165,Stagen Airport,Laut Island,Indonesia
6235,-34.9433,117.809,Albany Airport,Albany,Australia
6237,-13.3539,141.721,Aurukun Airport,Aurukun,Australia
6238,-23.5653,145.307,Barcaldine Airport,Barcaldine,Australia
6240,-25.8975,139.348,Birdsville Airport,Birdsville,Australia
6241,-32.0014,141.472,Broken Hill Airport,Broken Hill,Australia
6242,-20.3581,148.952,Hamilton Island Airport,Hamilton Island,Australia
6243,-24.3461,139.46,Bedourie Airport,Bedourie,Australia
6245,-17.7486,139.534,Burketown Airport,Burketown,Australia
6248,-22.9133,139.9,Boulia Airport,Boulia,Australia
6249,-33.4094,149.652,Bathurst Airport,Bathurst,Australia
6253,-29.04,134.721,Coober Pedy Airport,Coober Pedy,Australia
6255,-20.6686,140.504,Cloncurry Airport,Cloncurry,Australia
6256,-32.1306,133.71,Ceduna Airport,Ceduna,Australia
6258,-28.03,145.622,Cunnamulla Airport,Cunnamulla,Australia
6260,-13.7608,143.114,Coen Airport,Coen,Australia
6262,-17.9403,138.822,Doomadgee Airport,Doomadgee,Australia
6264,-41.1697,146.43,Devonport Airport,Devonport,Australia
6265,-12.0194,135.571,Elcho Island Airport,Elcho Island,Australia
6266,-33.6844,121.823,Esperance Airport,Esperance,Australia
6267,-40.0917,147.993,Flinders Island Airport,Flinders Island,Australia
6268,-28.7961,114.707,Geraldton Airport,Geraldton,Australia
6269,-23.8697,151.223,Gladstone Airport,Gladstone,Australia
6270,-13.975,136.46,Groote Eylandt Airport,Groote Eylandt,Australia
6271,-34.2508,146.067,Griffith Airport,Griffith,Australia
6272,-10.5864,142.29,Horn Island Airport,Horn Island,Australia
6276,-20.6683,141.723,Julia Creek Airport,Julia Creek,Australia
6278,-39.8775,143.878,King Island Airport,King Island,Australia
6281,-15.4856,141.751,Kowanyama Airport,Kowanyama,Australia
6285,-31.5383,159.077,Lord Howe Island Airport,Lord Howe Island,Australia
6286,-12.7869,143.305,Lockhart River Airport,Lockhart River,Australia
6287,-28.8303,153.26,Lismore Airport,Lismore,Australia
6289,-23.4342,144.28,Longreach Airport,Longreach,Australia
6294,-36.9086,149.901,Merimbula Airport,Merimbula,Australia
6295,-12.0944,134.894,Milingimbi Airport,Milingimbi,Australia
6296,-12.0561,134.234,Maningrida Airport,Maningrida,Australia
6297,-16.4425,136.084,McArthur River Mine Airport,McArthur River Mine,Australia
6298,-34.2292,142.086,Mildura Airport,Mildura,Australia
6300,-29.4989,149.845,Moree Airport,Moree,Australia
6301,-22.0578,148.077,Moranbah Airport,Moranbah,Australia
6302,-35.8978,150.144,Moruya Airport,Moruya,Australia
6303,-37.7456,140.785,Mount Gambier Airport,Mount Gambier,Australia
6304,-16.6625,139.178,Mornington Island Airport,Mornington Island,Australia
6307,-34.7022,146.512,Narrandera Airport,Narrandera,Australia
6309,-17.6836,141.07,Normanton Airport,Normanton,Australia
6310,-23.4178,119.803,Newman Airport,Newman,Australia
6311,-30.485,136.877,Olympic Dam Airport,Olympic Dam,Australia
6312,-32.506944,137.716667,Port Augusta Airport,Argyle,Australia
6314,-23.1711,117.745,Paraburdoo Airport,Paraburdoo,Australia
6315,-12.1883,96.8339,Cocos Keeling Island Airport,Cocos Keeling Island,Cocos (Keeling) Islands
6316,-12.2694,136.818,Gove Airport,Gove,Australia
6317,-33.1314,148.239,Parkes Airport,Parkes,Australia
6318,-34.6053,135.88,Port Lincoln Airport,Port Lincoln,Australia
6319,-14.8967,141.609,Pormpuraaw Airport,Pormpuraaw,Australia
6320,-31.4358,152.863,Port Macquarie Airport,Port Macquarie,Australia
6321,-38.3181,141.471,Portland Airport,Portland,Australia
6322,-26.6122,144.253,Quilpie Airport,Quilpie,Australia
6324,-26.545,148.775,Roma Airport,Roma,Australia
6325,-28.0497,148.595,St George Airport,St George,Australia
6329,-27.9864,143.811,Thargomindah Airport,Thargomindah,Australia
6333,-25.4131,142.667,Windorah Airport,Windorah,Australia
6334,-33.0589,137.514,Whyalla Airport,Whyalla,Australia
6337,-22.3636,143.086,Winton Airport,Winton,Australia
6338,-40.9989,145.731,Wynyard Airport,Burnie,Australia
6341,39.7825,116.387778,Beijing Nanyuan Airport,Beijing,China
6342,42.235,118.908,Chifeng Airport,Chifeng,China
6343,36.2475,113.126,Changzhi Airport,Changzhi,China
6344,40.0603,113.482,Datong Airport,Datong,China
6345,40.851422,111.824103,Baita Airport,Hohhot,China
6346,40.56,109.997,Baotou Airport,Baotou,China
6347,38.280686,114.6973,Shijiazhuang Daguocun International Airport,Shijiazhuang,China
6348,43.5567,122.2,Tongliao Airport,Tongliao,China
6349,46.083,122.017,Ulanhot Airport,Ulanhot,China
6350,43.9156,115.964,Xilinhot Airport,Xilinhot,China
6351,21.5394,109.294,Beihai Airport,Beihai,China
6352,28.9189,111.64,Changde Airport,Changde,China
6353,29.1028,110.443,Dayong Airport,Dayong,China
6354,24.35,116.133,Meixian Airport,Meixian,China
6355,22.0064,113.376,Zhuhai Airport,Zhuhai,China
6356,24.2075,109.391,Bailian Airport,Liuzhou,China
6357,21.2144,110.358,Zhanjiang Airport,Zhanjiang,China
6358,30.3203,109.485,Enshi Airport,Enshi,China
6359,32.9808,112.615,Nanyang Airport,Nanyang,China
6360,32.1506,112.291,Xiangfan Airport,Xiangfan,China
6361,30.671,111.441,Yichang Airport,Yichang,China
6363,34.633,98.867,Golmud Airport,Golmud,China
6365,35.7997,107.603,Qingyang Airport,Qingyang,China
6366,36.5275,102.043,Xining Caojiabu Airport,Xining,China
6367,36.6369,109.554,Yan'an Airport,Yan'an,China
6368,38.2692,109.731,Yulin Airport,Yulin,China
6370,46.3764,96.2211,Altai Airport,Altai,Mongolia
6371,46.1633,100.704,Bayankhongor Airport,Bayankhongor,Mongolia
6373,47.9541,91.6282,Khovd Airport,Khovd,Mongolia
6374,49.6633,100.099,Muren Airport,Muren,Mongolia
6375,27.7936,99.6772,Diqing Airport,Shangri-La,China
6376,24.4011,98.5317,Mangshi Airport,Luxi,China
6377,22.7933,100.959,Simao Airport,Simao,China
6378,27.3256,103.755,Zhaotong Airport,Zhaotong,China
6379,25.8258,114.912,Ganzhou Airport,Ganzhou,China
6380,29.3386,117.176,Jingdezhen Airport,Jingdezhen,China
6381,29.733,115.983,Jiujiang Lushan Airport,Jiujiang,China
6382,28.9658,118.899,Quzhou Airport,Quzhou,China
6383,34.55,119.25,Lianyungang Airport,Lianyungang,China
6384,28.5622,121.429,Huangyan Luqiao Airport,Huangyan,China
6385,35.0461,118.412,Shubuling Airport,Linyi,China
6386,24.7964,118.59,Quanzhou Airport,Quanzhou,China
6387,29.7333,118.256,Tunxi International Airport,Huangshan,China
6388,36.6467,119.119,Weifang Airport,Weifang,China
6390,31.4944,120.429,Wuxi Airport,Wuxi,China
6391,27.7019,118.001,Nanping Wuyishan Airport,Wuyishan,China
6392,27.9122,120.852,Wenzhou Yongqiang Airport,Wenzhou,China
6393,33.3856,120.125,Yancheng Airport,Yancheng,China
6394,29.3447,120.032,Yiwu Airport,Yiwu,China
6395,29.9342,122.362,Zhoushan Airport,Zhoushan,China
6396,30.5536,97.1083,Qamdo Bangda Airport,Bangda,China
6397,31.3,107.5,Dachuan Airport,Dazhou,China
6398,32.3911,105.702,Guangyuan Airport,Guangyuan,China
6399,28.8522,105.393,Luzhou Airport,Luzhou,China
6400,31.4281,104.741,Mianyang Airport,Mianyang,China
6401,30.754,106.062,Nanchong Airport,Nanchong,China
6402,29.3033,94.3353,Nyingchi Airport,Nyingchi,China
6403,30.8361,108.406,Wanxian Airport,Wanxian,China
6404,41.2625,80.2917,Aksu Airport,Aksu,China
6406,41.7181,82.9869,Kuqa Airport,Kuqa,China
6407,41.6978,86.1289,Korla Airport,Korla,China
6408,45.617,84.883,Karamay Airport,Karamay,China
6409,43.9558,81.3303,Yining Airport,Yining,China
6410,50.25,127.3,Heihe Airport,Heihe,China
6411,46.843394,130.465389,Jiamusi Airport,Jiamusi,China
6412,41.1014,121.062,Jinzhou Airport,Jinzhou,China
6413,47.239628,123.918131,Qiqihar Sanjiazi Airport,Qiqihar,China
6414,42.8828,129.451258,Yanji Airport,Yanji,China
6426,42.2673,-71.8757,Worcester Regional Airport,Worcester,United States
6427,30.5822,117.0502,Anqing Airport,Anqing,China
6428,26.8997,114.7375,Jing Gang Shan Airport,Ji An,China
6429,39.9681,119.731,Shanhaiguan Airport,Qinhuangdao,China
6430,35.018,110.993,Zhangxiao,Yuncheng,China
6431,36.117,103.617,Lanzhou Airport,Lanzhou,China
6432,39.8569,98.3414,Jiayuguan Airport,Jiayuguan,China
6433,40.0255,124.2866,Dandong,Dandong,China
6434,39.85,110.033,Ordos Ejin Horo,Dongsheng,China
6435,26.54,101.799,Panzhihua,Panzhihua,China
6443,27.4839,95.0169,Dibrugarh Airport,Dibrugarh,India
6448,35.5925,-113.4859,Grand Canyon West Airport,Grand Canyon West,United States
6449,35.5651,-114.514,Boulder City Municipal Airport,Boulder City,United States
6456,42.071945,-70.22139,Provincetown Muni,Provincetown,United States
6457,47.629,-122.339,Kenmore Air Harbor Seaplane Base,Seattle,United States
6460,17.9023,-62.8324,Saint Barthelemy,Gustavia,France
6463,17.5344,-88.298,Belize City Municipal Airport,Belize,Belize
6466,52.81,41.48,Tambow,Tambow,Russia
6476,34.796111,138.189444,Mt. Fuji Shizuoka Airport,Shizuoka,Japan
6477,-27.6619,-52.2683,Erechim Airport,Erechim,Brazil
6485,40.1172,65.1708,Navoi Airport,Navoi,Uzbekistan
6492,36.1781,5.32449,Ain Arnat Airport,Setif,Algeria
6493,46.1792,-1.19528,La Rochelle-Ile de Re,La Rochelle,France
6505,33.307833,-111.655,Phoenix-Mesa Gateway,Mesa,United States
6510,49.209445,7.401323,Zweibruecken,Zweibruecken,Germany
6712,68.1336,-151.743,Anaktuvuk Pass Airport,Anaktuvuk Pass,United States
6713,62.6467,-160.191,Anvik Airport,Anvik,United States
6714,70.4673,-157.436,Atqasuk Edward Burnell Sr Memorial Airport,Atqasuk,United States
6715,63.7668,-171.733,Gambell Airport,Gambell,United States
6716,61.5239,-166.147,Hooper Bay Airport,Hooper Bay,United States
6717,64.3191,-158.741,Kaltag Airport,Kaltag,United States
6718,62.0605,-163.302,St Marys Airport,St Mary's,United States
6719,67.7362,-164.563,Kivalina Airport,Kivalina,United States
6720,60.3714,-166.271,Mekoryuk Airport,Mekoryuk,United States
6721,68.3488,-166.799,Point Hope Airport,Point Hope,United States
6722,64.7272,-155.47,Ruby Airport,Ruby,United States
6723,66.2496,-166.089,Shishmaref Airport,Shishmaref,United States
6724,63.6864,-170.493,Savoonga Airport,Savoonga,United States
6725,67.5661,-162.975,Noatak Airport,Noatak,United States
6727,60.0506,-77.2869,Puvirnituq Airport,Puvirnituq,Canada
6728,58.6678,-69.9558,Tasiujaq Airport,Tasiujaq,Canada
6729,68.1147,-145.579,Arctic Village Airport,Arctic Village,United States
6730,5.42706,7.20603,Imo Airport,Imo,Nigeria
6731,10.478,-84.6345,Arenal Airport,La Fortuna/San Carlos,Costa Rica
6732,9.73852,-85.0138,Tambor Airport,Nicoya,Costa Rica
6733,16.929861,121.753036,Cauayan Airport,Cauayan,Philippines
6734,67.4633,33.5883,Kirovsk-Apatity Airport,Apatity,Russia
6735,-18.8952,-41.9822,Governador Valadares Airport,Governador Valadares,Brazil
6737,67.2456,23.0689,Pajala Airport,Pajala,Sweden
6738,52.3875,-126.596,Bella Coola Airport,Bella Coola,Canada
6739,39.7079,-77.7295,Hagerstown Regional Richard A Henson Field,Hagerstown,United States
6740,-0.58,-72.41,Araracuara Airport,Araracuara,Colombia
6741,26.739708,83.449708,Gorakhpur Airport,Gorakhpur,India
6742,55.315,-160.523,Sand Point Airport,Sand Point,United States
6743,42.8414,93.6692,Hami Airport,Hami,China
6744,23.4567,111.248,Changzhoudao Airport,Wuzhou,China
6747,36.909381,54.401339,Gorgan Airport,Gorgan,Iran
6748,33.586606,46.404842,Ilam Airport,Ilam,Iran
6749,39.603606,47.8815,Parsabade Moghan Airport,Parsabad,Iran
6750,0.093056,-76.8675,Nueva Loja Airport,Lago Agrio,Ecuador
6752,46.6725,83.3408,Tacheng Airport,Tacheng,China
6753,37.2233,40.6317,Mardin Airport,Mardin,Turkey
6755,66.0696,-162.766,Deering Airport,Deering,United States
6756,42.589,-5.655556,Leon Airport,Leon,Spain
6757,42.357628,-3.620764,Burgos Airport,Burgos,Spain
6758,-8.57889,157.876,Sege Airport,Sege,Solomon Islands
6760,32.1651,76.2634,Kangra Airport,Kangra,India
6763,59.324,-155.902,Igiugig Airport,Igiugig,United States
6765,55.1163,-162.266,King Cove Airport,King Cove,United States
6766,56.9591,-158.633,Port Heiden Airport,Port Heiden,United States
6767,59.0528,-160.397,Togiak Airport,Togiak Village,United States
6768,13.4817,22.4672,Geneina Airport,Geneina,Sudan
6769,3.3,114.783,Long Akah Airport,Long Akah,Malaysia
6770,2.17784,111.202,Tanjung Manis Airport,Tanjung Manis,Malaysia
6771,-15.412,167.691,Walaha Airport,Walaha,Vanuatu
6772,41.5381,120.435,Chaoyang Airport,Chaoyang,China
6773,0.530583,37.5342,Samburu South Airport,Samburu South,Kenya
6775,48.0711,-65.4603,Bonaventure Airport,Bonaventure,Canada
6776,32.5356,74.3639,Sialkot Airport,Sialkot,Pakistan
6777,-34.855139,-55.094278,Capitan Corbeta C A Curbelo International Airport,Punta del Este,Uruguay
6778,-22.9799,14.6453,Walvis Bay Airport,Walvis Bay,Namibia
6779,-17.6344,24.1767,Katima Mulilo Airport,Mpacha,Namibia
6780,39.809858,30.519378,Anadolu Airport,Eskissehir,Turkey
6781,40.137722,26.426777,Canakkale Airport,Canakkale,Turkey
6782,38.747769,41.661236,Mus Airport,Mus,Turkey
6783,42.0158,35.0664,Sinop Airport,Sinop,Turkey
6784,41.13825,27.919094,Tekirda orlu Airport,orlu,Turkey
6788,18.1158,-65.4227,Vieques Airport,Vieques Island,Puerto Rico
6789,51.2117,-58.6583,St Augustin Airport,St-Augustin,Canada
6790,34.869167,48.5525,Hamadan Airport,Hamadan,Iran
6792,-29.7594,153.03,Grafton Airport,Grafton,Australia
6793,-33.3817,149.133,Orange Airport,Orange,Australia
6794,-31.8886,152.514,Taree Airport,Taree,Australia
6795,48.1357,114.646,Choibalsan Airport,Choibalsan,Mongolia
6800,45.722778,-87.093611,Delta County Airport,Escanaba,United States
6803,59.3012,-139.3937,Yakutat,Yakutat,United States
6814,18.3127,-65.3034,Culebra Airport,Culebra Island,Puerto Rico
6825,37.7549569,-89.0110936,Williamson Country Regional Airport,Marion,United States
6837,45.8183611,-88.1145556,Ford Airport,Iron Mountain,United States
6838,46.353611,-87.395278,Sawyer International Airport,Marquette,United States
6839,66.5519,-152.6222,Allakaket Airport,Allakaket,United States
6880,38.509794,-107.894242,Montrose Regional Airport,Montrose CO,United States
6881,43.064167,-108.459722,Riverton Regional,Riverton WY,United States
6883,45.695,-118.841389,Eastern Oregon Regional Airport,Pendleton,United States
6916,47.398,-120.206,Pangborn Field,Wenatchee,United States
6919,-11.302,159.8,Bellona,Bellona,Solomon Islands
6924,56.85,105.7167,Ust-Kut,Ust-Kut,Russia
6926,-22.637253,-152.805192,Rimatara,Rimatara,French Polynesia
6940,57.560666676667,40.157369454444,Tunoshna,Yaroslavl,Russia
6943,52.915,122.427,Heilongjiang Mohe Airport,Mohe County,China
6944,35.417,116.533,Jining Airport,Jining,China
6945,8.71889,-83.6417,Drake Bay Airport,Puntarenas,Costa Rica
6946,47.866667,88.116667,Altay Airport,Altay,China
6954,49.566667,117.329444,Manzhouli,Manzhouli,China
6955,39.794444,106.799444,Wuhai,Wuhai,China
6957,46.398308,-94.138078,Brainerd Lakes Rgnl,Brainerd,United States
6958,37.858333,-80.399444,Greenbrier Valley Airport,Lewisburg,United States
6959,35.635278,-77.385278,Pitt-Greenville Airport,Greenville,United States
6960,60.149167,-164.285556,Chefornak Airport,Chefornak,United States
6962,36.531994,-93.200556,Branson LLC,Branson,United States
6963,27.884,109.31,Tongren,Tongren,China
6969,55.34,52.06,Begishevo,Nizhnekamsk,Russia
6972,5.31,5.45,Warri Airport,Osubi,Nigeria
6989,29.959167,-81.339722,St. Augustine Airport,St. Augustine Airport,United States
6992,38.508978,-122.81288,Charles M Schulz Sonoma Co,Santa Rosa,United States
7001,39.2232,-106.869,Aspen Pitkin County Sardy Field,Aspen,United States
7002,32.216,-80.752,Hilton Head,Hilton Head,United States
7003,54.268299,48.2267,Barataevka,Ulyanovsk,Russia
7018,48.065556,-96.185,Thief River Falls,Thief River Falls,United States
7029,18.3822,-88.4119,Municipal,Corozal,Belize
7041,44.566666666667,38.016666666667,Gelendzik,Gelendzik,Russia
7051,38.533889,-106.933056,Gunnison - Crested Butte,Gunnison,United States
7054,44.2725,-86.246944,Manistee County-Blacker Airport,Manistee,United States
7056,26.919722,-81.990556,Charlotte County-Punta Gorda Airport,Punta Gorda,United States
7059,42.153333,-79.258056,Chautauqua County-Jamestown,Jamestown,United States
7062,38.263889,-78.896389,Shenandoah Valley Regional Airport,Weyers Cave,United States
7064,46.7975,-102.801944,Dickinson Theodore Roosevelt Regional Airport,Dickinson,United States
7065,47.706944,-104.1925,Sidney-Richland Municipal Airport,Sidney,United States
7066,42.8375,-103.095556,Chadron Municipal Airport,Chadron,United States
7067,42.053333,-102.803889,Alliance Municipal Airport,Alliance,United States
7068,40.206389,-100.592222,McCook Regional Airport,McCook,United States
7070,47.138611,-104.807222,Dawson Community Airport,Glendive,United States
7071,48.094444,-105.575,LM Clayton Airport,Wolf Point,United States
7073,37.435,-105.866667,San Luis Valley Regional Airport,Alamosa,United States
7074,38.755,-109.754722,Canyonlands Field,Moab,United States
7076,40.440833,-109.51,Vernal Regional Airport,Vernal,United States
7078,34.265556,-110.005556,Show Low Regional Airport,Show Low,United States
7081,37.624049,-118.837772,Mammoth Yosemite Airport,Mammoth Lakes,United States
7082,48.521944,-123.024444,Friday Harbor Airport,Friday Harbor,United States
7083,48.708056,-122.910556,Orcas Island Airport,Eastsound,United States
7087,62.786111,-164.490833,Emmonak Airport,Emmonak,United States
7088,63.888333,-160.798889,Unalakleet Airport,Unalakleet,United States
7090,62.692222,-159.569167,Shageluk Airport,Shageluk,United States
7091,61.579167,-159.215556,Chuathbaluk Airport,Chuathbaluk,United States
7092,70.21,-151.005556,Nuiqsut Airport,Nuiqsut,United States
7093,60.213611,-162.043889,Eek Airport,Eek,United States
7094,60.873333,-162.524444,Kasigluk Airport,Kasigluk,United States
7095,60.790278,-161.443611,Kwethluk Airport,Kwethluk,United States
7096,59.876389,-163.168611,Kwigillingok Airport,Kwigillingok,United States
7097,61.8646418,-162.026111,Marshall Don Hunter Sr. Airport,Marshall,United States
7098,61.775,-161.319444,Russian Mission Airport,Russian Mission,United States
7099,60.335278,-162.666944,Tuntutuliak Airport,Tuntutuliak,United States
7102,59.128056,-156.858611,Levelock Airport,Levelock,United States
7105,66.645,-143.74,Chalkyitsik Airport,Chalkyitsik,United States
7107,66.039167,-154.264722,Hughes Airport,Hughes,United States
7108,65.697778,-156.351389,Huslia Airport,Huslia,United States
7110,65.143611,-149.37,Minto Airport,Minto,United States
7111,64.729444,-158.074167,Nulato Airport,Nulato,United States
7112,65.507778,-150.140833,Rampart Airport,Rampart,United States
7113,65.179556,-152.075833,Tanana Airport,Tanana,United States
7114,67.008611,-146.366389,Venetie Airport,Venetie,United States
7115,66.362222,-147.406667,Beaver Airport,Beaver,United States
7116,65.573889,-144.780833,Central Airport,Central,United States
7117,66.888056,-157.1625,Shungnak Airport,Shungnak,United States
7118,66.256708,-145.815319,Birch Creek Airport,Brich Creek,United States
7119,67.251389,-150.176111,Coldfoot Airport,Coldfoot,United States
7121,36.318611,-119.392778,Visalia Municipal Airport,Visalia,United States
7122,37.284722,-120.513889,Merced Municipal Airport,Merced,United States
7128,-27.542778,151.916389,Toowoomba,Toowoomba,Australia
7135,57.503611,-134.585,Angoon Seaplane Base,Angoon,United States
7136,58.195278,-136.3475,Elfin Cove Seaplane Base,Elfin Cove,United States
7137,57.779722,-135.218333,Tenakee Seaplane Base,Tenakee Springs,United States
7138,57.955278,-136.236389,Pelican Seaplane Base,Pelican,United States
7141,58.420556,-135.449167,Excursion Inlet Seaplane Base,Excursion Inlet,United States
7142,58.096111,-135.409722,Hoonah Airport,Hoonah,United States
7144,55.478889,-133.147778,Craig Seaplane Base,Craig,United States
7145,55.481667,-132.646111,Hollis Seaplane Base,Hollis,United States
7146,55.131111,-131.578056,Metlakatla Seaplane Base,Metakatla,United States
7147,55.688056,-132.536667,Thorne Bay Seaplane Base,Thorne Bay,United States
7148,55.206389,-132.828333,Hydaburg Seaplane Base,Hydaburg,United States
7150,56.351944,-133.6225,Point Baker Seaplane Base,Point Baker,United States
7151,56.328889,-133.61,Port Protection Seaplane Base,Port Protection,United States
7153,56.255,-158.775278,Chignik Lake Airport,Chignik Lake,United States
7154,58.185556,-157.375556,Egegik Airport,Egegik,United States
7155,56.311111,-158.534167,Chignik Lagoon Airport,Chignik Lagoon,United States
7157,55.906667,-159.160833,Perryville Airport,Perryville,United States
7159,58.702222,-157.0025,South Naknek Airport,South Naknek,United States
7160,56.938611,-154.1825,Akhiok Airport,Akhiok,United States
7162,57.535,-153.976667,Larsen Bay Airport,Larsen Bay,United States
7163,57.218056,-153.269722,Old Harbor Airport,Old Harbor,United States
7164,57.922876,-152.500511,Ouzinkie Airport,Ouzinkie,United States
7165,57.885278,-152.846111,Port Lions Airport,Port Lions,United States
7167,57.471389,-153.815278,Amook Bay Seaplane Base,Amook Bay,United States
7168,58.190833,-152.370556,Kitoi Bay Seaplane Base,Kitoi Bay,United States
7173,58.166667,-152.5,Seal Bay Seaplane Base,Seal Bay,United States
7177,67.106389,-157.8575,Ambler Airport,Ambler,United States
7178,65.981667,-161.149167,Buckland Airport,Buckland,United States
7179,66.975833,-160.436667,Bob Baker Memorial Airport,Kiana,United States
7180,66.912222,-156.897222,Kobuk Airport,Kobuk,United States
7181,66.8175,-161.022222,Robert Curtis Memorial Airport,Noorvik,United States
7182,66.6,-159.985833,Selawik Airport,Selawik,United States
7183,65.331389,-166.465833,Brevig Mission Airport,Brevig Mission,United States
7184,64.615,-162.270556,Elim Airport,Elim,United States
7185,64.550556,-163.007222,Golovin Airport,Golovin,United States
7186,65.240278,-166.339444,Teller Airport,Teller,United States
7187,65.6225,-168.095,Wales Airport,Wales,United States
7188,64.689167,-163.412778,White Mountain Airport,White Mountain,United States
7190,64.939444,-161.154167,Koyuk Alfred Adams Airport,Koyuk,United States
7191,63.49,-162.110278,St. Michael Airport,St. Michael,United States
7192,64.371111,-161.223889,Shaktoolik Airport,Shaktoolik,United States
7193,63.515833,-162.278056,Stebbins Airport,Stebbins,United States
7194,65.563056,-167.921667,Tin City LRRS Airport,Tin City,United States
7195,52.220278,-174.206389,Atka Airport,Atka,United States
7196,52.941667,-168.848889,Nikolski Air Station,Nikolski,United States
7199,62.68,-164.66,Alakanuk Airport,Alakanuk,United States
7200,62.520556,-164.847778,Sheldon Point Airport,Nunam Iqua,United States
7201,59.933056,-164.030556,Kipnuk Airport,Kipnuk,United States
7202,54.8475,-163.410278,False Pass Airport,False Pass,United States
7203,56.0075,-161.160278,Nelson Lagoon,Nelson Lagoon,United States
7205,55.579167,-133.076111,Klawock Airport,Klawock,United States
7206,59.755,-161.845278,Quinhagak Airport,Quinhagak,United States
7207,63.030556,-163.532778,Kotlik Airport,Kotlik,United States
7208,64.875833,-157.730556,Koyukuk Airport,Koyukuk,United States
7209,61.845278,-165.571389,Scammon Bay Airport,Scammon Bay,United States
7212,60.905833,-162.439167,Nunapitchuk Airport,Nunapitchuk,United States
7213,59.960833,-162.881111,Kongiganak Airport,Kongiganak,United States
7214,63.010833,-154.383889,Nikolai Airport,Nikolai,United States
7215,62.971944,-156.082778,Takotna Airport,Takotna,United States
7216,61.934444,-162.899444,Pilot Station Airport,Pilot Station,United States
7217,60.902778,-161.230556,Akiak Airport,Akiak,United States
7218,61.096944,-160.969444,Tuluksak Airport,Tuluksak,United States
7219,62.894444,-160.065,Grayling Airport,Grayling,United States
7220,70.638056,-159.994722,Wainwright Airport,Wainwright,United States
7236,65.827778,-144.076111,Circle City Airport,Circle,United States
7237,56.014722,-132.833889,Coffman Cove Seaplane Base,Coffman Cove,United States
7238,61.867778,-158.135,Crooked Creek Airport,Crooked Creek,United States
7239,61.788056,-157.350278,Red Devil Airport,Red Devil,United States
7240,61.700566,-157.165833,Sleetmute Airport,Sleetmute,United States
7241,61.7875,-156.591111,Stony River 2 Airport,Stony River,United States
7242,63.8675,-148.968889,Healy River Airport,Healy,United States
7243,56.973056,-133.945556,Kake Seaplane Base,Kake,United States
7246,64.9975,-150.644167,Manley Hot Springs Airport,Manley Hot Springs,United States
7247,56.577222,-169.663611,St. George Airport,St. George,United States
7252,54.910278,-59.785278,Postville Airport,Postville,Canada
7253,61.588611,-71.929444,Kangiqsujuaq - Wakeham Bay Airport,Kangiqsujuaq,Canada
7255,50.281944,-63.611389,Havre Saint-Pierre Airport,Havre-Saint-Pierre,Canada
7266,58.491389,-119.407778,Rainbow Lake Airport,Rainbow Lake,Canada
7275,52.139722,-128.063611,Bella Bella Airport,Bella Bella,Canada
7287,16.966667,-88.216667,Dangriga Airport,Dangriga,Belize
7288,16.536944,-88.361667,Placencia Airport,Placencia,Belize
7310,17.747222,-64.705,Christiansted Harbor Seaplane Base,Christiansted,Virgin Islands
7313,-20.466667,-66.833333,Uyuni Airport,Uyuni,Bolivia
7317,-14.4275,-67.498056,Rurrenabaque Airport,Rerrenabaque,Bolivia
7355,6.916667,-71.9,Los Colonizadores Airport,Saravena,Colombia
7356,-0.733333,-73.016667,La Chorrera Airport,La Chorrera,Colombia
7358,2.179167,-73.7875,La Macarena,La Macarena,Colombia
7359,0.978889,-76.605556,Villa Garzon Airport,Villa Garzon,Colombia
7364,-22.921667,-42.074167,Cabo Frio International Airport,Cabo Frio,Brazil
7367,-11.885,-55.586,Sinop Airport,Sinop,Brazil
7368,-11.728889,-49.068889,Gurupi Airport,Gurupi,Brazil
7372,-2.627778,-56.735833,Julio Belem Airport,Parintins,Brazil
7373,-12.083333,-45.0,Barreiras Airport,Barreiras,Brazil
7374,-10.47,-50.502778,Confresa Airport,Santa Terezinha,Brazil
7375,-13.526944,-48.220556,Minacu Airport,Minacu,Brazil
7376,-7.228333,-48.240833,Araguaina Airport,Araguaina,Brazil
7380,-22.220833,-54.805833,Dourados Airport,Dourados,Brazil
7382,-16.466667,-54.633333,Rondonopolis Airport,Rondonopolis,Brazil
7383,-25.383333,-51.45,Tancredo Thomaz de Faria Airport,Guarapuava,Brazil
7384,-27.172778,-51.500833,Joacaba Airport,Joacaba,Brazil
7394,-17.790278,-50.918333,General leite de Castro Airport,Rio Verde,Brazil
7395,-19.563056,-46.960278,Araxa Airport,Araxa,Brazil
7398,-4.085,-63.140833,Coari Airport,Coari,Brazil
7399,-0.975,-62.923889,Barcelos Airport,Barcelos,Brazil
7407,-14.216667,-42.783333,Guanambi Airport,Guanambi,Brazil
7417,9.359722,42.7875,Jijiga Airport,Jijiga,Ethiopia
7424,-1.406111,35.008056,Mara Serena Airport,Masai Mara,Kenya
7447,36.075833,10.438611,Enfidha - Zine El Abidine Ben Ali International Airport,Enfidha,Tunisia
7450,2.3275,31.5,Pakuba Airport,Pakuba,Uganda
7453,36.362778,36.282222,Hatay Airport,Hatay,Turkey
7456,-23.87,-147.67,Raivavae Airport,Raivavae,French Polynesia
7457,23.133333,113.28333,Foshan,Foshan,China
7459,41.727778,0.535833,Lleida-Alguaire Airport,Lleida,Spain
7470,48.991667,89.919722,Olgii Airport,Olgii,Mongolia
7478,44.92,147.621667,Burevestnik Airport,Iturup Island,Russia
7479,53.583333,142.933333,Okha Airport,Okha,Russia
7490,31.991667,44.404167,Al Najaf International Airport,Najaf,Iraq
7503,32.9,115.816667,Fuyang Airport,Fuyang,China
7504,25.674167,116.746389,Longyan Airport,Longyan,China
7505,25.053333,99.168333,Baoshan Airport,Baoshan,China
7506,25.0882,104.9587,Xingyi Airport,Xingyi,China
7508,26.206,109.039,Liping Airport,Liping,China
7519,27.441389,109.699722,Zhijiang Airport,Zhijiang,China
7527,23.738333,100.025,Lincang Airport,Lincang,China
7528,23.375833,104.243056,Wenshan Airport,Wenshan,China
7530,-0.148056,-66.9858,Sao Gabriel da Cachoeira Airport,Sao Gabriel da Cachoeira,Brazil
7532,-6.11781,-50.0035,Carajas Airport,Parauapebas,Brazil
7534,-4.2446,-56.00384,Cachimbo,Itaituba,Brazil
7546,27.379444,52.7375,Persian Gulf Airport,Khalije Fars,Iran
7547,30.700556,51.545,Yasuj Airport,Yasuj,Iran
7558,49.973333,92.079722,Ulaangom Airport,Ulaangom,Mongolia
7562,5.966667,80.683333,Dickwella Airport,Dickwella,Sri Lanka
7563,37.981667,69.799444,Kulob Airport,Kulyab,Tajikistan
7577,-33.797222,120.208056,Ravensthorpe Airport,Ravensthorpe,Australia
7579,40.21805555,-111.72222222,Provo Municipal Airport,Provo,United States
7584,35.8798019,-106.2694153,Los Alamos Airport,Los Alamos,United States
7616,-9.854722,161.979167,Ulawa Airport,Ulawa,Solomon Islands
7617,-6.711944,156.396111,Choiseul Bay Airport,Choiseul Bay,Solomon Islands
7618,-10.848056,162.454167,Santa Ana Airport,Santa Ana,Solomon Islands
7634,-17.956461,19.719439,Rundu,Rundu,Namibia
7642,65.612222,-37.618333,Tasiilaq,Angmagssalik,Greenland
7657,40.79935,-74.4148747,Morristown Municipal Airport,Morristown,United States
7669,30.3417,-85.7973,Panama City-NW Florida Bea.,Panama City,United States
7695,-0.5425,-78.3657,Cotopaxi International Airport,Latacunga,Ecuador
7774,12.3072,76.6497,Mysore Airport,Mysore,India
7798,47.78,10.627,Marktoberdorf BF,Marktoberdorf,Germany
7821,41.506111,32.088611,Zonguldak,Zonguldak,Turkey
7862,24.938651,98.483591,Tengchong Tuofeng Airport,Tengchong,China
7863,44.691431,33.57567,Belbek Sevastopol International Airport,Sevastopol,Ukraine
7894,32.825,97.125,Yushu Batang,Yushu,China
7895,9.303333,-78.236111,Playon Chico,Playon Chico,Panama
7898,33.7772,119.1478,Huai An Lianshui Airport,Huai An,China
7932,32.10027,80.052778,Gunsa,Shiquanhe,China
7962,8.68333,-77.5333,Puerto Obaldia,Puerto Obaldia,Panama
7976,-4.29694,39.5714,Ukunda Airport,Ukunda,Kenya
7987,55.29944,-123.08333,Mackenzie Airport,Mackenzie British Columbia,Canada
8043,37.5728,105.1544,Zhongwei Xiangshan Airport,Zhongwei,China
8076,24.55056,55.103174,Dubai Al Maktoum,Dubai,United Arab Emirates
8082,23.72,106.96,Tianyang,Baise,China
8130,19.374,96.121,NAYPYITAW,NAYPYITAW,Burma
8170,48.608056,-123.159722,Roche Harbor Seaplane Base,Roche Harbor,United States
8173,48.617778,-122.952778,Westsound Seaplane Base,Westsound,United States
8174,48.537222,-123.009722,Friday Harbor Seaplane Base,Friday Harbor,United States
8180,-21.5130558014,-43.1730575562,Zona da Mata Regional Airport,Juiz de Fora,Brazil
8199,60.471111,-164.700833,Nightmute Airport,Nightmute,United States
8200,60.541389,-165.087222,Toksook Bay Airport,Toksook Bay,United States
8201,60.575556,-165.271667,Tununak Airport,Tununak,United States
8202,59.1175,-161.5775,Goodnews Airport,Goodnews Bay,United States
8203,60.939167,-164.641111,Newtok Airport,Newtok,United States
8204,9.2,-77.98,Achutupo Airport,Achutupo,Panama
8206,8.06,-78.36,Garachine Airport,Garachine,Panama
8207,8.95,-77.75,Mulatupo Airport,Mulatupo,Panama
8208,70.485278,-21.966667,Ittoqqortoormiit Heliport,Ittoqqortoormiit,Greenland
8209,49.2433,28.6063,Vinnitsa,Vinnitsa,Ukraine
8217,50.195833,-61.265833,Kegaska Airport,Kegaska,Canada
8223,49.055556,-117.609167,Trail Airport,Trail,Canada
8225,73.006389,-85.047222,Arctic Bay Airport,Arctic Bay,Canada
8227,17.269444,-88.776111,Hector Silva Airstrip,Belmopan,Belize
8235,26.341189,31.742983,Sohag International,Sohag,Egypt
8237,-18.672778,-46.491111,Patos de Minas Airport,Patos de Minas,Brazil
8238,-22.157778,-49.068333,Bauru-Arealva,Bauru,Brazil
8239,-6.763056,-51.05,Ourilandia do Norte Airport,Ourilandia do Norte,Brazil
8240,-8.033333,-49.98,Redencao Airport,Redencao,Brazil
8241,-6.641389,-51.952222,Sao Felix do Xingu Airport,Sao Felix do Xingu,Brazil
8242,-21.247222,-56.4525,Bonito Airport,Bointo,Brazil
8243,-11.6325,-50.689444,Sao Felix do Araguaia Airport,Sao Felix do Araguaia,Brazil
8244,-26.788333,-50.939722,Carlos Alberto da Costa Neves Airport,Cacador,Brazil
8247,-6.639444,-69.879722,Amaury Feitosa Tomaz Airport,Eirunepe,Brazil
8256,-3.465556,-68.918889,Senadora Eunice Micheles Airport,Sao Paulo de Olivenca,Brazil
8258,-0.416944,-65.033889,Tapuruquara Airport,Santa Isabel do Rio Negro,Brazil
8266,36.2993,32.3014,Gazipasa Airport,Alanya,Turkey
8355,52.991111,-92.836389,Keewaywin,Keewaywin,Canada
8381,26.636718,37.908018,Prince Abdul Majeed Airport,Al-Ula,Saudi Arabia
8401,-8.7573222,116.276675,Lombok International Airport,Praya,Indonesia
8407,36.524,114.43,Hebei Handan Airport,Handan,China
8414,52.451111,20.651667,Warsaw Modlin,Warsaw,Poland
8417,45.30611,130.99667,Jixi Airport,Jixi,China
8428,63.683056,66.683056,Beloyarsky,Beloyarsky,Russia
8492,-23.666667,27.75,Ellisras,Lephalale,South Africa
8628,70.4047,52.0702,Uummannaq Heliport,Uummannaq,Greenland
8630,40.926389,107.738889,Bayannur,Bayannur,China
8735,-4.183333,121.61667,Pomalaa,Pomalaa,Indonesia
8740,51.966667,85.833333,Gorno-Altaysk Airport,Gorno-Altaysk,Russia
8774,38.746389,48.817778,Lankaran International Airport,Lankaran,Azerbaijan
8775,40.826667,47.7125,Qabala Airport,Qabala,Azerbaijan
8781,29.515,108.83,Zhoubai,Qianjiang,China
8782,43.5739,145.4107,Mendeleevo,Yuzhno-Kurilsk,Russia
8826,42.088056,127.548889,Changbaishan Airport,Baishan,China
8832,51.239333,22.714083,Lublin,Lublin,Poland
8845,26.345556,111.612222,Yongzhou Lingling Airport,Yongzhou,China
8858,39.717444,118.002389,Sannvhe,Tangshan,China
8876,32.5617,119.715,Yangzhou Taizhou Airport,Yangzhou,China
8892,0.7308,73.433,Kooddoo,Kooddoo,Maldives
8914,-27.509946,-64.936666,Termal,Rio Hondo,Argentina
8921,30.1575,101.734722,Kangding Airport,Kangding,China
8924,60.788333,46.26,Veliky Ustyug,Veliky Ustyug,Russia
8944,57.5137,114.1348,Bodaibo,Bodaibo,Russia
8949,6.284467,81.124128,Mattala Rajapaksa Intl.,Mattala,Sri Lanka
8961,24.2856083,52.5783472,Sir Bani Yas Island,Sir Bani Yas Island,United Arab Emirates
8962,24.5033833,52.3360528,Dalma Airport,Dalma Island,United Arab Emirates
8979,50.375,124.117,Jiagedaqi Airport,Jiagedaqi District,China
9025,27.253,105.426,Bijie Feixiong Airport,Bijie,China
9026,60.723,114.825,Lensk,Lensk,Russia
9043,39.983056,43.866389,Igdir,Igdir,Turkey
9044,37.45,38.9,Sanliurfa GAP,Sanliurfa,Turkey
9045,39.111389,30.13,Zafer,Kutahya,Turkey
9090,-33.687222,115.400278,Brusselton,Brusselton,Australia
9107,27.8033,114.3081,Yichun Mingyueshan Airport,Yichun,China
9135,19.90167,105.46778,Tho Xuan Airport,Thanh Hoa,Vietnam
9181,-2.583333,119.033333,Tampa Padang,Mamuju,Indonesia
9229,7.57212,80.43412,Sigiriya Airport,Sigiriya,Sri Lanka
9272,38.86111,40.5925,Bingol,Bingol,Turkey
9273,41.316944,33.796111,Uzunyazi,Kastamonu,Turkey
9310,29.3231,100.0533,Yading Daocheng,Daocheng,China
9311,34.4909,102.3719,Gannan,Xiahe city,China
9327,37.0,14.6144,Comiso,Comiso,Italy
